{"type":"FeatureCollection","name":"taito-megurin_routes","features":[{"type":"Feature","id":"F022:ROT_000001:SHP_001001","geometry":{"type":"LineString","coordinates":[[139.792988,35.722597],[139.79297,35.722633],[139.792997,35.722685],[139.793063,35.722689],[139.793132,35.722646],[139.793214,35.722564],[139.79609,35.724243],[139.796195,35.724272],[139.796329,35.724281],[139.79675,35.724269],[139.796901,35.724302],[139.796972,35.724347],[139.797087,35.724461],[139.797166,35.724539],[139.797186,35.724582],[139.797162,35.724627],[139.796614,35.725285],[139.79564,35.726406],[139.794668,35.727514],[139.794063,35.72828],[139.793975,35.72838],[139.793867,35.728442],[139.792965,35.729094],[139.791948,35.729841],[139.791878,35.729859],[139.791795,35.729853],[139.791725,35.729818],[139.790833,35.728858],[139.790817,35.728827],[139.790813,35.728767],[139.790951,35.726711],[139.79107,35.724845],[139.791043,35.724802],[139.791006,35.724773],[139.790941,35.724751],[139.790861,35.724732],[139.789434,35.724699],[139.78775,35.724666],[139.787518,35.724681],[139.787315,35.724711],[139.786329,35.725142],[139.786268,35.725154],[139.786204,35.725136],[139.784984,35.724189],[139.784272,35.723623],[139.783749,35.723171],[139.783389,35.722825],[139.78306,35.722482],[139.78272,35.722105],[139.782663,35.722085],[139.782592,35.72208],[139.782528,35.722095],[139.781969,35.722375],[139.781933,35.722408],[139.781911,35.722465],[139.781899,35.722547],[139.781881,35.723085],[139.781892,35.7238],[139.78191,35.724522],[139.781915,35.724695],[139.7819,35.724726],[139.781868,35.724749],[139.781836,35.724756],[139.78156,35.724779],[139.781333,35.724785],[139.781198,35.724773],[139.780455,35.724774],[139.78013,35.724797],[139.779889,35.724824],[139.779706,35.724828],[139.779532,35.724816],[139.779365,35.724828],[139.779092,35.724875],[139.778879,35.724908],[139.778193,35.724937],[139.778061,35.724957],[139.777053,35.725204],[139.777025,35.7252],[139.777011,35.72517],[139.777033,35.725135],[139.777105,35.725076],[139.777755,35.72465],[139.778624,35.724088],[139.77867,35.72404],[139.778671,35.723959],[139.778513,35.72355],[139.778359,35.723244],[139.778369,35.72319],[139.778418,35.723142],[139.779184,35.722869],[139.779405,35.722735],[139.779615,35.722559],[139.779937,35.722236],[139.780228,35.721918],[139.78099,35.721075],[139.78131,35.720877],[139.781391,35.720856],[139.781472,35.720862],[139.781534,35.720906],[139.782538,35.722016],[139.782594,35.722044],[139.782678,35.722049],[139.782763,35.722023],[139.78339,35.7217],[139.784101,35.721565],[139.785051,35.721403],[139.786155,35.7212],[139.786332,35.721192],[139.78715,35.721221],[139.787211,35.721211],[139.787266,35.721184],[139.787302,35.721133],[139.787837,35.71874],[139.787867,35.718696],[139.787909,35.718656],[139.787971,35.71863],[139.789192,35.718243],[139.789241,35.718242],[139.789282,35.718261],[139.789307,35.718291],[139.789434,35.719054],[139.78947,35.719169],[139.789512,35.719246],[139.789315,35.7206],[139.789321,35.721188],[139.789343,35.721242],[139.78939,35.721271],[139.789458,35.72129],[139.791058,35.721337],[139.791441,35.721339],[139.792867,35.721189],[139.792918,35.721199],[139.792932,35.721234],[139.792934,35.721572],[139.793134,35.722149],[139.793136,35.722244],[139.79311,35.722324],[139.79308,35.722377],[139.793075,35.722424],[139.793087,35.722472],[139.793102,35.722497],[139.793184,35.722551],[139.793114,35.722579],[139.793027,35.72259],[139.792987,35.722598]]},"properties":{"id":"F022:ROT_000001:SHP_001001","feed_id":"F022","feed_slug":"taito-megurin","municipality":"台東区","service_name":"めぐりん","license":"CC BY 4.0","source_route_id":"ROT_000001","route_short_name":null,"route_long_name":"北めぐりん（根岸まわり）","route_desc":null,"route_type":3,"route_url":null,"route_color":"EFCE7E","route_text_color":null,"directions":[],"geometry_source":"shapes.txt"}},{"type":"Feature","id":"F022:ROT_000001:SHP_001002","geometry":{"type":"LineString","coordinates":[[139.792988,35.722597],[139.79297,35.722633],[139.792997,35.722685],[139.793063,35.722689],[139.793132,35.722646],[139.793214,35.722564],[139.79609,35.724243],[139.796195,35.724272],[139.796329,35.724281],[139.79675,35.724269],[139.796901,35.724302],[139.796972,35.724347],[139.797087,35.724461],[139.797166,35.724539],[139.797186,35.724582],[139.797162,35.724627],[139.796614,35.725285],[139.79564,35.726406],[139.794668,35.727514],[139.794063,35.72828],[139.793975,35.72838],[139.793867,35.728442],[139.792965,35.729094],[139.791948,35.729841],[139.791878,35.729859],[139.791795,35.729853],[139.791725,35.729818],[139.790833,35.728858],[139.790817,35.728827],[139.790813,35.728767],[139.790951,35.726711],[139.79107,35.724845],[139.791043,35.724802],[139.791006,35.724773],[139.790941,35.724751],[139.790861,35.724732],[139.789434,35.724699],[139.78775,35.724666],[139.787518,35.724681],[139.787315,35.724711],[139.786329,35.725142],[139.786268,35.725154],[139.786204,35.725136],[139.784984,35.724189],[139.784272,35.723623],[139.783749,35.723171],[139.783389,35.722825],[139.78306,35.722482],[139.78272,35.722105],[139.782663,35.722085],[139.782592,35.72208],[139.782528,35.722095],[139.781969,35.722375],[139.781933,35.722408],[139.781911,35.722465],[139.781899,35.722547],[139.781881,35.723085],[139.781892,35.7238],[139.78191,35.724522],[139.781915,35.724695],[139.7819,35.724726],[139.781868,35.724749],[139.781836,35.724756],[139.78156,35.724779],[139.781333,35.724785],[139.781198,35.724773],[139.780455,35.724774],[139.78013,35.724797],[139.779889,35.724824],[139.779706,35.724828],[139.779532,35.724816],[139.779365,35.724828],[139.779092,35.724875],[139.778879,35.724908],[139.778193,35.724937],[139.778061,35.724957],[139.777053,35.725204],[139.777025,35.7252],[139.777011,35.72517],[139.777033,35.725135],[139.777105,35.725076],[139.777755,35.72465],[139.778624,35.724088],[139.77867,35.72404],[139.778671,35.723959],[139.778513,35.72355],[139.778359,35.723244],[139.778369,35.72319],[139.778418,35.723142],[139.779184,35.722869],[139.779405,35.722735],[139.779615,35.722559],[139.779937,35.722236],[139.780228,35.721918],[139.78099,35.721075],[139.78131,35.720877],[139.781391,35.720856],[139.781472,35.720862],[139.781534,35.720906],[139.782538,35.722016],[139.782594,35.722044],[139.782678,35.722049],[139.782763,35.722023],[139.78339,35.7217],[139.784336,35.721565]]},"properties":{"id":"F022:ROT_000001:SHP_001002","feed_id":"F022","feed_slug":"taito-megurin","municipality":"台東区","service_name":"めぐりん","license":"CC BY 4.0","source_route_id":"ROT_000001","route_short_name":null,"route_long_name":"北めぐりん（根岸まわり）","route_desc":null,"route_type":3,"route_url":null,"route_color":"EFCE7E","route_text_color":null,"directions":[],"geometry_source":"shapes.txt"}},{"type":"Feature","id":"F022:ROT_000002:SHP_002001","geometry":{"type":"LineString","coordinates":[[139.798193,35.711445],[139.799021,35.712373],[139.799175,35.712528],[139.799815,35.713092],[139.800385,35.713611],[139.800603,35.71384],[139.801676,35.715068],[139.802028,35.71542],[139.802521,35.716003],[139.802951,35.71649],[139.803492,35.717091],[139.803682,35.717342],[139.80382,35.717561],[139.803892,35.717727],[139.804046,35.718832],[139.804208,35.720065],[139.804305,35.720732],[139.804467,35.722477],[139.804489,35.722772],[139.804523,35.722821],[139.804588,35.722853],[139.804666,35.722854],[139.805756,35.722734],[139.805791,35.722735],[139.805819,35.722745],[139.805834,35.722765],[139.806178,35.724356],[139.806363,35.725169],[139.806528,35.725937],[139.806513,35.725961],[139.806488,35.725975],[139.805107,35.726228],[139.804884,35.726273],[139.802922,35.726232],[139.801022,35.726194],[139.800746,35.726108],[139.799294,35.725357],[139.798393,35.724902],[139.797435,35.72458],[139.797303,35.724575],[139.797205,35.724606],[139.795713,35.726313],[139.794954,35.727168],[139.794233,35.728053],[139.794015,35.728339],[139.79382,35.728482],[139.791912,35.72984],[139.791829,35.729861],[139.791749,35.729836],[139.790845,35.728886],[139.790814,35.728838],[139.790806,35.728761],[139.791079,35.724694],[139.791259,35.721429],[139.791293,35.72138],[139.791347,35.721351],[139.79142,35.721342],[139.792265,35.721252],[139.79287,35.721191],[139.792903,35.721193],[139.792929,35.721215],[139.792935,35.72124],[139.792926,35.721497],[139.792935,35.721574],[139.792955,35.721642],[139.793129,35.722141],[139.793138,35.722206],[139.793128,35.722263],[139.793079,35.722393],[139.793077,35.722422],[139.793082,35.722449],[139.793093,35.722476],[139.793109,35.722499],[139.793137,35.722523],[139.793144,35.722532],[139.793144,35.722544],[139.793094,35.722601],[139.79308,35.72261],[139.793066,35.722607],[139.793035,35.722593],[139.793011,35.722589],[139.792992,35.722593],[139.792963,35.722625],[139.79296,35.722651],[139.792972,35.722666],[139.79303,35.722697],[139.793069,35.722699],[139.7931,35.722682],[139.793192,35.722577],[139.793201,35.722552],[139.793195,35.722526],[139.793186,35.722501],[139.793154,35.722482],[139.793133,35.722454],[139.793128,35.722413],[139.793159,35.722333],[139.793173,35.722268],[139.793183,35.722211],[139.793166,35.722141],[139.792986,35.721639],[139.792969,35.721568],[139.792963,35.721497],[139.792969,35.721209],[139.792988,35.721094],[139.793173,35.720312],[139.793213,35.720264],[139.793278,35.720232],[139.793382,35.72021],[139.794126,35.720075],[139.795169,35.719871],[139.795417,35.719827],[139.797228,35.719368],[139.798003,35.719172],[139.798086,35.71914],[139.798146,35.719084],[139.798184,35.719032],[139.798208,35.718967],[139.798066,35.718305],[139.797886,35.717579],[139.797714,35.716967],[139.797481,35.716193],[139.797484,35.716159],[139.797511,35.71613],[139.797569,35.716108],[139.798494,35.715904],[139.798554,35.715871],[139.798616,35.71582],[139.798653,35.715751],[139.798659,35.715673],[139.798533,35.715173],[139.798411,35.714701],[139.798285,35.714256],[139.798217,35.713958],[139.798086,35.713444],[139.797913,35.712759],[139.797894,35.71261],[139.797814,35.711466],[139.797794,35.71107],[139.797806,35.711044],[139.797843,35.711032],[139.797883,35.711044],[139.798111,35.711341],[139.798193,35.711445]]},"properties":{"id":"F022:ROT_000002:SHP_002001","feed_id":"F022","feed_slug":"taito-megurin","municipality":"台東区","service_name":"めぐりん","license":"CC BY 4.0","source_route_id":"ROT_000002","route_short_name":null,"route_long_name":"北めぐりん（浅草まわり）","route_desc":null,"route_type":3,"route_url":null,"route_color":"F36E21","route_text_color":null,"directions":[],"geometry_source":"shapes.txt"}},{"type":"Feature","id":"F022:ROT_000002:SHP_002002","geometry":{"type":"LineString","coordinates":[[139.798193,35.711445],[139.799021,35.712373],[139.799175,35.712528],[139.799815,35.713092],[139.800385,35.713611],[139.800603,35.71384],[139.801676,35.715068],[139.802028,35.71542],[139.802521,35.716003],[139.802951,35.71649],[139.803492,35.717091],[139.803682,35.717342],[139.80382,35.717561],[139.803892,35.717727],[139.804046,35.718832],[139.804208,35.720065],[139.804305,35.720732],[139.804467,35.722477],[139.804489,35.722772],[139.804523,35.722821],[139.804588,35.722853],[139.804666,35.722854],[139.805756,35.722734],[139.805791,35.722735],[139.805819,35.722745],[139.805834,35.722765],[139.806178,35.724356],[139.806363,35.725169],[139.806528,35.725937],[139.806513,35.725961],[139.806488,35.725975],[139.805107,35.726228],[139.804884,35.726273],[139.802922,35.726232],[139.802079,35.72621]]},"properties":{"id":"F022:ROT_000002:SHP_002002","feed_id":"F022","feed_slug":"taito-megurin","municipality":"台東区","service_name":"めぐりん","license":"CC BY 4.0","source_route_id":"ROT_000002","route_short_name":null,"route_long_name":"北めぐりん（浅草まわり）","route_desc":null,"route_type":3,"route_url":null,"route_color":"F36E21","route_text_color":null,"directions":[],"geometry_source":"shapes.txt"}},{"type":"Feature","id":"F022:ROT_000003:SHP_003001","geometry":{"type":"LineString","coordinates":[[139.792993,35.722592],[139.792965,35.722626],[139.792976,35.722658],[139.793043,35.722693],[139.793069,35.722694],[139.793095,35.722687],[139.793171,35.7226],[139.793186,35.722564],[139.793188,35.722528],[139.793178,35.722496],[139.793143,35.722471],[139.793124,35.722421],[139.793129,35.722376],[139.793174,35.722265],[139.793177,35.722221],[139.793167,35.722151],[139.792994,35.721659],[139.792979,35.721601],[139.79297,35.721529],[139.792975,35.721208],[139.79297,35.721188],[139.792934,35.721156],[139.792884,35.721149],[139.792082,35.721238],[139.791394,35.721305],[139.791044,35.721302],[139.788655,35.721228],[139.786317,35.72116],[139.786275,35.721151],[139.786251,35.721126],[139.785972,35.71926],[139.785531,35.717556],[139.785505,35.717513],[139.785453,35.717483],[139.785381,35.717481],[139.783488,35.71786],[139.783442,35.717853],[139.783402,35.71783],[139.783034,35.716781],[139.782796,35.716278],[139.782683,35.715979],[139.782561,35.715669],[139.781453,35.713941],[139.781282,35.713672],[139.780933,35.713123],[139.780885,35.713006],[139.780776,35.712306],[139.780741,35.712283],[139.780691,35.712275],[139.780121,35.712376],[139.779732,35.712456],[139.779716,35.712488],[139.779573,35.712511],[139.779533,35.712484],[139.779234,35.712517],[139.779223,35.71251],[139.778985,35.71208],[139.778925,35.712027],[139.778838,35.71198],[139.778698,35.711964],[139.778495,35.712004]]},"properties":{"id":"F022:ROT_000003:SHP_003001","feed_id":"F022","feed_slug":"taito-megurin","municipality":"台東区","service_name":"めぐりん","license":"CC BY 4.0","source_route_id":"ROT_000003","route_short_name":null,"route_long_name":"南めぐりん","route_desc":null,"route_type":3,"route_url":null,"route_color":"63F04E","route_text_color":null,"directions":[],"geometry_source":"shapes.txt"}},{"type":"Feature","id":"F022:ROT_000003:SHP_003002","geometry":{"type":"LineString","coordinates":[[139.791528,35.711739],[139.788615,35.712324],[139.788575,35.712322],[139.788536,35.712295],[139.788437,35.711778],[139.78832,35.710481],[139.788271,35.710405],[139.78818,35.710335],[139.788053,35.710306],[139.785028,35.710853],[139.780835,35.7116],[139.780754,35.711633],[139.780686,35.711694],[139.780664,35.711753],[139.780862,35.713011],[139.780911,35.713132],[139.78174,35.714442],[139.782155,35.715099],[139.782534,35.715689],[139.782588,35.71573],[139.782663,35.715734],[139.783971,35.715467],[139.785398,35.715192],[139.786087,35.715055],[139.78878,35.714507],[139.788833,35.714511],[139.788861,35.714547],[139.78895,35.715426],[139.789043,35.716223],[139.789151,35.717181],[139.789229,35.717771],[139.789399,35.718758],[139.78947,35.719155],[139.789501,35.719257],[139.789319,35.720592],[139.789322,35.721198],[139.789353,35.721245],[139.789415,35.721281],[139.789501,35.721291],[139.791036,35.721342],[139.79139,35.72134],[139.792087,35.721273],[139.792876,35.721182],[139.792915,35.721194],[139.792935,35.721212],[139.792932,35.721531],[139.792941,35.721604],[139.792963,35.72167],[139.793123,35.722121],[139.793134,35.722177],[139.793134,35.722248],[139.793087,35.722364],[139.793076,35.722416],[139.793088,35.722468],[139.793123,35.722505],[139.793143,35.722554],[139.793112,35.722597],[139.793081,35.722605],[139.793039,35.72258],[139.792993,35.722592],[139.792965,35.722626],[139.792976,35.722658],[139.793043,35.722693],[139.793069,35.722694],[139.793095,35.722687],[139.793171,35.7226],[139.793186,35.722564],[139.793188,35.722528],[139.793178,35.722496],[139.793143,35.722471],[139.793124,35.722421],[139.793129,35.722376],[139.793174,35.722265],[139.793177,35.722221],[139.793167,35.722151],[139.792994,35.721659],[139.792979,35.721601],[139.79297,35.721529],[139.792975,35.721208],[139.79297,35.721188],[139.792934,35.721156],[139.792884,35.721149],[139.792082,35.721238],[139.791394,35.721305],[139.791044,35.721302],[139.788655,35.721228],[139.786317,35.72116],[139.786275,35.721151],[139.786251,35.721126],[139.785972,35.71926],[139.785531,35.717556],[139.785505,35.717513],[139.785453,35.717483],[139.785381,35.717481],[139.783488,35.71786],[139.783442,35.717853],[139.783402,35.71783],[139.783034,35.716781],[139.782796,35.716278],[139.782683,35.715979],[139.782561,35.715669],[139.781453,35.713941],[139.781282,35.713672],[139.780933,35.713123],[139.780885,35.713006],[139.780776,35.712306],[139.780741,35.712283],[139.780691,35.712275],[139.780121,35.712376],[139.779732,35.712456],[139.779716,35.712488],[139.779573,35.712511],[139.779533,35.712484],[139.779234,35.712517],[139.779223,35.71251],[139.778985,35.71208],[139.778925,35.712027],[139.778838,35.71198],[139.778698,35.711964],[139.778495,35.712004]]},"properties":{"id":"F022:ROT_000003:SHP_003002","feed_id":"F022","feed_slug":"taito-megurin","municipality":"台東区","service_name":"めぐりん","license":"CC BY 4.0","source_route_id":"ROT_000003","route_short_name":null,"route_long_name":"南めぐりん","route_desc":null,"route_type":3,"route_url":null,"route_color":"63F04E","route_text_color":null,"directions":[],"geometry_source":"shapes.txt"}},{"type":"Feature","id":"F022:ROT_000003:SHP_003003","geometry":{"type":"LineString","coordinates":[[139.778495,35.712004],[139.778202,35.712035],[139.778107,35.712027],[139.778004,35.711988],[139.776914,35.711121],[139.776913,35.711095],[139.776927,35.711065],[139.778557,35.710243],[139.778589,35.710211],[139.778604,35.710178],[139.778609,35.710126],[139.778457,35.709685],[139.778322,35.709231],[139.778209,35.708256],[139.778131,35.707565],[139.77815,35.707525],[139.77818,35.7075],[139.77823,35.707487],[139.779096,35.70739],[139.779915,35.707296],[139.77997,35.707271],[139.780012,35.707227],[139.780012,35.707153],[139.779946,35.706663],[139.77977,35.704995],[139.779664,35.703932],[139.779497,35.702455],[139.779469,35.702249],[139.779123,35.700358],[139.779138,35.700332],[139.77917,35.700318],[139.780446,35.700201],[139.780507,35.700172],[139.780573,35.700116],[139.780588,35.700046],[139.780447,35.699233],[139.780473,35.699198],[139.780512,35.699174],[139.78058,35.699159],[139.782883,35.698989],[139.783124,35.69897],[139.784642,35.698831],[139.786847,35.698491],[139.787215,35.698443],[139.789164,35.697588],[139.789229,35.697579],[139.789278,35.697599],[139.789794,35.698417],[139.790355,35.699225],[139.790355,35.699248],[139.79034,35.699261],[139.788324,35.700226],[139.787898,35.700375],[139.785916,35.701082],[139.785535,35.701275],[139.785461,35.701297],[139.785319,35.701323],[139.785285,35.701352],[139.785278,35.70139],[139.785326,35.701661],[139.785364,35.701726],[139.785434,35.701772],[139.785519,35.701793],[139.78598,35.701748],[139.787012,35.701793],[139.787862,35.701823],[139.787916,35.701852],[139.787946,35.701882],[139.787967,35.701922],[139.787912,35.702889],[139.787958,35.704749],[139.788,35.706241],[139.788071,35.706353],[139.788209,35.706405],[139.789469,35.706283],[139.790555,35.706165],[139.790664,35.706189],[139.790741,35.706284],[139.790942,35.707811],[139.791235,35.709268],[139.791554,35.710322],[139.791878,35.711269],[139.791953,35.711596],[139.791931,35.711655],[139.79184,35.711682],[139.790981,35.71184],[139.788615,35.712324],[139.788575,35.712322],[139.788536,35.712295],[139.788437,35.711778],[139.78832,35.710481],[139.788271,35.710405],[139.78818,35.710335],[139.788053,35.710306],[139.785028,35.710853],[139.780835,35.7116],[139.780754,35.711633],[139.780686,35.711694],[139.780664,35.711753],[139.780862,35.713011],[139.780911,35.713132],[139.78174,35.714442],[139.782155,35.715099],[139.782534,35.715689],[139.782588,35.71573],[139.782663,35.715734],[139.783971,35.715467],[139.785398,35.715192],[139.786087,35.715055],[139.78878,35.714507],[139.788833,35.714511],[139.788861,35.714547],[139.78895,35.715426],[139.789043,35.716223],[139.789151,35.717181],[139.789229,35.717771],[139.789399,35.718758],[139.78947,35.719155],[139.789501,35.719257],[139.789319,35.720592],[139.789322,35.721198],[139.789353,35.721245],[139.789415,35.721281],[139.789501,35.721291],[139.791036,35.721342],[139.79139,35.72134],[139.792087,35.721273],[139.792876,35.721182],[139.792915,35.721194],[139.792935,35.721212],[139.792932,35.721531],[139.792941,35.721604],[139.792963,35.72167],[139.793123,35.722121],[139.793134,35.722177],[139.793134,35.722248],[139.793087,35.722364],[139.793076,35.722416],[139.793088,35.722468],[139.793123,35.722505],[139.793143,35.722554],[139.793112,35.722597],[139.793081,35.722605],[139.793039,35.72258],[139.792993,35.722592],[139.792965,35.722626],[139.792976,35.722658],[139.793043,35.722693],[139.793069,35.722694],[139.793095,35.722687],[139.793171,35.7226],[139.793186,35.722564],[139.793188,35.722528],[139.793178,35.722496],[139.793143,35.722471],[139.793124,35.722421],[139.793129,35.722376],[139.793174,35.722265],[139.793177,35.722221],[139.793167,35.722151],[139.792994,35.721659],[139.792979,35.721601],[139.79297,35.721529],[139.792975,35.721208],[139.79297,35.721188],[139.792934,35.721156],[139.792884,35.721149],[139.792082,35.721238],[139.791394,35.721305],[139.791044,35.721302],[139.788655,35.721228],[139.786317,35.72116],[139.786275,35.721151],[139.786251,35.721126],[139.785972,35.71926],[139.785531,35.717556],[139.785505,35.717513],[139.785453,35.717483],[139.785381,35.717481],[139.783488,35.71786],[139.783442,35.717853],[139.783402,35.71783],[139.783034,35.716781],[139.782796,35.716278],[139.782683,35.715979],[139.782561,35.715669],[139.781453,35.713941],[139.781282,35.713672],[139.780933,35.713123],[139.780885,35.713006],[139.780776,35.712306],[139.780741,35.712283],[139.780691,35.712275],[139.780121,35.712376],[139.779732,35.712456],[139.779716,35.712488],[139.779573,35.712511],[139.779533,35.712484],[139.779234,35.712517],[139.779223,35.71251],[139.778985,35.71208],[139.778925,35.712027],[139.778838,35.71198],[139.778698,35.711964],[139.778495,35.712004]]},"properties":{"id":"F022:ROT_000003:SHP_003003","feed_id":"F022","feed_slug":"taito-megurin","municipality":"台東区","service_name":"めぐりん","license":"CC BY 4.0","source_route_id":"ROT_000003","route_short_name":null,"route_long_name":"南めぐりん","route_desc":null,"route_type":3,"route_url":null,"route_color":"63F04E","route_text_color":null,"directions":[],"geometry_source":"shapes.txt"}},{"type":"Feature","id":"F022:ROT_000003:SHP_003004","geometry":{"type":"LineString","coordinates":[[139.778495,35.712004],[139.778202,35.712035],[139.778107,35.712027],[139.778004,35.711988],[139.776914,35.711121],[139.776913,35.711095],[139.776927,35.711065],[139.778557,35.710243],[139.778589,35.710211],[139.778604,35.710178],[139.778609,35.710126],[139.778457,35.709685],[139.778322,35.709231],[139.778209,35.708256],[139.778131,35.707565],[139.77815,35.707525],[139.77818,35.7075],[139.77823,35.707487],[139.779096,35.70739],[139.779915,35.707296],[139.77997,35.707271],[139.780012,35.707227],[139.780012,35.707153],[139.779946,35.706663],[139.77977,35.704995],[139.779664,35.703932],[139.779497,35.702455],[139.779469,35.702249],[139.779123,35.700358],[139.779138,35.700332],[139.77917,35.700318],[139.780446,35.700201],[139.780507,35.700172],[139.780573,35.700116],[139.780588,35.700046],[139.780447,35.699233],[139.780473,35.699198],[139.780512,35.699174],[139.78058,35.699159],[139.782883,35.698989],[139.783124,35.69897],[139.784642,35.698831],[139.786847,35.698491],[139.787215,35.698443],[139.789164,35.697588],[139.789229,35.697579],[139.789278,35.697599],[139.789794,35.698417],[139.790355,35.699225],[139.790355,35.699248],[139.79034,35.699261],[139.788324,35.700226],[139.787898,35.700375],[139.785916,35.701082],[139.785535,35.701275],[139.785461,35.701297],[139.785319,35.701323],[139.785285,35.701352],[139.785278,35.70139],[139.785326,35.701661],[139.785364,35.701726],[139.785434,35.701772],[139.785519,35.701793],[139.78598,35.701748],[139.787012,35.701793],[139.787862,35.701823],[139.787916,35.701852],[139.787946,35.701882],[139.787967,35.701922],[139.787912,35.702889],[139.787958,35.704749],[139.788,35.706241],[139.788071,35.706353],[139.788209,35.706405],[139.789469,35.706283],[139.790555,35.706165],[139.790664,35.706189],[139.790741,35.706284],[139.790942,35.707811],[139.791235,35.709268],[139.791554,35.710322],[139.791878,35.711269],[139.791953,35.711596],[139.791931,35.711655],[139.79184,35.711682],[139.790981,35.71184],[139.788615,35.712324],[139.788575,35.712322],[139.788536,35.712295],[139.788437,35.711778],[139.78832,35.710481],[139.788271,35.710405],[139.78818,35.710335],[139.788053,35.710306],[139.785028,35.710853],[139.780835,35.7116],[139.780754,35.711633],[139.780686,35.711694],[139.780664,35.711753],[139.780862,35.713011],[139.780911,35.713132],[139.78174,35.714442],[139.782155,35.715099],[139.782534,35.715689],[139.782588,35.71573],[139.782663,35.715734],[139.783971,35.715467],[139.785398,35.715192],[139.786087,35.715055],[139.78878,35.714507],[139.788833,35.714511],[139.788861,35.714547],[139.78895,35.715426],[139.789043,35.716223],[139.789151,35.717181],[139.789229,35.717771],[139.789399,35.718758],[139.78947,35.719155],[139.789501,35.719257],[139.789319,35.720592],[139.789322,35.721198],[139.789353,35.721245],[139.789415,35.721281],[139.789501,35.721291],[139.791036,35.721342],[139.79139,35.72134],[139.792087,35.721273],[139.792876,35.721182],[139.792915,35.721194],[139.792935,35.721212],[139.792932,35.721531],[139.792941,35.721604],[139.792963,35.72167],[139.793123,35.722121],[139.793134,35.722177],[139.793134,35.722248],[139.793087,35.722364],[139.793076,35.722416],[139.793088,35.722468],[139.793123,35.722505],[139.793143,35.722554],[139.793112,35.722597],[139.793081,35.722605],[139.793039,35.72258],[139.793006,35.722572]]},"properties":{"id":"F022:ROT_000003:SHP_003004","feed_id":"F022","feed_slug":"taito-megurin","municipality":"台東区","service_name":"めぐりん","license":"CC BY 4.0","source_route_id":"ROT_000003","route_short_name":null,"route_long_name":"南めぐりん","route_desc":null,"route_type":3,"route_url":null,"route_color":"63F04E","route_text_color":null,"directions":[],"geometry_source":"shapes.txt"}},{"type":"Feature","id":"F022:ROT_000003:SHP_003005","geometry":{"type":"LineString","coordinates":[[139.778495,35.712004],[139.778202,35.712035],[139.778107,35.712027],[139.778004,35.711988],[139.776914,35.711121],[139.776913,35.711095],[139.776927,35.711065],[139.778557,35.710243],[139.778589,35.710211],[139.778604,35.710178],[139.778609,35.710126],[139.778457,35.709685],[139.778322,35.709231],[139.778209,35.708256],[139.778131,35.707565],[139.77815,35.707525],[139.77818,35.7075],[139.77823,35.707487],[139.779096,35.70739],[139.779915,35.707296],[139.77997,35.707271],[139.780012,35.707227],[139.780012,35.707153],[139.779946,35.706663],[139.77977,35.704995],[139.779664,35.703932],[139.779497,35.702455],[139.779469,35.702249],[139.779123,35.700358],[139.779138,35.700332],[139.77917,35.700318],[139.780446,35.700201],[139.780507,35.700172],[139.780573,35.700116],[139.780588,35.700046],[139.780447,35.699233],[139.780473,35.699198],[139.780512,35.699174],[139.78058,35.699159],[139.782883,35.698989],[139.783124,35.69897],[139.784642,35.698831],[139.786847,35.698491],[139.787215,35.698443],[139.789164,35.697588],[139.789229,35.697579],[139.789278,35.697599],[139.789794,35.698417],[139.790355,35.699225],[139.790355,35.699248],[139.79034,35.699261],[139.788324,35.700226],[139.787898,35.700375],[139.785916,35.701082],[139.785535,35.701275],[139.785461,35.701297],[139.785319,35.701323],[139.785285,35.701352],[139.785278,35.70139],[139.785326,35.701661],[139.785364,35.701726],[139.785434,35.701772],[139.785519,35.701793],[139.78598,35.701748],[139.787012,35.701793],[139.787862,35.701823],[139.787916,35.701852],[139.787946,35.701882],[139.787967,35.701922],[139.787912,35.702889],[139.787958,35.704749],[139.788,35.706241],[139.788071,35.706353],[139.788209,35.706405],[139.789469,35.706283],[139.790555,35.706165],[139.790664,35.706189],[139.790741,35.706284],[139.790942,35.707811],[139.791235,35.709268],[139.791245,35.709442]]},"properties":{"id":"F022:ROT_000003:SHP_003005","feed_id":"F022","feed_slug":"taito-megurin","municipality":"台東区","service_name":"めぐりん","license":"CC BY 4.0","source_route_id":"ROT_000003","route_short_name":null,"route_long_name":"南めぐりん","route_desc":null,"route_type":3,"route_url":null,"route_color":"63F04E","route_text_color":null,"directions":[],"geometry_source":"shapes.txt"}},{"type":"Feature","id":"F022:ROT_000003:SHP_003006","geometry":{"type":"LineString","coordinates":[[139.778495,35.712004],[139.778202,35.712035],[139.778107,35.712027],[139.778004,35.711988],[139.776914,35.711121],[139.776913,35.711095],[139.776927,35.711065],[139.778557,35.710243],[139.778589,35.710211],[139.778604,35.710178],[139.778609,35.710126],[139.778457,35.709685],[139.778322,35.709231],[139.778209,35.708256],[139.778131,35.707565],[139.77815,35.707525],[139.77818,35.7075],[139.77823,35.707487],[139.779096,35.70739],[139.779915,35.707296],[139.77997,35.707271],[139.780012,35.707227],[139.780012,35.707153],[139.779946,35.706663],[139.77977,35.704995],[139.779664,35.703932],[139.779497,35.702455],[139.779469,35.702249],[139.779123,35.700358],[139.779138,35.700332],[139.77917,35.700318],[139.780446,35.700201],[139.780507,35.700172],[139.780573,35.700116],[139.780588,35.700046],[139.780447,35.699233],[139.780473,35.699198],[139.780512,35.699174],[139.78058,35.699159],[139.782883,35.698989],[139.783124,35.69897],[139.784642,35.698831],[139.786847,35.698491]]},"properties":{"id":"F022:ROT_000003:SHP_003006","feed_id":"F022","feed_slug":"taito-megurin","municipality":"台東区","service_name":"めぐりん","license":"CC BY 4.0","source_route_id":"ROT_000003","route_short_name":null,"route_long_name":"南めぐりん","route_desc":null,"route_type":3,"route_url":null,"route_color":"63F04E","route_text_color":null,"directions":[],"geometry_source":"shapes.txt"}},{"type":"Feature","id":"F022:ROT_000004:SHP_004001","geometry":{"type":"LineString","coordinates":[[139.798209,35.711439],[139.799021,35.712408],[139.799003,35.712447],[139.798951,35.71247],[139.797971,35.712651],[139.797919,35.712646],[139.797895,35.712616],[139.797755,35.710788],[139.797674,35.71072],[139.797558,35.710692],[139.796427,35.710843],[139.79638,35.710838],[139.796339,35.710801],[139.79623,35.709917],[139.79614,35.709133],[139.796095,35.70901],[139.79596,35.708875],[139.795813,35.708828],[139.79447,35.709036],[139.794381,35.709032],[139.794311,35.708982],[139.793946,35.707708],[139.793459,35.706785],[139.793412,35.706754],[139.79334,35.706755],[139.791143,35.707408],[139.790547,35.707398],[139.788091,35.707385],[139.786551,35.707436],[139.785085,35.707482],[139.785038,35.707472],[139.785011,35.707438],[139.785022,35.706792],[139.785006,35.70662],[139.784955,35.706243],[139.784851,35.705364],[139.784776,35.704745],[139.784432,35.703468],[139.784372,35.703418],[139.78427,35.70341],[139.781428,35.703813],[139.781333,35.703871],[139.781294,35.703935],[139.781596,35.705184],[139.781825,35.706514],[139.781976,35.707411],[139.782082,35.708481],[139.782051,35.708546],[139.781988,35.708572],[139.78023,35.708715],[139.780179,35.708742],[139.780148,35.708782],[139.780277,35.709514],[139.780347,35.709906],[139.780635,35.711575],[139.780744,35.712241],[139.78072,35.71227],[139.78,35.7124],[139.779725,35.712447],[139.779693,35.712501],[139.779541,35.712533]]},"properties":{"id":"F022:ROT_000004:SHP_004001","feed_id":"F022","feed_slug":"taito-megurin","municipality":"台東区","service_name":"めぐりん","license":"CC BY 4.0","source_route_id":"ROT_000004","route_short_name":null,"route_long_name":"東西めぐりん","route_desc":null,"route_type":3,"route_url":null,"route_color":"E36B58","route_text_color":null,"directions":[],"geometry_source":"shapes.txt"}},{"type":"Feature","id":"F022:ROT_000004:SHP_004002","geometry":{"type":"LineString","coordinates":[[139.769793,35.723047],[139.769392,35.72346],[139.769323,35.723502],[139.768402,35.723599],[139.767276,35.723728],[139.766745,35.723746],[139.765737,35.724063],[139.764801,35.72443],[139.764642,35.7245],[139.76431,35.724562],[139.764258,35.724589],[139.764229,35.724631],[139.764225,35.724721],[139.764218,35.724754],[139.764142,35.724949],[139.764136,35.724995],[139.764167,35.725216],[139.764242,35.725582],[139.764352,35.72594],[139.764413,35.726167],[139.764459,35.726385],[139.764544,35.726553],[139.764563,35.726618],[139.764564,35.72664],[139.764547,35.726651],[139.76374,35.726809],[139.763709,35.726807],[139.763683,35.726789],[139.763189,35.725161],[139.763121,35.724876],[139.763141,35.724834],[139.763172,35.724811],[139.763809,35.724685],[139.764662,35.724522],[139.766011,35.724007],[139.766752,35.723794],[139.767665,35.723736],[139.769188,35.723547],[139.769379,35.723528],[139.76951,35.72345],[139.769632,35.723331],[139.770065,35.72293],[139.770213,35.722808],[139.770293,35.722595],[139.770867,35.721125],[139.770844,35.721088],[139.770794,35.721067],[139.769464,35.720674],[139.76944,35.720632],[139.769452,35.720578],[139.76944,35.720632],[139.769452,35.720578],[139.769726,35.719951],[139.76971,35.719912],[139.769303,35.719573],[139.768392,35.718806],[139.768391,35.718788],[139.768695,35.718477],[139.769658,35.717465],[139.7698,35.717203],[139.769881,35.716952],[139.769902,35.716814],[139.769892,35.71669],[139.769818,35.71636],[139.76978,35.715976],[139.769758,35.715958],[139.769726,35.71595],[139.769492,35.715954],[139.768976,35.715778],[139.768702,35.715706],[139.768563,35.715674],[139.768186,35.715657],[139.768002,35.715604],[139.767322,35.715684],[139.767265,35.715662],[139.76723,35.715617],[139.767246,35.715553],[139.767424,35.715297],[139.767821,35.714656],[139.768098,35.713984],[139.768527,35.712676],[139.768607,35.712323],[139.768682,35.711805],[139.768806,35.710334],[139.768903,35.709959],[139.769106,35.709724],[139.769374,35.709554],[139.769647,35.709407],[139.769878,35.709362],[139.770184,35.70939],[139.771343,35.709624],[139.772577,35.709871],[139.772782,35.709896],[139.773086,35.709868],[139.773304,35.709855],[139.773408,35.709883],[139.773471,35.70994],[139.773669,35.710355],[139.774008,35.710948],[139.77425,35.711388],[139.77443,35.711579],[139.774632,35.711666],[139.774814,35.711688],[139.775795,35.711557],[139.776364,35.71151],[139.776585,35.711522],[139.776806,35.71157],[139.777311,35.711945],[139.777537,35.712105],[139.777743,35.712172],[139.778065,35.712201],[139.77881,35.712064],[139.778909,35.712064],[139.778966,35.712101],[139.779223,35.71253],[139.779267,35.712542],[139.779485,35.7125],[139.779542,35.712532],[139.779692,35.712501],[139.779732,35.712469],[139.780161,35.712386],[139.780726,35.712285],[139.780749,35.712298],[139.780865,35.713013],[139.780852,35.713053],[139.780821,35.713079],[139.779899,35.713428],[139.779735,35.713491],[139.779428,35.713603],[139.779214,35.713681],[139.779019,35.713759],[139.778404,35.71415],[139.778352,35.714193],[139.778342,35.714244],[139.778361,35.714288],[139.778959,35.715139],[139.779983,35.716334],[139.780055,35.716385],[139.780148,35.716398],[139.781158,35.716135],[139.781669,35.715998],[139.782581,35.71575],[139.783088,35.715645],[139.784081,35.715441],[139.784683,35.715327],[139.785936,35.715077],[139.78678,35.714909],[139.787866,35.714685],[139.788887,35.714486],[139.790317,35.714208],[139.791408,35.713999],[139.792251,35.713831],[139.792368,35.713793],[139.792436,35.713726],[139.792473,35.713622],[139.792092,35.711544],[139.792103,35.71149],[139.792148,35.711451],[139.792223,35.711426],[139.794636,35.711148],[139.797569,35.710768],[139.797682,35.710805],[139.797764,35.710891],[139.798993,35.712352],[139.799021,35.712408],[139.799003,35.712447],[139.798951,35.71247],[139.797971,35.712651],[139.797919,35.712646],[139.797895,35.712616],[139.797755,35.710788],[139.797674,35.71072],[139.797558,35.710692],[139.796427,35.710843],[139.79638,35.710838],[139.796339,35.710801],[139.79623,35.709917],[139.79614,35.709133],[139.796095,35.70901],[139.79596,35.708875],[139.795813,35.708828],[139.79447,35.709036],[139.794381,35.709032],[139.794311,35.708982],[139.793946,35.707708],[139.793459,35.706785],[139.793412,35.706754],[139.79334,35.706755],[139.791143,35.707408],[139.790547,35.707398],[139.788091,35.707385],[139.786551,35.707436],[139.785085,35.707482],[139.785038,35.707472],[139.785011,35.707438],[139.785022,35.706792],[139.785006,35.70662],[139.784955,35.706243],[139.784851,35.705364],[139.784776,35.704745],[139.784432,35.703468],[139.784372,35.703418],[139.78427,35.70341],[139.781428,35.703813],[139.781333,35.703871],[139.781294,35.703935],[139.781596,35.705184],[139.781825,35.706514],[139.781976,35.707411],[139.782082,35.708481],[139.782051,35.708546],[139.781988,35.708572],[139.78023,35.708715],[139.780179,35.708742],[139.780148,35.708782],[139.780277,35.709514],[139.780347,35.709906],[139.780635,35.711575],[139.780744,35.712241],[139.78072,35.71227],[139.78,35.7124],[139.779725,35.712447],[139.779693,35.712501],[139.779541,35.712533]]},"properties":{"id":"F022:ROT_000004:SHP_004002","feed_id":"F022","feed_slug":"taito-megurin","municipality":"台東区","service_name":"めぐりん","license":"CC BY 4.0","source_route_id":"ROT_000004","route_short_name":null,"route_long_name":"東西めぐりん","route_desc":null,"route_type":3,"route_url":null,"route_color":"E36B58","route_text_color":null,"directions":[],"geometry_source":"shapes.txt"}},{"type":"Feature","id":"F022:ROT_000004:SHP_004003","geometry":{"type":"LineString","coordinates":[[139.779692,35.712501],[139.779542,35.712532],[139.779449,35.71248],[139.779254,35.712519],[139.779238,35.712558],[139.779416,35.712842],[139.779461,35.712945],[139.779759,35.713437],[139.779763,35.713466],[139.779736,35.713491],[139.779428,35.713603],[139.779214,35.713681],[139.779019,35.713759],[139.778404,35.71415],[139.778352,35.714193],[139.778342,35.714244],[139.778361,35.714288],[139.77896,35.715139],[139.779983,35.716334],[139.78009,35.716463],[139.780383,35.716815],[139.780741,35.717245],[139.780759,35.717275],[139.780743,35.717319],[139.78071,35.717357],[139.780669,35.717408],[139.780645,35.71747],[139.7805,35.719006],[139.780539,35.719143],[139.780862,35.719811],[139.781226,35.720535],[139.781241,35.720593],[139.781234,35.720657],[139.781197,35.720697],[139.780761,35.721015],[139.780585,35.721195],[139.7804,35.721441],[139.780031,35.721908],[139.779724,35.722236],[139.779416,35.722534],[139.779289,35.722628],[139.77916,35.722702],[139.779029,35.722775],[139.778052,35.723132],[139.776765,35.723589],[139.776655,35.723608],[139.776552,35.723615],[139.776342,35.723616],[139.77612,35.723593],[139.775833,35.723563],[139.775728,35.723536],[139.77561,35.723499],[139.775497,35.723444],[139.774999,35.72309],[139.774358,35.722631],[139.773932,35.722319],[139.773621,35.722053],[139.773555,35.722001],[139.773351,35.721915],[139.771442,35.72125],[139.771025,35.721135],[139.770892,35.721086],[139.770815,35.721114],[139.770224,35.722704],[139.770179,35.722766],[139.769842,35.723041],[139.769392,35.72346],[139.769362,35.72348],[139.769323,35.723502],[139.769284,35.723513],[139.768402,35.723599],[139.767671,35.723694],[139.76674,35.723766],[139.766549,35.723813],[139.765737,35.724063],[139.765072,35.724343],[139.764642,35.7245],[139.76431,35.724562],[139.764258,35.724589],[139.764229,35.724631],[139.764225,35.724721],[139.764218,35.724754],[139.764142,35.724949],[139.764136,35.724995],[139.764167,35.725216],[139.764242,35.725582],[139.764352,35.72594],[139.764413,35.726167],[139.764459,35.726385],[139.764544,35.726553],[139.764563,35.726618],[139.764564,35.72664],[139.764547,35.726651],[139.76374,35.726809],[139.763709,35.726807],[139.763683,35.726789],[139.763189,35.725161],[139.763192,35.724893],[139.763171,35.724811],[139.763141,35.724834],[139.76312,35.724876],[139.762947,35.724312],[139.762807,35.723842],[139.762687,35.723419],[139.762363,35.722329],[139.762081,35.721381],[139.762085,35.721173],[139.762132,35.721078],[139.762552,35.720618],[139.763095,35.72005],[139.764139,35.719015],[139.765125,35.718003],[139.765192,35.717977],[139.765259,35.717983],[139.766301,35.718685],[139.76741,35.71938],[139.768103,35.719817],[139.768846,35.720307],[139.769315,35.720609],[139.7694,35.720616],[139.769452,35.720578],[139.769741,35.719932],[139.769448,35.719695],[139.768966,35.719287],[139.768386,35.718812],[139.769658,35.717465],[139.7698,35.717203],[139.769881,35.716952],[139.769902,35.716814],[139.769892,35.71669],[139.769818,35.71636],[139.76978,35.715976],[139.769758,35.715958],[139.769726,35.71595],[139.769492,35.715954],[139.768976,35.715778],[139.768702,35.715706],[139.768563,35.715674],[139.768186,35.715657],[139.768002,35.715604],[139.767322,35.715684],[139.767265,35.715662],[139.76723,35.715617],[139.767246,35.715553],[139.767424,35.715297],[139.767821,35.714656],[139.768098,35.713984],[139.768527,35.712676],[139.768607,35.712323],[139.768682,35.711805],[139.768806,35.710334],[139.768903,35.709959],[139.769106,35.709724],[139.769374,35.709554],[139.769647,35.709407],[139.769878,35.709362],[139.770184,35.70939],[139.771343,35.709624],[139.772577,35.709871],[139.772782,35.709896],[139.773086,35.709868],[139.773304,35.709855],[139.773408,35.709883],[139.773471,35.70994],[139.773669,35.710355],[139.774008,35.710948],[139.77425,35.711388],[139.77443,35.711579],[139.774632,35.711666],[139.774814,35.711688],[139.775795,35.711557],[139.776364,35.71151],[139.776585,35.711522],[139.776806,35.71157],[139.777311,35.711945],[139.777537,35.712105],[139.777743,35.712172],[139.778065,35.712201],[139.77881,35.712064],[139.778909,35.712064],[139.778966,35.712101],[139.779223,35.71253],[139.779267,35.712542],[139.779485,35.7125],[139.779542,35.712532],[139.779692,35.712501],[139.779732,35.712469],[139.780161,35.712386],[139.780726,35.712285],[139.780749,35.712298],[139.780865,35.713013],[139.780852,35.713053],[139.780821,35.713079],[139.779899,35.713428],[139.779735,35.713491],[139.779428,35.713603],[139.779214,35.713681],[139.779019,35.713759],[139.778404,35.71415],[139.778352,35.714193],[139.778342,35.714244],[139.778361,35.714288],[139.778959,35.715139],[139.779983,35.716334],[139.780055,35.716385],[139.780148,35.716398],[139.781158,35.716135],[139.781669,35.715998],[139.782581,35.71575],[139.783088,35.715645],[139.784081,35.715441],[139.784683,35.715327],[139.785936,35.715077],[139.78678,35.714909],[139.787866,35.714685],[139.788887,35.714486],[139.790317,35.714208],[139.791408,35.713999],[139.792251,35.713831],[139.792368,35.713793],[139.792436,35.713726],[139.792473,35.713622],[139.792092,35.711544],[139.792103,35.71149],[139.792148,35.711451],[139.792223,35.711426],[139.794636,35.711148],[139.797569,35.710768],[139.797682,35.710805],[139.797764,35.710891],[139.798993,35.712352],[139.799021,35.712408],[139.799003,35.712447],[139.798951,35.71247],[139.797971,35.712651],[139.797919,35.712646],[139.797895,35.712616],[139.797755,35.710788],[139.797674,35.71072],[139.797558,35.710692],[139.796427,35.710843],[139.79638,35.710838],[139.796339,35.710801],[139.79623,35.709917],[139.79614,35.709133],[139.796095,35.70901],[139.79596,35.708875],[139.795813,35.708828],[139.79447,35.709036],[139.794381,35.709032],[139.794311,35.708982],[139.793946,35.707708],[139.793459,35.706785],[139.793412,35.706754],[139.79334,35.706755],[139.791143,35.707408],[139.790547,35.707398],[139.788091,35.707385],[139.786551,35.707436],[139.785085,35.707482],[139.785038,35.707472],[139.785011,35.707438],[139.785022,35.706792],[139.785006,35.70662],[139.784955,35.706243],[139.784851,35.705364],[139.784776,35.704745],[139.784432,35.703468],[139.784372,35.703418],[139.78427,35.70341],[139.781428,35.703813],[139.781333,35.703871],[139.781294,35.703935],[139.781596,35.705184],[139.781825,35.706514],[139.781976,35.707411],[139.782082,35.708481],[139.782051,35.708546],[139.781988,35.708572],[139.78023,35.708715],[139.780179,35.708742],[139.780148,35.708782],[139.780277,35.709514],[139.780347,35.709906],[139.780635,35.711575],[139.780744,35.712241],[139.78072,35.71227],[139.78,35.7124],[139.779725,35.712447],[139.779693,35.712501],[139.779541,35.712533]]},"properties":{"id":"F022:ROT_000004:SHP_004003","feed_id":"F022","feed_slug":"taito-megurin","municipality":"台東区","service_name":"めぐりん","license":"CC BY 4.0","source_route_id":"ROT_000004","route_short_name":null,"route_long_name":"東西めぐりん","route_desc":null,"route_type":3,"route_url":null,"route_color":"E36B58","route_text_color":null,"directions":[],"geometry_source":"shapes.txt"}},{"type":"Feature","id":"F022:ROT_000004:SHP_004004","geometry":{"type":"LineString","coordinates":[[139.779692,35.712501],[139.779542,35.712532],[139.779449,35.71248],[139.779254,35.712519],[139.779238,35.712558],[139.779416,35.712842],[139.779461,35.712945],[139.779759,35.713437],[139.779763,35.713466],[139.779736,35.713491],[139.779428,35.713603],[139.779214,35.713681],[139.779019,35.713759],[139.778404,35.71415],[139.778352,35.714193],[139.778342,35.714244],[139.778361,35.714288],[139.77896,35.715139],[139.779983,35.716334],[139.78009,35.716463],[139.780415,35.716825],[139.780345,35.716908],[139.7803,35.716928],[139.780232,35.716924],[139.780188,35.716906],[139.780152,35.716861],[139.780145,35.716802],[139.780115,35.716714],[139.780076,35.716625],[139.780005,35.716535],[139.779683,35.716136],[139.779248,35.715653],[139.779191,35.715626],[139.779109,35.715609],[139.779025,35.715615],[139.778959,35.71564],[139.777837,35.716307],[139.776768,35.714997],[139.776493,35.71464],[139.776398,35.714605],[139.776292,35.714627],[139.776242,35.714674],[139.776235,35.71471],[139.776241,35.714749],[139.776279,35.714786],[139.776326,35.714801],[139.776373,35.714801],[139.776431,35.714783],[139.776502,35.71476],[139.776547,35.714752],[139.777801,35.71632],[139.776857,35.716783],[139.775463,35.717488],[139.77438,35.718036],[139.773322,35.718552],[139.77329,35.718614],[139.773335,35.718676],[139.773598,35.718887],[139.773892,35.719194],[139.774381,35.719742],[139.77451,35.719907],[139.774519,35.719956],[139.774503,35.719987],[139.774073,35.720632],[139.773713,35.72124],[139.773688,35.72126],[139.773651,35.721263],[139.772354,35.72077],[139.772308,35.72075],[139.77216,35.720656],[139.771351,35.720012],[139.771209,35.719947],[139.771036,35.719896],[139.770456,35.719725],[139.770032,35.719598],[139.769919,35.719593],[139.769856,35.719621],[139.769385,35.720624],[139.769422,35.720681],[139.770659,35.721069],[139.770799,35.721105],[139.770815,35.721122],[139.770224,35.722704],[139.770206,35.72274],[139.770179,35.722766],[139.770101,35.722815],[139.770013,35.722861],[139.769885,35.722959],[139.769793,35.723047],[139.769392,35.72346],[139.769362,35.72348],[139.769323,35.723502],[139.769284,35.723513],[139.768402,35.723599],[139.767671,35.723694],[139.76674,35.723766],[139.766549,35.723813],[139.765737,35.724063],[139.765072,35.724343],[139.764642,35.7245],[139.76431,35.724562],[139.764258,35.724589],[139.764229,35.724631],[139.764225,35.724721],[139.764218,35.724754],[139.764142,35.724949],[139.764136,35.724995],[139.764167,35.725216],[139.764242,35.725582],[139.764352,35.72594],[139.764413,35.726167],[139.764459,35.726385],[139.764544,35.726553],[139.764563,35.726618],[139.764564,35.72664],[139.764547,35.726651],[139.76374,35.726809],[139.763709,35.726807],[139.763683,35.726789],[139.763197,35.725191],[139.763121,35.724876],[139.763141,35.724834],[139.763172,35.724811],[139.763809,35.724685],[139.764662,35.724522],[139.765351,35.724254],[139.765781,35.724058],[139.766689,35.723793],[139.766795,35.723779],[139.767541,35.723723],[139.767722,35.723706],[139.768332,35.723625],[139.769188,35.723547],[139.769379,35.723528],[139.76951,35.72345],[139.769724,35.723244],[139.770065,35.72293],[139.770213,35.722808],[139.770293,35.722595],[139.770862,35.721154],[139.770815,35.721067],[139.770303,35.72092],[139.769451,35.720673],[139.769437,35.720625],[139.769741,35.719932],[139.769448,35.719695],[139.768966,35.719287],[139.768386,35.718812],[139.769658,35.717465],[139.7698,35.717203],[139.769881,35.716952],[139.769902,35.716814],[139.769892,35.71669],[139.769818,35.71636],[139.76978,35.715976],[139.769758,35.715958],[139.769726,35.71595],[139.769492,35.715954],[139.768976,35.715778],[139.768702,35.715706],[139.768563,35.715674],[139.768186,35.715657],[139.768002,35.715604],[139.767322,35.715684],[139.767265,35.715662],[139.76723,35.715617],[139.767246,35.715553],[139.767424,35.715297],[139.767821,35.714656],[139.768098,35.713984],[139.768527,35.712676],[139.768607,35.712323],[139.768682,35.711805],[139.768806,35.710334],[139.768903,35.709959],[139.769106,35.709724],[139.769374,35.709554],[139.769647,35.709407],[139.769878,35.709362],[139.770184,35.70939],[139.771343,35.709624],[139.772577,35.709871],[139.772782,35.709896],[139.773086,35.709868],[139.773304,35.709855],[139.773408,35.709883],[139.773471,35.70994],[139.773669,35.710355],[139.774008,35.710948],[139.77425,35.711388],[139.77443,35.711579],[139.774632,35.711666],[139.774814,35.711688],[139.775795,35.711557],[139.776364,35.71151],[139.776585,35.711522],[139.776806,35.71157],[139.777311,35.711945],[139.777537,35.712105],[139.777743,35.712172],[139.778065,35.712201],[139.77881,35.712064],[139.778909,35.712064],[139.778966,35.712101],[139.779223,35.71253],[139.779267,35.712542],[139.779485,35.7125],[139.779542,35.712532],[139.779692,35.712501],[139.779732,35.712469],[139.780161,35.712386],[139.780726,35.712285],[139.780749,35.712298],[139.780865,35.713013],[139.780852,35.713053],[139.780821,35.713079],[139.779899,35.713428],[139.779735,35.713491],[139.779428,35.713603],[139.779214,35.713681],[139.779019,35.713759],[139.778404,35.71415],[139.778352,35.714193],[139.778342,35.714244],[139.778361,35.714288],[139.778959,35.715139],[139.779983,35.716334],[139.780055,35.716385],[139.780148,35.716398],[139.781158,35.716135],[139.781669,35.715998],[139.782581,35.71575],[139.783088,35.715645],[139.784081,35.715441],[139.784683,35.715327],[139.785936,35.715077],[139.78678,35.714909],[139.787866,35.714685],[139.788887,35.714486],[139.790317,35.714208],[139.791408,35.713999],[139.792251,35.713831],[139.792368,35.713793],[139.792436,35.713726],[139.792473,35.713622],[139.792092,35.711544],[139.792103,35.71149],[139.792148,35.711451],[139.792223,35.711426],[139.794636,35.711148],[139.797569,35.710768],[139.797682,35.710805],[139.797764,35.710891],[139.798993,35.712352],[139.799021,35.712408],[139.799003,35.712447],[139.798951,35.71247],[139.797971,35.712651],[139.797919,35.712646],[139.797895,35.712616],[139.797755,35.710788],[139.797674,35.71072],[139.797558,35.710692],[139.796427,35.710843],[139.79638,35.710838],[139.796339,35.710801],[139.79623,35.709917],[139.79614,35.709133],[139.796095,35.70901],[139.79596,35.708875],[139.795813,35.708828],[139.79447,35.709036],[139.794381,35.709032],[139.794311,35.708982],[139.793946,35.707708],[139.793459,35.706785],[139.793412,35.706754],[139.79334,35.706755],[139.791143,35.707408],[139.790547,35.707398],[139.788091,35.707385],[139.786551,35.707436],[139.785085,35.707482],[139.785038,35.707472],[139.785011,35.707438],[139.785022,35.706792],[139.785006,35.70662],[139.784955,35.706243],[139.784851,35.705364],[139.784776,35.704745],[139.784432,35.703468],[139.784372,35.703418],[139.78427,35.70341],[139.781428,35.703813],[139.781333,35.703871],[139.781294,35.703935],[139.781596,35.705184],[139.781825,35.706514],[139.781976,35.707411],[139.782082,35.708481],[139.782051,35.708546],[139.781988,35.708572],[139.78023,35.708715],[139.780179,35.708742],[139.780148,35.708782],[139.780277,35.709514],[139.780347,35.709906],[139.780635,35.711575],[139.780744,35.712241],[139.78072,35.71227],[139.78,35.7124],[139.779725,35.712447],[139.779693,35.712501],[139.779541,35.712533]]},"properties":{"id":"F022:ROT_000004:SHP_004004","feed_id":"F022","feed_slug":"taito-megurin","municipality":"台東区","service_name":"めぐりん","license":"CC BY 4.0","source_route_id":"ROT_000004","route_short_name":null,"route_long_name":"東西めぐりん","route_desc":null,"route_type":3,"route_url":null,"route_color":"E36B58","route_text_color":null,"directions":[],"geometry_source":"shapes.txt"}},{"type":"Feature","id":"F022:ROT_000004:SHP_004005","geometry":{"type":"LineString","coordinates":[[139.779692,35.712501],[139.779542,35.712532],[139.779449,35.71248],[139.779254,35.712519],[139.779238,35.712558],[139.779416,35.712842],[139.779461,35.712945],[139.779759,35.713437],[139.779763,35.713466],[139.779736,35.713491],[139.779428,35.713603],[139.779214,35.713681],[139.779019,35.713759],[139.778404,35.71415],[139.778352,35.714193],[139.778342,35.714244],[139.778361,35.714288],[139.77896,35.715139],[139.779983,35.716334],[139.78009,35.716463],[139.780383,35.716815],[139.780815,35.717281],[139.780804,35.717334],[139.780695,35.717485],[139.7805,35.719006],[139.780539,35.719143],[139.780862,35.719811],[139.781226,35.720535],[139.781241,35.720593],[139.781234,35.720657],[139.781197,35.720697],[139.780761,35.721015],[139.780585,35.721195],[139.7804,35.721441],[139.780031,35.721908],[139.779724,35.722236],[139.779416,35.722534],[139.779289,35.722628],[139.77916,35.722702],[139.779029,35.722775],[139.778052,35.723132],[139.776765,35.723589],[139.776655,35.723608],[139.776552,35.723615],[139.776342,35.723616],[139.77612,35.723593],[139.775833,35.723563],[139.775728,35.723536],[139.77561,35.723499],[139.775497,35.723444],[139.774999,35.72309],[139.774358,35.722631],[139.773932,35.722319],[139.773621,35.722053],[139.773555,35.722001],[139.773351,35.721915],[139.772745,35.721684],[139.771848,35.721369],[139.771442,35.72125],[139.770907,35.72109],[139.770868,35.721093],[139.770842,35.721104],[139.770818,35.721138],[139.770727,35.721432],[139.770224,35.722704],[139.770206,35.72274],[139.770179,35.722766],[139.770101,35.722815],[139.770013,35.722861],[139.769885,35.722959],[139.769793,35.723047],[139.769392,35.72346],[139.769362,35.72348],[139.769323,35.723502],[139.769284,35.723513],[139.768402,35.723599],[139.767671,35.723694],[139.76674,35.723766],[139.766549,35.723813],[139.765737,35.724063],[139.765072,35.724343],[139.764642,35.7245],[139.76431,35.724562],[139.764258,35.724589],[139.764229,35.724631],[139.764225,35.724721],[139.764218,35.724754],[139.764142,35.724949],[139.764136,35.724995],[139.764167,35.725216],[139.764242,35.725582],[139.764352,35.72594],[139.764413,35.726167],[139.764459,35.726385],[139.764544,35.726553],[139.764563,35.726618],[139.764564,35.72664],[139.764547,35.726651],[139.76374,35.726809],[139.763709,35.726807],[139.763683,35.726789],[139.763189,35.725161],[139.763029,35.724578],[139.762947,35.724312],[139.762807,35.723842],[139.762687,35.723419],[139.762363,35.722329],[139.762125,35.721657],[139.762199,35.721125],[139.762552,35.720618],[139.763095,35.72005],[139.764139,35.719015],[139.765125,35.718003],[139.765192,35.717977],[139.765259,35.717983],[139.766301,35.718685],[139.76741,35.71938],[139.768103,35.719817],[139.768846,35.720307],[139.769315,35.720609],[139.7694,35.720616],[139.769452,35.720578],[139.769741,35.719932],[139.769448,35.719695],[139.768966,35.719287],[139.768386,35.718812],[139.769658,35.717465],[139.7698,35.717203],[139.769881,35.716952],[139.769902,35.716814],[139.769892,35.71669],[139.769818,35.71636],[139.76978,35.715976],[139.769758,35.715958],[139.769726,35.71595],[139.769492,35.715954],[139.768976,35.715778],[139.768702,35.715706],[139.768563,35.715674],[139.768186,35.715657],[139.768002,35.715604],[139.767322,35.715684],[139.767265,35.715662],[139.76723,35.715617],[139.767246,35.715553],[139.767424,35.715297],[139.767821,35.714656],[139.768098,35.713984],[139.768527,35.712676],[139.768607,35.712323],[139.768682,35.711805],[139.768806,35.710334],[139.768903,35.709959],[139.769106,35.709724],[139.769374,35.709554],[139.769647,35.709407],[139.769878,35.709362],[139.770184,35.70939],[139.771343,35.709624],[139.772577,35.709871],[139.772782,35.709896],[139.773086,35.709868],[139.773304,35.709855],[139.773408,35.709883],[139.773471,35.70994],[139.773669,35.710355],[139.774008,35.710948],[139.77425,35.711388],[139.77443,35.711579],[139.774632,35.711666],[139.774814,35.711688],[139.775795,35.711557],[139.776364,35.71151],[139.776585,35.711522],[139.776806,35.71157],[139.777311,35.711945],[139.777537,35.712105],[139.777743,35.712172],[139.778065,35.712201],[139.77881,35.712064],[139.778909,35.712064],[139.778966,35.712101],[139.779223,35.71253],[139.779267,35.712542],[139.779485,35.7125],[139.779542,35.712532],[139.779692,35.712501],[139.779732,35.712469],[139.780726,35.712285],[139.780749,35.712298],[139.780865,35.713013],[139.780852,35.713053],[139.780821,35.713079],[139.779899,35.713428],[139.779735,35.713491],[139.779428,35.713603],[139.779214,35.713681],[139.779019,35.713759],[139.778404,35.71415],[139.778352,35.714193],[139.778342,35.714244],[139.778361,35.714288],[139.778959,35.715139],[139.779983,35.716334],[139.780055,35.716385],[139.780148,35.716398],[139.781158,35.716135],[139.781669,35.715998],[139.782581,35.71575],[139.783088,35.715645],[139.784081,35.715441],[139.784683,35.715327],[139.785936,35.715077],[139.78678,35.714909],[139.787866,35.714685],[139.788887,35.714486],[139.790317,35.714208],[139.791408,35.713999],[139.792251,35.713831],[139.792368,35.713793],[139.792436,35.713726],[139.792473,35.713622],[139.792092,35.711544],[139.792103,35.71149],[139.792148,35.711451],[139.792223,35.711426],[139.794636,35.711148],[139.797569,35.710768],[139.797682,35.710805],[139.797764,35.710891],[139.798153,35.711348],[139.798253,35.711454]]},"properties":{"id":"F022:ROT_000004:SHP_004005","feed_id":"F022","feed_slug":"taito-megurin","municipality":"台東区","service_name":"めぐりん","license":"CC BY 4.0","source_route_id":"ROT_000004","route_short_name":null,"route_long_name":"東西めぐりん","route_desc":null,"route_type":3,"route_url":null,"route_color":"E36B58","route_text_color":null,"directions":[],"geometry_source":"shapes.txt"}},{"type":"Feature","id":"F022:ROT_000004:SHP_004006","geometry":{"type":"LineString","coordinates":[[139.779692,35.712501],[139.779542,35.712532],[139.779449,35.71248],[139.779254,35.712519],[139.779238,35.712558],[139.779416,35.712842],[139.779461,35.712945],[139.779759,35.713437],[139.779763,35.713466],[139.779736,35.713491],[139.779428,35.713603],[139.779214,35.713681],[139.779019,35.713759],[139.778404,35.71415],[139.778352,35.714193],[139.778342,35.714244],[139.778361,35.714288],[139.77896,35.715139],[139.779983,35.716334],[139.78009,35.716463],[139.780423,35.716812],[139.780381,35.716873],[139.780345,35.716908],[139.7803,35.716928],[139.780232,35.716924],[139.780188,35.716906],[139.780152,35.716861],[139.780145,35.716802],[139.780115,35.716714],[139.780076,35.716625],[139.780005,35.716535],[139.779683,35.716136],[139.779248,35.715653],[139.779191,35.715626],[139.779109,35.715609],[139.779025,35.715615],[139.778959,35.71564],[139.777837,35.716307],[139.776768,35.714997],[139.776493,35.71464],[139.776398,35.714605],[139.776292,35.714627],[139.776242,35.714674],[139.776235,35.71471],[139.776241,35.714749],[139.776279,35.714786],[139.776326,35.714801],[139.776373,35.714801],[139.776431,35.714783],[139.776502,35.71476],[139.776547,35.714752],[139.777801,35.71632],[139.776857,35.716783],[139.775463,35.717488],[139.77438,35.718036],[139.773322,35.718552],[139.77329,35.718614],[139.773335,35.718676],[139.773598,35.718887],[139.773892,35.719194],[139.774381,35.719742],[139.77451,35.719907],[139.774519,35.719956],[139.774503,35.719987],[139.774073,35.720632],[139.773713,35.72124],[139.773688,35.72126],[139.773651,35.721263],[139.772354,35.72077],[139.772308,35.72075],[139.77216,35.720656],[139.771351,35.720012],[139.771209,35.719947],[139.771036,35.719896],[139.770456,35.719725],[139.770032,35.719598],[139.769919,35.719593],[139.769856,35.719621],[139.769381,35.720622],[139.769437,35.720699],[139.77022,35.720945],[139.77066,35.721068],[139.770805,35.721104],[139.770819,35.721123],[139.770537,35.721902],[139.770179,35.722766],[139.769835,35.723044],[139.769379,35.72351],[139.767271,35.723728],[139.76674,35.723766],[139.766549,35.723813],[139.765737,35.724063],[139.765072,35.724343],[139.764642,35.7245],[139.76431,35.724562],[139.764258,35.724589],[139.764229,35.724631],[139.764225,35.724721],[139.764218,35.724754],[139.764142,35.724949],[139.764136,35.724995],[139.764167,35.725216],[139.764242,35.725582],[139.764352,35.72594],[139.764413,35.726167],[139.764459,35.726385],[139.764544,35.726553],[139.764563,35.726618],[139.764564,35.72664],[139.764547,35.726651],[139.76374,35.726809],[139.763709,35.726807],[139.763683,35.726789],[139.763189,35.725161],[139.763121,35.724876],[139.763141,35.724834],[139.763172,35.724811],[139.763809,35.724685],[139.764662,35.724522],[139.765351,35.724254],[139.765781,35.724058],[139.766689,35.723793],[139.766795,35.723779],[139.767668,35.723727],[139.769378,35.723545],[139.769616,35.723333],[139.770065,35.72293],[139.770213,35.722808],[139.770566,35.721924],[139.770859,35.721131],[139.770833,35.721081],[139.770289,35.720917],[139.769456,35.720664],[139.769423,35.720617],[139.769741,35.719932],[139.769448,35.719695],[139.768966,35.719287],[139.768386,35.718812],[139.769658,35.717465],[139.7698,35.717203],[139.769881,35.716952],[139.769902,35.716814],[139.769892,35.71669],[139.769818,35.71636],[139.76978,35.715976],[139.769758,35.715958],[139.769726,35.71595],[139.769492,35.715954],[139.768976,35.715778],[139.768702,35.715706],[139.768563,35.715674],[139.768186,35.715657],[139.768002,35.715604],[139.767322,35.715684],[139.767265,35.715662],[139.76723,35.715617],[139.767246,35.715553],[139.767424,35.715297],[139.767821,35.714656],[139.768098,35.713984],[139.768527,35.712676],[139.768607,35.712323],[139.768682,35.711805],[139.768806,35.710334],[139.768903,35.709959],[139.769106,35.709724],[139.769374,35.709554],[139.769647,35.709407],[139.769878,35.709362],[139.770184,35.70939],[139.771343,35.709624],[139.772577,35.709871],[139.772782,35.709896],[139.773086,35.709868],[139.773304,35.709855],[139.773408,35.709883],[139.773471,35.70994],[139.773669,35.710355],[139.774008,35.710948],[139.77425,35.711388],[139.77443,35.711579],[139.774632,35.711666],[139.774814,35.711688],[139.775795,35.711557],[139.776364,35.71151],[139.776585,35.711522],[139.776806,35.71157],[139.777311,35.711945],[139.777537,35.712105],[139.777743,35.712172],[139.778065,35.712201],[139.77881,35.712064],[139.778909,35.712064],[139.778966,35.712101],[139.779223,35.71253],[139.779267,35.712542],[139.779485,35.7125],[139.779542,35.712532],[139.779692,35.712501],[139.779732,35.712469],[139.780161,35.712386],[139.780726,35.712285],[139.780749,35.712298],[139.780865,35.713013],[139.780852,35.713053],[139.780821,35.713079],[139.779899,35.713428],[139.779735,35.713491],[139.779428,35.713603],[139.779214,35.713681],[139.779019,35.713759],[139.778404,35.71415],[139.778352,35.714193],[139.778342,35.714244],[139.778361,35.714288],[139.778959,35.715139],[139.779983,35.716334],[139.780055,35.716385],[139.780148,35.716398],[139.781158,35.716135],[139.781669,35.715998],[139.782581,35.71575],[139.783088,35.715645],[139.784081,35.715441],[139.784683,35.715327],[139.785936,35.715077],[139.78678,35.714909],[139.787866,35.714685],[139.788887,35.714486],[139.790317,35.714208],[139.791408,35.713999],[139.792251,35.713831],[139.792368,35.713793],[139.792436,35.713726],[139.792473,35.713622],[139.792092,35.711544],[139.792103,35.71149],[139.792148,35.711451],[139.792223,35.711426],[139.794636,35.711148],[139.797569,35.710768],[139.797682,35.710805],[139.797764,35.710891],[139.798225,35.711432]]},"properties":{"id":"F022:ROT_000004:SHP_004006","feed_id":"F022","feed_slug":"taito-megurin","municipality":"台東区","service_name":"めぐりん","license":"CC BY 4.0","source_route_id":"ROT_000004","route_short_name":null,"route_long_name":"東西めぐりん","route_desc":null,"route_type":3,"route_url":null,"route_color":"E36B58","route_text_color":null,"directions":[],"geometry_source":"shapes.txt"}},{"type":"Feature","id":"F022:ROT_000004:SHP_004007","geometry":{"type":"LineString","coordinates":[[139.779692,35.712501],[139.779542,35.712532],[139.779449,35.71248],[139.779254,35.712519],[139.779238,35.712558],[139.779416,35.712842],[139.779461,35.712945],[139.779759,35.713437],[139.779763,35.713466],[139.779736,35.713491],[139.779428,35.713603],[139.779214,35.713681],[139.779019,35.713759],[139.778404,35.71415],[139.778352,35.714193],[139.778342,35.714244],[139.778361,35.714288],[139.77896,35.715139],[139.779983,35.716334],[139.78009,35.716463],[139.78038,35.716799],[139.780381,35.716873],[139.780345,35.716908],[139.7803,35.716928],[139.780232,35.716924],[139.780188,35.716906],[139.780152,35.716861],[139.780145,35.716802],[139.780115,35.716714],[139.780076,35.716625],[139.780005,35.716535],[139.779683,35.716136],[139.779248,35.715653],[139.779191,35.715626],[139.779109,35.715609],[139.779025,35.715615],[139.778959,35.71564],[139.777837,35.716307],[139.776768,35.714997],[139.776493,35.71464],[139.776398,35.714605],[139.776292,35.714627],[139.776242,35.714674],[139.776235,35.71471],[139.776241,35.714749],[139.776279,35.714786],[139.776326,35.714801],[139.776373,35.714801],[139.776431,35.714783],[139.776502,35.71476],[139.776547,35.714752],[139.777801,35.71632],[139.776857,35.716783],[139.775463,35.717488],[139.77438,35.718036],[139.773322,35.718552],[139.77329,35.718614],[139.773335,35.718676],[139.773598,35.718887],[139.773892,35.719194],[139.774381,35.719742],[139.77451,35.719907],[139.774519,35.719956],[139.774503,35.719987],[139.774073,35.720632],[139.773713,35.72124],[139.773688,35.72126],[139.773651,35.721263],[139.772354,35.72077],[139.772308,35.72075],[139.77216,35.720656],[139.771351,35.720012],[139.771209,35.719947],[139.771036,35.719896],[139.770456,35.719725],[139.770032,35.719598],[139.769919,35.719593],[139.769856,35.719621],[139.769419,35.720564],[139.769414,35.720626],[139.769435,35.72068],[139.769474,35.720711],[139.770657,35.72106],[139.770782,35.721089],[139.770803,35.721124],[139.770631,35.721641],[139.770215,35.722724],[139.770023,35.722894],[139.769831,35.723041],[139.769394,35.723472],[139.769348,35.723502],[139.768402,35.723599],[139.767671,35.723694],[139.76674,35.723766],[139.766549,35.723813],[139.765737,35.724063],[139.765072,35.724343],[139.764642,35.7245],[139.76431,35.724562],[139.764258,35.724589],[139.764229,35.724631],[139.764225,35.724721],[139.764218,35.724754],[139.764142,35.724949],[139.764136,35.724995],[139.764167,35.725216],[139.764242,35.725582],[139.764352,35.72594],[139.764413,35.726167],[139.764459,35.726385],[139.764544,35.726553],[139.764563,35.726618],[139.764564,35.72664],[139.764547,35.726651],[139.76374,35.726809],[139.763709,35.726807],[139.763683,35.726789],[139.763189,35.725161],[139.763102,35.724864],[139.763135,35.724817],[139.764669,35.724516],[139.765318,35.724261],[139.765774,35.724072],[139.766689,35.723793],[139.766795,35.723779],[139.767541,35.723723],[139.767722,35.723706],[139.768332,35.723625],[139.769127,35.723545],[139.769353,35.723539],[139.769426,35.723507],[139.769639,35.723322],[139.770065,35.72293],[139.770263,35.722743],[139.77066,35.721666],[139.770853,35.721132],[139.770804,35.72107],[139.770294,35.720924],[139.769475,35.720671],[139.769438,35.720604],[139.769726,35.719969],[139.769711,35.719895],[139.769659,35.71986],[139.769485,35.719716],[139.768966,35.719287],[139.768386,35.718812],[139.769658,35.717465],[139.7698,35.717203],[139.769881,35.716952],[139.769902,35.716814],[139.769892,35.71669],[139.769818,35.71636],[139.76978,35.715976],[139.769758,35.715958],[139.769726,35.71595],[139.769492,35.715954],[139.768976,35.715778],[139.768702,35.715706],[139.768563,35.715674],[139.768186,35.715657],[139.768002,35.715604],[139.767322,35.715684],[139.767265,35.715662],[139.76723,35.715617],[139.767246,35.715553],[139.767424,35.715297],[139.767821,35.714656],[139.768098,35.713984],[139.768527,35.712676],[139.768607,35.712323],[139.768682,35.711805],[139.768806,35.710334],[139.768903,35.709959],[139.769106,35.709724],[139.769374,35.709554],[139.769647,35.709407],[139.769878,35.709362],[139.770184,35.70939],[139.771343,35.709624],[139.772577,35.709871],[139.772782,35.709896],[139.773086,35.709868],[139.773304,35.709855],[139.773408,35.709883],[139.773471,35.70994],[139.773669,35.710355],[139.773974,35.711056]]},"properties":{"id":"F022:ROT_000004:SHP_004007","feed_id":"F022","feed_slug":"taito-megurin","municipality":"台東区","service_name":"めぐりん","license":"CC BY 4.0","source_route_id":"ROT_000004","route_short_name":null,"route_long_name":"東西めぐりん","route_desc":null,"route_type":3,"route_url":null,"route_color":"E36B58","route_text_color":null,"directions":[],"geometry_source":"shapes.txt"}}]}
