{"type":"FeatureCollection","name":"taito-megurin_stops","features":[{"type":"Feature","id":"F022:STP_000001_001","geometry":{"type":"Point","coordinates":[139.792992,35.722569]},"properties":{"id":"F022:STP_000001_001","feed_id":"F022","feed_slug":"taito-megurin","municipality":"台東区","service_name":"めぐりん","license":"CC BY 4.0","source_stop_id":"STP_000001_001","stop_code":null,"stop_name":"① 台東病院","stop_desc":null,"zone_id":"ZON_000001_001","location_type":0,"parent_station":null,"wheelchair_boarding":null}},{"type":"Feature","id":"F022:STP_000001_002","geometry":{"type":"Point","coordinates":[139.796996,35.7248]},"properties":{"id":"F022:STP_000001_002","feed_id":"F022","feed_slug":"taito-megurin","municipality":"台東区","service_name":"めぐりん","license":"CC BY 4.0","source_stop_id":"STP_000001_002","stop_code":null,"stop_name":"② 吉原大門","stop_desc":null,"zone_id":"ZON_000001_002","location_type":0,"parent_station":null,"wheelchair_boarding":null}},{"type":"Feature","id":"F022:STP_000001_003","geometry":{"type":"Point","coordinates":[139.795667,35.726319]},"properties":{"id":"F022:STP_000001_003","feed_id":"F022","feed_slug":"taito-megurin","municipality":"台東区","service_name":"めぐりん","license":"CC BY 4.0","source_stop_id":"STP_000001_003","stop_code":null,"stop_name":"③ 竜泉三丁目","stop_desc":null,"zone_id":"ZON_000001_003","location_type":0,"parent_station":null,"wheelchair_boarding":null}},{"type":"Feature","id":"F022:STP_000001_004","geometry":{"type":"Point","coordinates":[139.794262,35.728053]},"properties":{"id":"F022:STP_000001_004","feed_id":"F022","feed_slug":"taito-megurin","municipality":"台東区","service_name":"めぐりん","license":"CC BY 4.0","source_stop_id":"STP_000001_004","stop_code":null,"stop_name":"④ 三ノ輪二丁目","stop_desc":null,"zone_id":"ZON_000001_004","location_type":0,"parent_station":null,"wheelchair_boarding":null}},{"type":"Feature","id":"F022:STP_000001_005","geometry":{"type":"Point","coordinates":[139.792243,35.729563]},"properties":{"id":"F022:STP_000001_005","feed_id":"F022","feed_slug":"taito-megurin","municipality":"台東区","service_name":"めぐりん","license":"CC BY 4.0","source_stop_id":"STP_000001_005","stop_code":null,"stop_name":"⑤ 三ノ輪駅","stop_desc":null,"zone_id":"ZON_000001_005","location_type":0,"parent_station":null,"wheelchair_boarding":null}},{"type":"Feature","id":"F022:STP_000001_006","geometry":{"type":"Point","coordinates":[139.791029,35.726162]},"properties":{"id":"F022:STP_000001_006","feed_id":"F022","feed_slug":"taito-megurin","municipality":"台東区","service_name":"めぐりん","license":"CC BY 4.0","source_stop_id":"STP_000001_006","stop_code":null,"stop_name":"⑥ 一葉記念館入口（いきいきてらす東）","stop_desc":null,"zone_id":"ZON_000001_006","location_type":0,"parent_station":null,"wheelchair_boarding":null}},{"type":"Feature","id":"F022:STP_000001_007","geometry":{"type":"Point","coordinates":[139.789733,35.724693]},"properties":{"id":"F022:STP_000001_007","feed_id":"F022","feed_slug":"taito-megurin","municipality":"台東区","service_name":"めぐりん","license":"CC BY 4.0","source_stop_id":"STP_000001_007","stop_code":null,"stop_name":"⑦ 竜泉一丁目（いきいきてらす入口）","stop_desc":null,"zone_id":"ZON_000001_007","location_type":0,"parent_station":null,"wheelchair_boarding":null}},{"type":"Feature","id":"F022:STP_000001_008","geometry":{"type":"Point","coordinates":[139.786494,35.725034]},"properties":{"id":"F022:STP_000001_008","feed_id":"F022","feed_slug":"taito-megurin","municipality":"台東区","service_name":"めぐりん","license":"CC BY 4.0","source_stop_id":"STP_000001_008","stop_code":null,"stop_name":"⑧ 金杉区民館下谷分館入口","stop_desc":null,"zone_id":"ZON_000001_008","location_type":0,"parent_station":null,"wheelchair_boarding":null}},{"type":"Feature","id":"F022:STP_000001_009","geometry":{"type":"Point","coordinates":[139.785444,35.724594]},"properties":{"id":"F022:STP_000001_009","feed_id":"F022","feed_slug":"taito-megurin","municipality":"台東区","service_name":"めぐりん","license":"CC BY 4.0","source_stop_id":"STP_000001_009","stop_code":null,"stop_name":"⑨ 下谷三丁目","stop_desc":null,"zone_id":"ZON_000001_009","location_type":0,"parent_station":null,"wheelchair_boarding":null}},{"type":"Feature","id":"F022:STP_000001_010","geometry":{"type":"Point","coordinates":[139.783414,35.722904]},"properties":{"id":"F022:STP_000001_010","feed_id":"F022","feed_slug":"taito-megurin","municipality":"台東区","service_name":"めぐりん","license":"CC BY 4.0","source_stop_id":"STP_000001_010","stop_code":null,"stop_name":"⑩ 金杉通り","stop_desc":null,"zone_id":"ZON_000001_010","location_type":0,"parent_station":null,"wheelchair_boarding":null}},{"type":"Feature","id":"F022:STP_000001_011","geometry":{"type":"Point","coordinates":[139.781994,35.722344]},"properties":{"id":"F022:STP_000001_011","feed_id":"F022","feed_slug":"taito-megurin","municipality":"台東区","service_name":"めぐりん","license":"CC BY 4.0","source_stop_id":"STP_000001_011","stop_code":null,"stop_name":"⑪ 根岸三丁目","stop_desc":null,"zone_id":"ZON_000001_011","location_type":0,"parent_station":null,"wheelchair_boarding":null}},{"type":"Feature","id":"F022:STP_000001_012","geometry":{"type":"Point","coordinates":[139.781844,35.723644]},"properties":{"id":"F022:STP_000001_012","feed_id":"F022","feed_slug":"taito-megurin","municipality":"台東区","service_name":"めぐりん","license":"CC BY 4.0","source_stop_id":"STP_000001_012","stop_code":null,"stop_name":"⑫ 防災広場根岸の里","stop_desc":null,"zone_id":"ZON_000001_012","location_type":0,"parent_station":null,"wheelchair_boarding":null}},{"type":"Feature","id":"F022:STP_000001_013","geometry":{"type":"Point","coordinates":[139.777263,35.725005]},"properties":{"id":"F022:STP_000001_013","feed_id":"F022","feed_slug":"taito-megurin","municipality":"台東区","service_name":"めぐりん","license":"CC BY 4.0","source_stop_id":"STP_000001_013","stop_code":null,"stop_name":"⑬ 書道博物館","stop_desc":null,"zone_id":"ZON_000001_013","location_type":0,"parent_station":null,"wheelchair_boarding":null}},{"type":"Feature","id":"F022:STP_000001_014","geometry":{"type":"Point","coordinates":[139.778904,35.722974]},"properties":{"id":"F022:STP_000001_014","feed_id":"F022","feed_slug":"taito-megurin","municipality":"台東区","service_name":"めぐりん","license":"CC BY 4.0","source_stop_id":"STP_000001_014","stop_code":null,"stop_name":"⑭ 鶯谷駅北","stop_desc":null,"zone_id":"ZON_000001_014","location_type":0,"parent_station":null,"wheelchair_boarding":null}},{"type":"Feature","id":"F022:STP_000001_015","geometry":{"type":"Point","coordinates":[139.781094,35.721004]},"properties":{"id":"F022:STP_000001_015","feed_id":"F022","feed_slug":"taito-megurin","municipality":"台東区","service_name":"めぐりん","license":"CC BY 4.0","source_stop_id":"STP_000001_015","stop_code":null,"stop_name":"⑮ 鶯谷駅南","stop_desc":null,"zone_id":"ZON_000001_015","location_type":0,"parent_station":null,"wheelchair_boarding":null}},{"type":"Feature","id":"F022:STP_000001_016","geometry":{"type":"Point","coordinates":[139.784304,35.721514]},"properties":{"id":"F022:STP_000001_016","feed_id":"F022","feed_slug":"taito-megurin","municipality":"台東区","service_name":"めぐりん","license":"CC BY 4.0","source_stop_id":"STP_000001_016","stop_code":null,"stop_name":"⑯ 入谷駅入口","stop_desc":null,"zone_id":"ZON_000001_016","location_type":0,"parent_station":null,"wheelchair_boarding":null}},{"type":"Feature","id":"F022:STP_000001_017","geometry":{"type":"Point","coordinates":[139.786914,35.721224]},"properties":{"id":"F022:STP_000001_017","feed_id":"F022","feed_slug":"taito-megurin","municipality":"台東区","service_name":"めぐりん","license":"CC BY 4.0","source_stop_id":"STP_000001_017","stop_code":null,"stop_name":"⑰ 大正小学校","stop_desc":null,"zone_id":"ZON_000001_017","location_type":0,"parent_station":null,"wheelchair_boarding":null}},{"type":"Feature","id":"F022:STP_000001_018","geometry":{"type":"Point","coordinates":[139.789407,35.718951]},"properties":{"id":"F022:STP_000001_018","feed_id":"F022","feed_slug":"taito-megurin","municipality":"台東区","service_name":"めぐりん","license":"CC BY 4.0","source_stop_id":"STP_000001_018","stop_code":null,"stop_name":"⑱ 生涯学習センター北","stop_desc":null,"zone_id":"ZON_000001_018","location_type":0,"parent_station":null,"wheelchair_boarding":null}},{"type":"Feature","id":"F022:STP_000001_019","geometry":{"type":"Point","coordinates":[139.790783,35.721354]},"properties":{"id":"F022:STP_000001_019","feed_id":"F022","feed_slug":"taito-megurin","municipality":"台東区","service_name":"めぐりん","license":"CC BY 4.0","source_stop_id":"STP_000001_019","stop_code":null,"stop_name":"⑲ 千束二丁目","stop_desc":null,"zone_id":"ZON_000001_019","location_type":0,"parent_station":null,"wheelchair_boarding":null}},{"type":"Feature","id":"F022:STP_000001_020","geometry":{"type":"Point","coordinates":[139.792413,35.721224]},"properties":{"id":"F022:STP_000001_020","feed_id":"F022","feed_slug":"taito-megurin","municipality":"台東区","service_name":"めぐりん","license":"CC BY 4.0","source_stop_id":"STP_000001_020","stop_code":null,"stop_name":"⑳ 千束三丁目","stop_desc":null,"zone_id":"ZON_000001_020","location_type":0,"parent_station":null,"wheelchair_boarding":null}},{"type":"Feature","id":"F022:STP_000002_001","geometry":{"type":"Point","coordinates":[139.798193,35.711445]},"properties":{"id":"F022:STP_000002_001","feed_id":"F022","feed_slug":"taito-megurin","municipality":"台東区","service_name":"めぐりん","license":"CC BY 4.0","source_stop_id":"STP_000002_001","stop_code":null,"stop_name":"① 浅草駅","stop_desc":null,"zone_id":"ZON_000002_001","location_type":0,"parent_station":null,"wheelchair_boarding":null}},{"type":"Feature","id":"F022:STP_000002_002","geometry":{"type":"Point","coordinates":[139.800373,35.713615]},"properties":{"id":"F022:STP_000002_002","feed_id":"F022","feed_slug":"taito-megurin","municipality":"台東区","service_name":"めぐりん","license":"CC BY 4.0","source_stop_id":"STP_000002_002","stop_code":null,"stop_name":"② 花川戸","stop_desc":null,"zone_id":"ZON_000002_002","location_type":0,"parent_station":null,"wheelchair_boarding":null}},{"type":"Feature","id":"F022:STP_000002_003","geometry":{"type":"Point","coordinates":[139.802903,35.716405]},"properties":{"id":"F022:STP_000002_003","feed_id":"F022","feed_slug":"taito-megurin","municipality":"台東区","service_name":"めぐりん","license":"CC BY 4.0","source_stop_id":"STP_000002_003","stop_code":null,"stop_name":"③ 隅田公園","stop_desc":null,"zone_id":"ZON_000002_003","location_type":0,"parent_station":null,"wheelchair_boarding":null}},{"type":"Feature","id":"F022:STP_000002_004","geometry":{"type":"Point","coordinates":[139.803983,35.718505]},"properties":{"id":"F022:STP_000002_004","feed_id":"F022","feed_slug":"taito-megurin","municipality":"台東区","service_name":"めぐりん","license":"CC BY 4.0","source_stop_id":"STP_000002_004","stop_code":null,"stop_name":"④ リバーサイドスポーツセンター前","stop_desc":null,"zone_id":"ZON_000002_004","location_type":0,"parent_station":null,"wheelchair_boarding":null}},{"type":"Feature","id":"F022:STP_000002_005","geometry":{"type":"Point","coordinates":[139.804243,35.720505]},"properties":{"id":"F022:STP_000002_005","feed_id":"F022","feed_slug":"taito-megurin","municipality":"台東区","service_name":"めぐりん","license":"CC BY 4.0","source_stop_id":"STP_000002_005","stop_code":null,"stop_name":"⑤ 今戸一丁目","stop_desc":null,"zone_id":"ZON_000002_005","location_type":0,"parent_station":null,"wheelchair_boarding":null}},{"type":"Feature","id":"F022:STP_000002_006","geometry":{"type":"Point","coordinates":[139.804403,35.722395]},"properties":{"id":"F022:STP_000002_006","feed_id":"F022","feed_slug":"taito-megurin","municipality":"台東区","service_name":"めぐりん","license":"CC BY 4.0","source_stop_id":"STP_000002_006","stop_code":null,"stop_name":"⑥ 今戸二丁目","stop_desc":null,"zone_id":"ZON_000002_006","location_type":0,"parent_station":null,"wheelchair_boarding":null}},{"type":"Feature","id":"F022:STP_000002_007","geometry":{"type":"Point","coordinates":[139.805994,35.723626]},"properties":{"id":"F022:STP_000002_007","feed_id":"F022","feed_slug":"taito-megurin","municipality":"台東区","service_name":"めぐりん","license":"CC BY 4.0","source_stop_id":"STP_000002_007","stop_code":null,"stop_name":"⑦ 橋場老人福祉館西","stop_desc":null,"zone_id":"ZON_000002_007","location_type":0,"parent_station":null,"wheelchair_boarding":null}},{"type":"Feature","id":"F022:STP_000002_008","geometry":{"type":"Point","coordinates":[139.805806,35.726123]},"properties":{"id":"F022:STP_000002_008","feed_id":"F022","feed_slug":"taito-megurin","municipality":"台東区","service_name":"めぐりん","license":"CC BY 4.0","source_stop_id":"STP_000002_008","stop_code":null,"stop_name":"⑧ 橋場一丁目","stop_desc":null,"zone_id":"ZON_000002_008","location_type":0,"parent_station":null,"wheelchair_boarding":null}},{"type":"Feature","id":"F022:STP_000002_009","geometry":{"type":"Point","coordinates":[139.802093,35.726214]},"properties":{"id":"F022:STP_000002_009","feed_id":"F022","feed_slug":"taito-megurin","municipality":"台東区","service_name":"めぐりん","license":"CC BY 4.0","source_stop_id":"STP_000002_009","stop_code":null,"stop_name":"⑨ 清川一丁目","stop_desc":null,"zone_id":"ZON_000002_009","location_type":0,"parent_station":null,"wheelchair_boarding":null}},{"type":"Feature","id":"F022:STP_000002_010","geometry":{"type":"Point","coordinates":[139.799902,35.725704]},"properties":{"id":"F022:STP_000002_010","feed_id":"F022","feed_slug":"taito-megurin","municipality":"台東区","service_name":"めぐりん","license":"CC BY 4.0","source_stop_id":"STP_000002_010","stop_code":null,"stop_name":"⑩ 東浅草二丁目","stop_desc":null,"zone_id":"ZON_000002_010","location_type":0,"parent_station":null,"wheelchair_boarding":null}},{"type":"Feature","id":"F022:STP_000002_011","geometry":{"type":"Point","coordinates":[139.797896,35.724713]},"properties":{"id":"F022:STP_000002_011","feed_id":"F022","feed_slug":"taito-megurin","municipality":"台東区","service_name":"めぐりん","license":"CC BY 4.0","source_stop_id":"STP_000002_011","stop_code":null,"stop_name":"⑪ 吉原大門","stop_desc":null,"zone_id":"ZON_000002_011","location_type":0,"parent_station":null,"wheelchair_boarding":null}},{"type":"Feature","id":"F022:STP_000002_012","geometry":{"type":"Point","coordinates":[139.795667,35.726319]},"properties":{"id":"F022:STP_000002_012","feed_id":"F022","feed_slug":"taito-megurin","municipality":"台東区","service_name":"めぐりん","license":"CC BY 4.0","source_stop_id":"STP_000002_012","stop_code":null,"stop_name":"⑫ 竜泉三丁目","stop_desc":null,"zone_id":"ZON_000002_012","location_type":0,"parent_station":null,"wheelchair_boarding":null}},{"type":"Feature","id":"F022:STP_000002_013","geometry":{"type":"Point","coordinates":[139.794262,35.728053]},"properties":{"id":"F022:STP_000002_013","feed_id":"F022","feed_slug":"taito-megurin","municipality":"台東区","service_name":"めぐりん","license":"CC BY 4.0","source_stop_id":"STP_000002_013","stop_code":null,"stop_name":"⑬ 三ノ輪二丁目","stop_desc":null,"zone_id":"ZON_000002_013","location_type":0,"parent_station":null,"wheelchair_boarding":null}},{"type":"Feature","id":"F022:STP_000002_014","geometry":{"type":"Point","coordinates":[139.792243,35.729563]},"properties":{"id":"F022:STP_000002_014","feed_id":"F022","feed_slug":"taito-megurin","municipality":"台東区","service_name":"めぐりん","license":"CC BY 4.0","source_stop_id":"STP_000002_014","stop_code":null,"stop_name":"⑭ 三ノ輪駅","stop_desc":null,"zone_id":"ZON_000002_014","location_type":0,"parent_station":null,"wheelchair_boarding":null}},{"type":"Feature","id":"F022:STP_000002_015","geometry":{"type":"Point","coordinates":[139.791029,35.726162]},"properties":{"id":"F022:STP_000002_015","feed_id":"F022","feed_slug":"taito-megurin","municipality":"台東区","service_name":"めぐりん","license":"CC BY 4.0","source_stop_id":"STP_000002_015","stop_code":null,"stop_name":"⑮ 一葉記念館入口（いきいきてらす東）","stop_desc":null,"zone_id":"ZON_000002_015","location_type":0,"parent_station":null,"wheelchair_boarding":null}},{"type":"Feature","id":"F022:STP_000002_016","geometry":{"type":"Point","coordinates":[139.792413,35.721224]},"properties":{"id":"F022:STP_000002_016","feed_id":"F022","feed_slug":"taito-megurin","municipality":"台東区","service_name":"めぐりん","license":"CC BY 4.0","source_stop_id":"STP_000002_016","stop_code":null,"stop_name":"⑯ 千束三丁目","stop_desc":null,"zone_id":"ZON_000002_016","location_type":0,"parent_station":null,"wheelchair_boarding":null}},{"type":"Feature","id":"F022:STP_000002_017","geometry":{"type":"Point","coordinates":[139.792992,35.722569]},"properties":{"id":"F022:STP_000002_017","feed_id":"F022","feed_slug":"taito-megurin","municipality":"台東区","service_name":"めぐりん","license":"CC BY 4.0","source_stop_id":"STP_000002_017","stop_code":null,"stop_name":"⑰ 台東病院","stop_desc":null,"zone_id":"ZON_000002_017","location_type":0,"parent_station":null,"wheelchair_boarding":null}},{"type":"Feature","id":"F022:STP_000002_018","geometry":{"type":"Point","coordinates":[139.793783,35.720144]},"properties":{"id":"F022:STP_000002_018","feed_id":"F022","feed_slug":"taito-megurin","municipality":"台東区","service_name":"めぐりん","license":"CC BY 4.0","source_stop_id":"STP_000002_018","stop_code":null,"stop_name":"⑱ 千束小学校前","stop_desc":null,"zone_id":"ZON_000002_018","location_type":0,"parent_station":null,"wheelchair_boarding":null}},{"type":"Feature","id":"F022:STP_000002_019","geometry":{"type":"Point","coordinates":[139.795903,35.719674]},"properties":{"id":"F022:STP_000002_019","feed_id":"F022","feed_slug":"taito-megurin","municipality":"台東区","service_name":"めぐりん","license":"CC BY 4.0","source_stop_id":"STP_000002_019","stop_code":null,"stop_name":"⑲ 浅草五丁目","stop_desc":null,"zone_id":"ZON_000002_019","location_type":0,"parent_station":null,"wheelchair_boarding":null}},{"type":"Feature","id":"F022:STP_000002_020","geometry":{"type":"Point","coordinates":[139.797873,35.719194]},"properties":{"id":"F022:STP_000002_020","feed_id":"F022","feed_slug":"taito-megurin","municipality":"台東区","service_name":"めぐりん","license":"CC BY 4.0","source_stop_id":"STP_000002_020","stop_code":null,"stop_name":"⑳ 浅草警察署前","stop_desc":null,"zone_id":"ZON_000002_020","location_type":0,"parent_station":null,"wheelchair_boarding":null}},{"type":"Feature","id":"F022:STP_000002_021","geometry":{"type":"Point","coordinates":[139.797953,35.717884]},"properties":{"id":"F022:STP_000002_021","feed_id":"F022","feed_slug":"taito-megurin","municipality":"台東区","service_name":"めぐりん","license":"CC BY 4.0","source_stop_id":"STP_000002_021","stop_code":null,"stop_name":"㉑ 浅草四丁目","stop_desc":null,"zone_id":"ZON_000002_021","location_type":0,"parent_station":null,"wheelchair_boarding":null}},{"type":"Feature","id":"F022:STP_000002_022","geometry":{"type":"Point","coordinates":[139.797703,35.716064]},"properties":{"id":"F022:STP_000002_022","feed_id":"F022","feed_slug":"taito-megurin","municipality":"台東区","service_name":"めぐりん","license":"CC BY 4.0","source_stop_id":"STP_000002_022","stop_code":null,"stop_name":"㉒ 浅草寺北","stop_desc":null,"zone_id":"ZON_000002_022","location_type":0,"parent_station":null,"wheelchair_boarding":null}},{"type":"Feature","id":"F022:STP_000002_023","geometry":{"type":"Point","coordinates":[139.798333,35.714525]},"properties":{"id":"F022:STP_000002_023","feed_id":"F022","feed_slug":"taito-megurin","municipality":"台東区","service_name":"めぐりん","license":"CC BY 4.0","source_stop_id":"STP_000002_023","stop_code":null,"stop_name":"㉓ 二天門","stop_desc":null,"zone_id":"ZON_000002_023","location_type":0,"parent_station":null,"wheelchair_boarding":null}},{"type":"Feature","id":"F022:STP_000002_024","geometry":{"type":"Point","coordinates":[139.797843,35.712465]},"properties":{"id":"F022:STP_000002_024","feed_id":"F022","feed_slug":"taito-megurin","municipality":"台東区","service_name":"めぐりん","license":"CC BY 4.0","source_stop_id":"STP_000002_024","stop_code":null,"stop_name":"㉔ 浅草松屋西","stop_desc":null,"zone_id":"ZON_000002_024","location_type":0,"parent_station":null,"wheelchair_boarding":null}},{"type":"Feature","id":"F022:STP_000003_001","geometry":{"type":"Point","coordinates":[139.778495,35.712004]},"properties":{"id":"F022:STP_000003_001","feed_id":"F022","feed_slug":"taito-megurin","municipality":"台東区","service_name":"めぐりん","license":"CC BY 4.0","source_stop_id":"STP_000003_001","stop_code":null,"stop_name":"① 上野駅","stop_desc":null,"zone_id":"ZON_000003_001","location_type":0,"parent_station":null,"wheelchair_boarding":null}},{"type":"Feature","id":"F022:STP_000003_002","geometry":{"type":"Point","coordinates":[139.778575,35.710015]},"properties":{"id":"F022:STP_000003_002","feed_id":"F022","feed_slug":"taito-megurin","municipality":"台東区","service_name":"めぐりん","license":"CC BY 4.0","source_stop_id":"STP_000003_002","stop_code":null,"stop_name":"② 永寿総合病院","stop_desc":null,"zone_id":"ZON_000003_002","location_type":0,"parent_station":null,"wheelchair_boarding":null}},{"type":"Feature","id":"F022:STP_000003_003","geometry":{"type":"Point","coordinates":[139.778305,35.707505]},"properties":{"id":"F022:STP_000003_003","feed_id":"F022","feed_slug":"taito-megurin","municipality":"台東区","service_name":"めぐりん","license":"CC BY 4.0","source_stop_id":"STP_000003_003","stop_code":null,"stop_name":"③ 御徒町","stop_desc":null,"zone_id":"ZON_000003_003","location_type":0,"parent_station":null,"wheelchair_boarding":null}},{"type":"Feature","id":"F022:STP_000003_004","geometry":{"type":"Point","coordinates":[139.780005,35.706965]},"properties":{"id":"F022:STP_000003_004","feed_id":"F022","feed_slug":"taito-megurin","municipality":"台東区","service_name":"めぐりん","license":"CC BY 4.0","source_stop_id":"STP_000003_004","stop_code":null,"stop_name":"④ 新御徒町駅","stop_desc":null,"zone_id":"ZON_000003_004","location_type":0,"parent_station":null,"wheelchair_boarding":null}},{"type":"Feature","id":"F022:STP_000003_005","geometry":{"type":"Point","coordinates":[139.779745,35.704675]},"properties":{"id":"F022:STP_000003_005","feed_id":"F022","feed_slug":"taito-megurin","municipality":"台東区","service_name":"めぐりん","license":"CC BY 4.0","source_stop_id":"STP_000003_005","stop_code":null,"stop_name":"⑤ 台東三丁目","stop_desc":null,"zone_id":"ZON_000003_005","location_type":0,"parent_station":null,"wheelchair_boarding":null}},{"type":"Feature","id":"F022:STP_000003_006","geometry":{"type":"Point","coordinates":[139.779345,35.701476]},"properties":{"id":"F022:STP_000003_006","feed_id":"F022","feed_slug":"taito-megurin","municipality":"台東区","service_name":"めぐりん","license":"CC BY 4.0","source_stop_id":"STP_000003_006","stop_code":null,"stop_name":"⑥ 台東地区センター","stop_desc":null,"zone_id":"ZON_000003_006","location_type":0,"parent_station":null,"wheelchair_boarding":null}},{"type":"Feature","id":"F022:STP_000003_007","geometry":{"type":"Point","coordinates":[139.779875,35.700306]},"properties":{"id":"F022:STP_000003_007","feed_id":"F022","feed_slug":"taito-megurin","municipality":"台東区","service_name":"めぐりん","license":"CC BY 4.0","source_stop_id":"STP_000003_007","stop_code":null,"stop_name":"⑦ 三井記念病院前","stop_desc":null,"zone_id":"ZON_000003_007","location_type":0,"parent_station":null,"wheelchair_boarding":null}},{"type":"Feature","id":"F022:STP_000003_008","geometry":{"type":"Point","coordinates":[139.782165,35.699076]},"properties":{"id":"F022:STP_000003_008","feed_id":"F022","feed_slug":"taito-megurin","municipality":"台東区","service_name":"めぐりん","license":"CC BY 4.0","source_stop_id":"STP_000003_008","stop_code":null,"stop_name":"⑧ 柳北スポーツプラザ","stop_desc":null,"zone_id":"ZON_000003_008","location_type":0,"parent_station":null,"wheelchair_boarding":null}},{"type":"Feature","id":"F022:STP_000003_009","geometry":{"type":"Point","coordinates":[139.784435,35.698886]},"properties":{"id":"F022:STP_000003_009","feed_id":"F022","feed_slug":"taito-megurin","municipality":"台東区","service_name":"めぐりん","license":"CC BY 4.0","source_stop_id":"STP_000003_009","stop_code":null,"stop_name":"⑨ 浅草橋駅北","stop_desc":null,"zone_id":"ZON_000003_009","location_type":0,"parent_station":null,"wheelchair_boarding":null}},{"type":"Feature","id":"F022:STP_000003_010","geometry":{"type":"Point","coordinates":[139.787748,35.698235]},"properties":{"id":"F022:STP_000003_010","feed_id":"F022","feed_slug":"taito-megurin","municipality":"台東区","service_name":"めぐりん","license":"CC BY 4.0","source_stop_id":"STP_000003_010","stop_code":null,"stop_name":"⑩ 柳橋中央通り","stop_desc":null,"zone_id":"ZON_000003_010","location_type":0,"parent_station":null,"wheelchair_boarding":null}},{"type":"Feature","id":"F022:STP_000003_011","geometry":{"type":"Point","coordinates":[139.790145,35.699357]},"properties":{"id":"F022:STP_000003_011","feed_id":"F022","feed_slug":"taito-megurin","municipality":"台東区","service_name":"めぐりん","license":"CC BY 4.0","source_stop_id":"STP_000003_011","stop_code":null,"stop_name":"⑪ 柳橋分院入口","stop_desc":null,"zone_id":"ZON_000003_011","location_type":0,"parent_station":null,"wheelchair_boarding":null}},{"type":"Feature","id":"F022:STP_000003_012","geometry":{"type":"Point","coordinates":[139.785895,35.701796]},"properties":{"id":"F022:STP_000003_012","feed_id":"F022","feed_slug":"taito-megurin","municipality":"台東区","service_name":"めぐりん","license":"CC BY 4.0","source_stop_id":"STP_000003_012","stop_code":null,"stop_name":"⑫ 鳥越神社前","stop_desc":null,"zone_id":"ZON_000003_012","location_type":0,"parent_station":null,"wheelchair_boarding":null}},{"type":"Feature","id":"F022:STP_000003_013","geometry":{"type":"Point","coordinates":[139.787845,35.703096]},"properties":{"id":"F022:STP_000003_013","feed_id":"F022","feed_slug":"taito-megurin","municipality":"台東区","service_name":"めぐりん","license":"CC BY 4.0","source_stop_id":"STP_000003_013","stop_code":null,"stop_name":"⑬ 環境ふれあい館ひまわり入口","stop_desc":null,"zone_id":"ZON_000003_013","location_type":0,"parent_station":null,"wheelchair_boarding":null}},{"type":"Feature","id":"F022:STP_000003_014","geometry":{"type":"Point","coordinates":[139.787925,35.705775]},"properties":{"id":"F022:STP_000003_014","feed_id":"F022","feed_slug":"taito-megurin","municipality":"台東区","service_name":"めぐりん","license":"CC BY 4.0","source_stop_id":"STP_000003_014","stop_code":null,"stop_name":"⑭ 三筋老人福祉館東","stop_desc":null,"zone_id":"ZON_000003_014","location_type":0,"parent_station":null,"wheelchair_boarding":null}},{"type":"Feature","id":"F022:STP_000003_015","geometry":{"type":"Point","coordinates":[139.788475,35.706425]},"properties":{"id":"F022:STP_000003_015","feed_id":"F022","feed_slug":"taito-megurin","municipality":"台東区","service_name":"めぐりん","license":"CC BY 4.0","source_stop_id":"STP_000003_015","stop_code":null,"stop_name":"⑮ 南部区民事務所","stop_desc":null,"zone_id":"ZON_000003_015","location_type":0,"parent_station":null,"wheelchair_boarding":null}},{"type":"Feature","id":"F022:STP_000003_016","geometry":{"type":"Point","coordinates":[139.790674,35.706505]},"properties":{"id":"F022:STP_000003_016","feed_id":"F022","feed_slug":"taito-megurin","municipality":"台東区","service_name":"めぐりん","license":"CC BY 4.0","source_stop_id":"STP_000003_016","stop_code":null,"stop_name":"⑯ 大江戸線蔵前駅","stop_desc":null,"zone_id":"ZON_000003_016","location_type":0,"parent_station":null,"wheelchair_boarding":null}},{"type":"Feature","id":"F022:STP_000003_017","geometry":{"type":"Point","coordinates":[139.791184,35.709395]},"properties":{"id":"F022:STP_000003_017","feed_id":"F022","feed_slug":"taito-megurin","municipality":"台東区","service_name":"めぐりん","license":"CC BY 4.0","source_stop_id":"STP_000003_017","stop_code":null,"stop_name":"⑰ 田原町駅","stop_desc":null,"zone_id":"ZON_000003_017","location_type":0,"parent_station":null,"wheelchair_boarding":null}},{"type":"Feature","id":"F022:STP_000003_018","geometry":{"type":"Point","coordinates":[139.791524,35.711695]},"properties":{"id":"F022:STP_000003_018","feed_id":"F022","feed_slug":"taito-megurin","municipality":"台東区","service_name":"めぐりん","license":"CC BY 4.0","source_stop_id":"STP_000003_018","stop_code":null,"stop_name":"⑱ 浅草菊水通り","stop_desc":null,"zone_id":"ZON_000003_018","location_type":0,"parent_station":null,"wheelchair_boarding":null}},{"type":"Feature","id":"F022:STP_000003_019","geometry":{"type":"Point","coordinates":[139.789044,35.712205]},"properties":{"id":"F022:STP_000003_019","feed_id":"F022","feed_slug":"taito-megurin","municipality":"台東区","service_name":"めぐりん","license":"CC BY 4.0","source_stop_id":"STP_000003_019","stop_code":null,"stop_name":"⑲ 西浅草","stop_desc":null,"zone_id":"ZON_000003_019","location_type":0,"parent_station":null,"wheelchair_boarding":null}},{"type":"Feature","id":"F022:STP_000003_020","geometry":{"type":"Point","coordinates":[139.78758,35.710336]},"properties":{"id":"F022:STP_000003_020","feed_id":"F022","feed_slug":"taito-megurin","municipality":"台東区","service_name":"めぐりん","license":"CC BY 4.0","source_stop_id":"STP_000003_020","stop_code":null,"stop_name":"⑲-2 菊屋橋","stop_desc":null,"zone_id":"ZON_000003_020","location_type":0,"parent_station":null,"wheelchair_boarding":null}},{"type":"Feature","id":"F022:STP_000003_021","geometry":{"type":"Point","coordinates":[139.780756,35.712521]},"properties":{"id":"F022:STP_000003_021","feed_id":"F022","feed_slug":"taito-megurin","municipality":"台東区","service_name":"めぐりん","license":"CC BY 4.0","source_stop_id":"STP_000003_021","stop_code":null,"stop_name":"⑳ 台東区役所","stop_desc":null,"zone_id":"ZON_000003_021","location_type":0,"parent_station":null,"wheelchair_boarding":null}},{"type":"Feature","id":"F022:STP_000003_022","geometry":{"type":"Point","coordinates":[139.782081,35.715015]},"properties":{"id":"F022:STP_000003_022","feed_id":"F022","feed_slug":"taito-megurin","municipality":"台東区","service_name":"めぐりん","license":"CC BY 4.0","source_stop_id":"STP_000003_022","stop_code":null,"stop_name":"㉑ 上野学園","stop_desc":null,"zone_id":"ZON_000003_022","location_type":0,"parent_station":null,"wheelchair_boarding":null}},{"type":"Feature","id":"F022:STP_000003_023","geometry":{"type":"Point","coordinates":[139.785194,35.715254]},"properties":{"id":"F022:STP_000003_023","feed_id":"F022","feed_slug":"taito-megurin","municipality":"台東区","service_name":"めぐりん","license":"CC BY 4.0","source_stop_id":"STP_000003_023","stop_code":null,"stop_name":"㉒ 北上野二丁目","stop_desc":null,"zone_id":"ZON_000003_023","location_type":0,"parent_station":null,"wheelchair_boarding":null}},{"type":"Feature","id":"F022:STP_000003_024","geometry":{"type":"Point","coordinates":[139.787624,35.714774]},"properties":{"id":"F022:STP_000003_024","feed_id":"F022","feed_slug":"taito-megurin","municipality":"台東区","service_name":"めぐりん","license":"CC BY 4.0","source_stop_id":"STP_000003_024","stop_code":null,"stop_name":"㉓ 松が谷","stop_desc":null,"zone_id":"ZON_000003_024","location_type":0,"parent_station":null,"wheelchair_boarding":null}},{"type":"Feature","id":"F022:STP_000003_025","geometry":{"type":"Point","coordinates":[139.788994,35.716374]},"properties":{"id":"F022:STP_000003_025","feed_id":"F022","feed_slug":"taito-megurin","municipality":"台東区","service_name":"めぐりん","license":"CC BY 4.0","source_stop_id":"STP_000003_025","stop_code":null,"stop_name":"㉔ 生涯学習センター南","stop_desc":null,"zone_id":"ZON_000003_025","location_type":0,"parent_station":null,"wheelchair_boarding":null}},{"type":"Feature","id":"F022:STP_000003_026","geometry":{"type":"Point","coordinates":[139.789407,35.718951]},"properties":{"id":"F022:STP_000003_026","feed_id":"F022","feed_slug":"taito-megurin","municipality":"台東区","service_name":"めぐりん","license":"CC BY 4.0","source_stop_id":"STP_000003_026","stop_code":null,"stop_name":"㉕ 生涯学習センター北","stop_desc":null,"zone_id":"ZON_000003_026","location_type":0,"parent_station":null,"wheelchair_boarding":null}},{"type":"Feature","id":"F022:STP_000003_027","geometry":{"type":"Point","coordinates":[139.790783,35.721354]},"properties":{"id":"F022:STP_000003_027","feed_id":"F022","feed_slug":"taito-megurin","municipality":"台東区","service_name":"めぐりん","license":"CC BY 4.0","source_stop_id":"STP_000003_027","stop_code":null,"stop_name":"㉖ 千束二丁目","stop_desc":null,"zone_id":"ZON_000003_027","location_type":0,"parent_station":null,"wheelchair_boarding":null}},{"type":"Feature","id":"F022:STP_000003_028","geometry":{"type":"Point","coordinates":[139.792413,35.721224]},"properties":{"id":"F022:STP_000003_028","feed_id":"F022","feed_slug":"taito-megurin","municipality":"台東区","service_name":"めぐりん","license":"CC BY 4.0","source_stop_id":"STP_000003_028","stop_code":null,"stop_name":"㉗ 千束三丁目","stop_desc":null,"zone_id":"ZON_000003_028","location_type":0,"parent_station":null,"wheelchair_boarding":null}},{"type":"Feature","id":"F022:STP_000003_029","geometry":{"type":"Point","coordinates":[139.792992,35.722569]},"properties":{"id":"F022:STP_000003_029","feed_id":"F022","feed_slug":"taito-megurin","municipality":"台東区","service_name":"めぐりん","license":"CC BY 4.0","source_stop_id":"STP_000003_029","stop_code":null,"stop_name":"㉘ 台東病院","stop_desc":null,"zone_id":"ZON_000003_029","location_type":0,"parent_station":null,"wheelchair_boarding":null}},{"type":"Feature","id":"F022:STP_000003_030","geometry":{"type":"Point","coordinates":[139.787969,35.721189]},"properties":{"id":"F022:STP_000003_030","feed_id":"F022","feed_slug":"taito-megurin","municipality":"台東区","service_name":"めぐりん","license":"CC BY 4.0","source_stop_id":"STP_000003_030","stop_code":null,"stop_name":"㉘-2 大正小学校前","stop_desc":null,"zone_id":"ZON_000003_030","location_type":0,"parent_station":null,"wheelchair_boarding":null}},{"type":"Feature","id":"F022:STP_000003_031","geometry":{"type":"Point","coordinates":[139.786084,35.719834]},"properties":{"id":"F022:STP_000003_031","feed_id":"F022","feed_slug":"taito-megurin","municipality":"台東区","service_name":"めぐりん","license":"CC BY 4.0","source_stop_id":"STP_000003_031","stop_code":null,"stop_name":"㉙ 入谷地区センター","stop_desc":null,"zone_id":"ZON_000003_031","location_type":0,"parent_station":null,"wheelchair_boarding":null}},{"type":"Feature","id":"F022:STP_000003_032","geometry":{"type":"Point","coordinates":[139.785744,35.718344]},"properties":{"id":"F022:STP_000003_032","feed_id":"F022","feed_slug":"taito-megurin","municipality":"台東区","service_name":"めぐりん","license":"CC BY 4.0","source_stop_id":"STP_000003_032","stop_code":null,"stop_name":"㉚ 入谷南公園","stop_desc":null,"zone_id":"ZON_000003_032","location_type":0,"parent_station":null,"wheelchair_boarding":null}},{"type":"Feature","id":"F022:STP_000003_033","geometry":{"type":"Point","coordinates":[139.784294,35.717634]},"properties":{"id":"F022:STP_000003_033","feed_id":"F022","feed_slug":"taito-megurin","municipality":"台東区","service_name":"めぐりん","license":"CC BY 4.0","source_stop_id":"STP_000003_033","stop_code":null,"stop_name":"㉛ 北上野","stop_desc":null,"zone_id":"ZON_000003_033","location_type":0,"parent_station":null,"wheelchair_boarding":null}},{"type":"Feature","id":"F022:STP_000003_034","geometry":{"type":"Point","coordinates":[139.782504,35.715564]},"properties":{"id":"F022:STP_000003_034","feed_id":"F022","feed_slug":"taito-megurin","municipality":"台東区","service_name":"めぐりん","license":"CC BY 4.0","source_stop_id":"STP_000003_034","stop_code":null,"stop_name":"㉜ 上野学園","stop_desc":null,"zone_id":"ZON_000003_034","location_type":0,"parent_station":null,"wheelchair_boarding":null}},{"type":"Feature","id":"F022:STP_000003_035","geometry":{"type":"Point","coordinates":[139.781355,35.713756]},"properties":{"id":"F022:STP_000003_035","feed_id":"F022","feed_slug":"taito-megurin","municipality":"台東区","service_name":"めぐりん","license":"CC BY 4.0","source_stop_id":"STP_000003_035","stop_code":null,"stop_name":"㉝ 台東保健所","stop_desc":null,"zone_id":"ZON_000003_035","location_type":0,"parent_station":null,"wheelchair_boarding":null}},{"type":"Feature","id":"F022:STP_000003_036","geometry":{"type":"Point","coordinates":[139.779655,35.712474]},"properties":{"id":"F022:STP_000003_036","feed_id":"F022","feed_slug":"taito-megurin","municipality":"台東区","service_name":"めぐりん","license":"CC BY 4.0","source_stop_id":"STP_000003_036","stop_code":null,"stop_name":"㉞ 台東区役所","stop_desc":null,"zone_id":"ZON_000003_036","location_type":0,"parent_station":null,"wheelchair_boarding":null}},{"type":"Feature","id":"F022:STP_000003_037","geometry":{"type":"Point","coordinates":[139.778495,35.712004]},"properties":{"id":"F022:STP_000003_037","feed_id":"F022","feed_slug":"taito-megurin","municipality":"台東区","service_name":"めぐりん","license":"CC BY 4.0","source_stop_id":"STP_000003_037","stop_code":null,"stop_name":"① 上野駅終","stop_desc":null,"zone_id":"ZON_000003_037","location_type":0,"parent_station":null,"wheelchair_boarding":null}},{"type":"Feature","id":"F022:STP_000004_001","geometry":{"type":"Point","coordinates":[139.779655,35.712474]},"properties":{"id":"F022:STP_000004_001","feed_id":"F022","feed_slug":"taito-megurin","municipality":"台東区","service_name":"めぐりん","license":"CC BY 4.0","source_stop_id":"STP_000004_001","stop_code":null,"stop_name":"① 台東区役所","stop_desc":null,"zone_id":"ZON_000004_001","location_type":0,"parent_station":null,"wheelchair_boarding":null}},{"type":"Feature","id":"F022:STP_000004_002","geometry":{"type":"Point","coordinates":[139.778481,35.714497]},"properties":{"id":"F022:STP_000004_002","feed_id":"F022","feed_slug":"taito-megurin","municipality":"台東区","service_name":"めぐりん","license":"CC BY 4.0","source_stop_id":"STP_000004_002","stop_code":null,"stop_name":"② 上野駅入谷口","stop_desc":null,"zone_id":"ZON_000004_002","location_type":0,"parent_station":null,"wheelchair_boarding":null}},{"type":"Feature","id":"F022:STP_000004_003","geometry":{"type":"Point","coordinates":[139.776485,35.714603]},"properties":{"id":"F022:STP_000004_003","feed_id":"F022","feed_slug":"taito-megurin","municipality":"台東区","service_name":"めぐりん","license":"CC BY 4.0","source_stop_id":"STP_000004_003","stop_code":null,"stop_name":"③ ＪＲ上野駅公園口","stop_desc":null,"zone_id":"ZON_000004_003","location_type":0,"parent_station":null,"wheelchair_boarding":null}},{"type":"Feature","id":"F022:STP_000004_004","geometry":{"type":"Point","coordinates":[139.776192,35.717082]},"properties":{"id":"F022:STP_000004_004","feed_id":"F022","feed_slug":"taito-megurin","municipality":"台東区","service_name":"めぐりん","license":"CC BY 4.0","source_stop_id":"STP_000004_004","stop_code":null,"stop_name":"④ 東京国立博物館","stop_desc":null,"zone_id":"ZON_000004_004","location_type":0,"parent_station":null,"wheelchair_boarding":null}},{"type":"Feature","id":"F022:STP_000004_005","geometry":{"type":"Point","coordinates":[139.773627,35.718362]},"properties":{"id":"F022:STP_000004_005","feed_id":"F022","feed_slug":"taito-megurin","municipality":"台東区","service_name":"めぐりん","license":"CC BY 4.0","source_stop_id":"STP_000004_005","stop_code":null,"stop_name":"⑤ 旧東京音楽学校奏楽堂","stop_desc":null,"zone_id":"ZON_000004_005","location_type":0,"parent_station":null,"wheelchair_boarding":null}},{"type":"Feature","id":"F022:STP_000004_006","geometry":{"type":"Point","coordinates":[139.774014,35.720679]},"properties":{"id":"F022:STP_000004_006","feed_id":"F022","feed_slug":"taito-megurin","municipality":"台東区","service_name":"めぐりん","license":"CC BY 4.0","source_stop_id":"STP_000004_006","stop_code":null,"stop_name":"⑥ 寛永寺","stop_desc":null,"zone_id":"ZON_000004_006","location_type":0,"parent_station":null,"wheelchair_boarding":null}},{"type":"Feature","id":"F022:STP_000004_007","geometry":{"type":"Point","coordinates":[139.770929,35.719814]},"properties":{"id":"F022:STP_000004_007","feed_id":"F022","feed_slug":"taito-megurin","municipality":"台東区","service_name":"めぐりん","license":"CC BY 4.0","source_stop_id":"STP_000004_007","stop_code":null,"stop_name":"⑦ 上野桜木会館","stop_desc":null,"zone_id":"ZON_000004_007","location_type":0,"parent_station":null,"wheelchair_boarding":null}},{"type":"Feature","id":"F022:STP_000004_008","geometry":{"type":"Point","coordinates":[139.769635,35.720034]},"properties":{"id":"F022:STP_000004_008","feed_id":"F022","feed_slug":"taito-megurin","municipality":"台東区","service_name":"めぐりん","license":"CC BY 4.0","source_stop_id":"STP_000004_008","stop_code":null,"stop_name":"⑧ 谷中清水町公園","stop_desc":null,"zone_id":"ZON_000004_008","location_type":0,"parent_station":null,"wheelchair_boarding":null}},{"type":"Feature","id":"F022:STP_000004_009","geometry":{"type":"Point","coordinates":[139.770655,35.721073]},"properties":{"id":"F022:STP_000004_009","feed_id":"F022","feed_slug":"taito-megurin","municipality":"台東区","service_name":"めぐりん","license":"CC BY 4.0","source_stop_id":"STP_000004_009","stop_code":null,"stop_name":"⑨ 旧吉田屋酒店","stop_desc":null,"zone_id":"ZON_000004_009","location_type":0,"parent_station":null,"wheelchair_boarding":null}},{"type":"Feature","id":"F022:STP_000004_010","geometry":{"type":"Point","coordinates":[139.780469,35.719008]},"properties":{"id":"F022:STP_000004_010","feed_id":"F022","feed_slug":"taito-megurin","municipality":"台東区","service_name":"めぐりん","license":"CC BY 4.0","source_stop_id":"STP_000004_010","stop_code":null,"stop_name":"③-1 上野郵便局","stop_desc":null,"zone_id":"ZON_000004_010","location_type":0,"parent_station":null,"wheelchair_boarding":null}},{"type":"Feature","id":"F022:STP_000004_011","geometry":{"type":"Point","coordinates":[139.780882,35.720857]},"properties":{"id":"F022:STP_000004_011","feed_id":"F022","feed_slug":"taito-megurin","municipality":"台東区","service_name":"めぐりん","license":"CC BY 4.0","source_stop_id":"STP_000004_011","stop_code":null,"stop_name":"④-1 下谷二丁目（鶯谷駅南）","stop_desc":null,"zone_id":"ZON_000004_011","location_type":0,"parent_station":null,"wheelchair_boarding":null}},{"type":"Feature","id":"F022:STP_000004_012","geometry":{"type":"Point","coordinates":[139.774424,35.722675]},"properties":{"id":"F022:STP_000004_012","feed_id":"F022","feed_slug":"taito-megurin","municipality":"台東区","service_name":"めぐりん","license":"CC BY 4.0","source_stop_id":"STP_000004_012","stop_code":null,"stop_name":"⑤-1 上野桜木","stop_desc":null,"zone_id":"ZON_000004_012","location_type":0,"parent_station":null,"wheelchair_boarding":null}},{"type":"Feature","id":"F022:STP_000004_013","geometry":{"type":"Point","coordinates":[139.771017,35.721115]},"properties":{"id":"F022:STP_000004_013","feed_id":"F022","feed_slug":"taito-megurin","municipality":"台東区","service_name":"めぐりん","license":"CC BY 4.0","source_stop_id":"STP_000004_013","stop_code":null,"stop_name":"⑥-1 谷中（旧吉田屋酒店前）","stop_desc":null,"zone_id":"ZON_000004_013","location_type":0,"parent_station":null,"wheelchair_boarding":null}},{"type":"Feature","id":"F022:STP_000004_014","geometry":{"type":"Point","coordinates":[139.769815,35.723013]},"properties":{"id":"F022:STP_000004_014","feed_id":"F022","feed_slug":"taito-megurin","municipality":"台東区","service_name":"めぐりん","license":"CC BY 4.0","source_stop_id":"STP_000004_014","stop_code":null,"stop_name":"⑩ 谷中霊園入口","stop_desc":null,"zone_id":"ZON_000004_014","location_type":0,"parent_station":null,"wheelchair_boarding":null}},{"type":"Feature","id":"F022:STP_000004_015","geometry":{"type":"Point","coordinates":[139.767275,35.723713]},"properties":{"id":"F022:STP_000004_015","feed_id":"F022","feed_slug":"taito-megurin","municipality":"台東区","service_name":"めぐりん","license":"CC BY 4.0","source_stop_id":"STP_000004_015","stop_code":null,"stop_name":"⑪ 三崎坂上","stop_desc":null,"zone_id":"ZON_000004_015","location_type":0,"parent_station":null,"wheelchair_boarding":null}},{"type":"Feature","id":"F022:STP_000004_016","geometry":{"type":"Point","coordinates":[139.764795,35.724433]},"properties":{"id":"F022:STP_000004_016","feed_id":"F022","feed_slug":"taito-megurin","municipality":"台東区","service_name":"めぐりん","license":"CC BY 4.0","source_stop_id":"STP_000004_016","stop_code":null,"stop_name":"⑫ 特養ホーム谷中入口","stop_desc":null,"zone_id":"ZON_000004_016","location_type":0,"parent_station":null,"wheelchair_boarding":null}},{"type":"Feature","id":"F022:STP_000004_017","geometry":{"type":"Point","coordinates":[139.764505,35.726573]},"properties":{"id":"F022:STP_000004_017","feed_id":"F022","feed_slug":"taito-megurin","municipality":"台東区","service_name":"めぐりん","license":"CC BY 4.0","source_stop_id":"STP_000004_017","stop_code":null,"stop_name":"⑬ 谷中銀座・よみせ通り","stop_desc":null,"zone_id":"ZON_000004_017","location_type":0,"parent_station":null,"wheelchair_boarding":null}},{"type":"Feature","id":"F022:STP_000004_018","geometry":{"type":"Point","coordinates":[139.763185,35.725193]},"properties":{"id":"F022:STP_000004_018","feed_id":"F022","feed_slug":"taito-megurin","municipality":"台東区","service_name":"めぐりん","license":"CC BY 4.0","source_stop_id":"STP_000004_018","stop_code":null,"stop_name":"⑭ 千駄木駅","stop_desc":null,"zone_id":"ZON_000004_018","location_type":0,"parent_station":null,"wheelchair_boarding":null}},{"type":"Feature","id":"F022:STP_000004_019","geometry":{"type":"Point","coordinates":[139.76603,35.723999]},"properties":{"id":"F022:STP_000004_019","feed_id":"F022","feed_slug":"taito-megurin","municipality":"台東区","service_name":"めぐりん","license":"CC BY 4.0","source_stop_id":"STP_000004_019","stop_code":null,"stop_name":"⑮ 谷中小学校","stop_desc":null,"zone_id":"ZON_000004_019","location_type":0,"parent_station":null,"wheelchair_boarding":null}},{"type":"Feature","id":"F022:STP_000004_020","geometry":{"type":"Point","coordinates":[139.767667,35.723732]},"properties":{"id":"F022:STP_000004_020","feed_id":"F022","feed_slug":"taito-megurin","municipality":"台東区","service_name":"めぐりん","license":"CC BY 4.0","source_stop_id":"STP_000004_020","stop_code":null,"stop_name":"⑯ 三崎坂上","stop_desc":null,"zone_id":"ZON_000004_020","location_type":0,"parent_station":null,"wheelchair_boarding":null}},{"type":"Feature","id":"F022:STP_000004_021","geometry":{"type":"Point","coordinates":[139.769663,35.72334]},"properties":{"id":"F022:STP_000004_021","feed_id":"F022","feed_slug":"taito-megurin","municipality":"台東区","service_name":"めぐりん","license":"CC BY 4.0","source_stop_id":"STP_000004_021","stop_code":null,"stop_name":"⑰ 谷中霊園入口","stop_desc":null,"zone_id":"ZON_000004_021","location_type":0,"parent_station":null,"wheelchair_boarding":null}},{"type":"Feature","id":"F022:STP_000004_022","geometry":{"type":"Point","coordinates":[139.770306,35.720901]},"properties":{"id":"F022:STP_000004_022","feed_id":"F022","feed_slug":"taito-megurin","municipality":"台東区","service_name":"めぐりん","license":"CC BY 4.0","source_stop_id":"STP_000004_022","stop_code":null,"stop_name":"⑱ 旧吉田屋酒店","stop_desc":null,"zone_id":"ZON_000004_022","location_type":0,"parent_station":null,"wheelchair_boarding":null}},{"type":"Feature","id":"F022:STP_000004_023","geometry":{"type":"Point","coordinates":[139.76231,35.72091]},"properties":{"id":"F022:STP_000004_023","feed_id":"F022","feed_slug":"taito-megurin","municipality":"台東区","service_name":"めぐりん","license":"CC BY 4.0","source_stop_id":"STP_000004_023","stop_code":null,"stop_name":"⑮-1 日本医科大学付属病院下","stop_desc":null,"zone_id":"ZON_000004_023","location_type":0,"parent_station":null,"wheelchair_boarding":null}},{"type":"Feature","id":"F022:STP_000004_024","geometry":{"type":"Point","coordinates":[139.765488,35.718158]},"properties":{"id":"F022:STP_000004_024","feed_id":"F022","feed_slug":"taito-megurin","municipality":"台東区","service_name":"めぐりん","license":"CC BY 4.0","source_stop_id":"STP_000004_024","stop_code":null,"stop_name":"⑯-1 根津駅前","stop_desc":null,"zone_id":"ZON_000004_024","location_type":0,"parent_station":null,"wheelchair_boarding":null}},{"type":"Feature","id":"F022:STP_000004_025","geometry":{"type":"Point","coordinates":[139.768235,35.719913]},"properties":{"id":"F022:STP_000004_025","feed_id":"F022","feed_slug":"taito-megurin","municipality":"台東区","service_name":"めぐりん","license":"CC BY 4.0","source_stop_id":"STP_000004_025","stop_code":null,"stop_name":"⑰-1 善光寺坂上","stop_desc":null,"zone_id":"ZON_000004_025","location_type":0,"parent_station":null,"wheelchair_boarding":null}},{"type":"Feature","id":"F022:STP_000004_026","geometry":{"type":"Point","coordinates":[139.769662,35.719847]},"properties":{"id":"F022:STP_000004_026","feed_id":"F022","feed_slug":"taito-megurin","municipality":"台東区","service_name":"めぐりん","license":"CC BY 4.0","source_stop_id":"STP_000004_026","stop_code":null,"stop_name":"⑲ 三段坂上","stop_desc":null,"zone_id":"ZON_000004_026","location_type":0,"parent_station":null,"wheelchair_boarding":null}},{"type":"Feature","id":"F022:STP_000004_027","geometry":{"type":"Point","coordinates":[139.768685,35.718464]},"properties":{"id":"F022:STP_000004_027","feed_id":"F022","feed_slug":"taito-megurin","municipality":"台東区","service_name":"めぐりん","license":"CC BY 4.0","source_stop_id":"STP_000004_027","stop_code":null,"stop_name":"⑳ 池之端四丁目","stop_desc":null,"zone_id":"ZON_000004_027","location_type":0,"parent_station":null,"wheelchair_boarding":null}},{"type":"Feature","id":"F022:STP_000004_028","geometry":{"type":"Point","coordinates":[139.769795,35.716054]},"properties":{"id":"F022:STP_000004_028","feed_id":"F022","feed_slug":"taito-megurin","municipality":"台東区","service_name":"めぐりん","license":"CC BY 4.0","source_stop_id":"STP_000004_028","stop_code":null,"stop_name":"㉑ 池之端三丁目","stop_desc":null,"zone_id":"ZON_000004_028","location_type":0,"parent_station":null,"wheelchair_boarding":null}},{"type":"Feature","id":"F022:STP_000004_029","geometry":{"type":"Point","coordinates":[139.768113,35.71399]},"properties":{"id":"F022:STP_000004_029","feed_id":"F022","feed_slug":"taito-megurin","municipality":"台東区","service_name":"めぐりん","license":"CC BY 4.0","source_stop_id":"STP_000004_029","stop_code":null,"stop_name":"㉒ 上野動物園池之端門前","stop_desc":null,"zone_id":"ZON_000004_029","location_type":0,"parent_station":null,"wheelchair_boarding":null}},{"type":"Feature","id":"F022:STP_000004_030","geometry":{"type":"Point","coordinates":[139.770647,35.709492]},"properties":{"id":"F022:STP_000004_030","feed_id":"F022","feed_slug":"taito-megurin","municipality":"台東区","service_name":"めぐりん","license":"CC BY 4.0","source_stop_id":"STP_000004_030","stop_code":null,"stop_name":"㉓ 水上音楽堂","stop_desc":null,"zone_id":"ZON_000004_030","location_type":0,"parent_station":null,"wheelchair_boarding":null}},{"type":"Feature","id":"F022:STP_000004_031","geometry":{"type":"Point","coordinates":[139.773975,35.710994]},"properties":{"id":"F022:STP_000004_031","feed_id":"F022","feed_slug":"taito-megurin","municipality":"台東区","service_name":"めぐりん","license":"CC BY 4.0","source_stop_id":"STP_000004_031","stop_code":null,"stop_name":"㉔ 京成上野駅・上野公園","stop_desc":null,"zone_id":"ZON_000004_031","location_type":0,"parent_station":null,"wheelchair_boarding":null}},{"type":"Feature","id":"F022:STP_000004_032","geometry":{"type":"Point","coordinates":[139.779655,35.712474]},"properties":{"id":"F022:STP_000004_032","feed_id":"F022","feed_slug":"taito-megurin","municipality":"台東区","service_name":"めぐりん","license":"CC BY 4.0","source_stop_id":"STP_000004_032","stop_code":null,"stop_name":"㉕ 台東区役所","stop_desc":null,"zone_id":"ZON_000004_032","location_type":0,"parent_station":null,"wheelchair_boarding":null}},{"type":"Feature","id":"F022:STP_000004_033","geometry":{"type":"Point","coordinates":[139.778532,35.714538]},"properties":{"id":"F022:STP_000004_033","feed_id":"F022","feed_slug":"taito-megurin","municipality":"台東区","service_name":"めぐりん","license":"CC BY 4.0","source_stop_id":"STP_000004_033","stop_code":null,"stop_name":"㉖ 上野駅入谷口","stop_desc":null,"zone_id":"ZON_000004_033","location_type":0,"parent_station":null,"wheelchair_boarding":null}},{"type":"Feature","id":"F022:STP_000004_034","geometry":{"type":"Point","coordinates":[139.785194,35.715254]},"properties":{"id":"F022:STP_000004_034","feed_id":"F022","feed_slug":"taito-megurin","municipality":"台東区","service_name":"めぐりん","license":"CC BY 4.0","source_stop_id":"STP_000004_034","stop_code":null,"stop_name":"㉗ 北上野二丁目","stop_desc":null,"zone_id":"ZON_000004_034","location_type":0,"parent_station":null,"wheelchair_boarding":null}},{"type":"Feature","id":"F022:STP_000004_035","geometry":{"type":"Point","coordinates":[139.787624,35.714774]},"properties":{"id":"F022:STP_000004_035","feed_id":"F022","feed_slug":"taito-megurin","municipality":"台東区","service_name":"めぐりん","license":"CC BY 4.0","source_stop_id":"STP_000004_035","stop_code":null,"stop_name":"㉘ 松が谷","stop_desc":null,"zone_id":"ZON_000004_035","location_type":0,"parent_station":null,"wheelchair_boarding":null}},{"type":"Feature","id":"F022:STP_000004_036","geometry":{"type":"Point","coordinates":[139.791424,35.714035]},"properties":{"id":"F022:STP_000004_036","feed_id":"F022","feed_slug":"taito-megurin","municipality":"台東区","service_name":"めぐりん","license":"CC BY 4.0","source_stop_id":"STP_000004_036","stop_code":null,"stop_name":"㉙ 西浅草三丁目","stop_desc":null,"zone_id":"ZON_000004_036","location_type":0,"parent_station":null,"wheelchair_boarding":null}},{"type":"Feature","id":"F022:STP_000004_037","geometry":{"type":"Point","coordinates":[139.792389,35.71295]},"properties":{"id":"F022:STP_000004_037","feed_id":"F022","feed_slug":"taito-megurin","municipality":"台東区","service_name":"めぐりん","license":"CC BY 4.0","source_stop_id":"STP_000004_037","stop_code":null,"stop_name":"㉚ つくばエクスプレス浅草駅","stop_desc":null,"zone_id":"ZON_000004_037","location_type":0,"parent_station":null,"wheelchair_boarding":null}},{"type":"Feature","id":"F022:STP_000004_038","geometry":{"type":"Point","coordinates":[139.794334,35.711225]},"properties":{"id":"F022:STP_000004_038","feed_id":"F022","feed_slug":"taito-megurin","municipality":"台東区","service_name":"めぐりん","license":"CC BY 4.0","source_stop_id":"STP_000004_038","stop_code":null,"stop_name":"㉛ 雷門通り","stop_desc":null,"zone_id":"ZON_000004_038","location_type":0,"parent_station":null,"wheelchair_boarding":null}},{"type":"Feature","id":"F022:STP_000004_039","geometry":{"type":"Point","coordinates":[139.798193,35.711445]},"properties":{"id":"F022:STP_000004_039","feed_id":"F022","feed_slug":"taito-megurin","municipality":"台東区","service_name":"めぐりん","license":"CC BY 4.0","source_stop_id":"STP_000004_039","stop_code":null,"stop_name":"㉜ 浅草駅","stop_desc":null,"zone_id":"ZON_000004_039","location_type":0,"parent_station":null,"wheelchair_boarding":null}},{"type":"Feature","id":"F022:STP_000004_040","geometry":{"type":"Point","coordinates":[139.796317,35.710239]},"properties":{"id":"F022:STP_000004_040","feed_id":"F022","feed_slug":"taito-megurin","municipality":"台東区","service_name":"めぐりん","license":"CC BY 4.0","source_stop_id":"STP_000004_040","stop_code":null,"stop_name":"㉝ 雷門前","stop_desc":null,"zone_id":"ZON_000004_040","location_type":0,"parent_station":null,"wheelchair_boarding":null}},{"type":"Feature","id":"F022:STP_000004_041","geometry":{"type":"Point","coordinates":[139.794934,35.708935]},"properties":{"id":"F022:STP_000004_041","feed_id":"F022","feed_slug":"taito-megurin","municipality":"台東区","service_name":"めぐりん","license":"CC BY 4.0","source_stop_id":"STP_000004_041","stop_code":null,"stop_name":"㉞ 都営浅草駅","stop_desc":null,"zone_id":"ZON_000004_041","location_type":0,"parent_station":null,"wheelchair_boarding":null}},{"type":"Feature","id":"F022:STP_000004_042","geometry":{"type":"Point","coordinates":[139.793674,35.707185]},"properties":{"id":"F022:STP_000004_042","feed_id":"F022","feed_slug":"taito-megurin","municipality":"台東区","service_name":"めぐりん","license":"CC BY 4.0","source_stop_id":"STP_000004_042","stop_code":null,"stop_name":"㉟ 浅草消防署","stop_desc":null,"zone_id":"ZON_000004_042","location_type":0,"parent_station":null,"wheelchair_boarding":null}},{"type":"Feature","id":"F022:STP_000004_043","geometry":{"type":"Point","coordinates":[139.788994,35.707355]},"properties":{"id":"F022:STP_000004_043","feed_id":"F022","feed_slug":"taito-megurin","municipality":"台東区","service_name":"めぐりん","license":"CC BY 4.0","source_stop_id":"STP_000004_043","stop_code":null,"stop_name":"㊱ 南部区民事務所","stop_desc":null,"zone_id":"ZON_000004_043","location_type":0,"parent_station":null,"wheelchair_boarding":null}},{"type":"Feature","id":"F022:STP_000004_044","geometry":{"type":"Point","coordinates":[139.784963,35.706117]},"properties":{"id":"F022:STP_000004_044","feed_id":"F022","feed_slug":"taito-megurin","municipality":"台東区","service_name":"めぐりん","license":"CC BY 4.0","source_stop_id":"STP_000004_044","stop_code":null,"stop_name":"㊲ 三筋二丁目（台東デザイナーズビレッジ）","stop_desc":null,"zone_id":"ZON_000004_044","location_type":0,"parent_station":null,"wheelchair_boarding":null}},{"type":"Feature","id":"F022:STP_000004_045","geometry":{"type":"Point","coordinates":[139.781564,35.703771]},"properties":{"id":"F022:STP_000004_045","feed_id":"F022","feed_slug":"taito-megurin","municipality":"台東区","service_name":"めぐりん","license":"CC BY 4.0","source_stop_id":"STP_000004_045","stop_code":null,"stop_name":"㊳ 小島社会教育館","stop_desc":null,"zone_id":"ZON_000004_045","location_type":0,"parent_station":null,"wheelchair_boarding":null}},{"type":"Feature","id":"F022:STP_000004_046","geometry":{"type":"Point","coordinates":[139.781893,35.7073]},"properties":{"id":"F022:STP_000004_046","feed_id":"F022","feed_slug":"taito-megurin","municipality":"台東区","service_name":"めぐりん","license":"CC BY 4.0","source_stop_id":"STP_000004_046","stop_code":null,"stop_name":"㊴ 新御徒町駅","stop_desc":null,"zone_id":"ZON_000004_046","location_type":0,"parent_station":null,"wheelchair_boarding":null}},{"type":"Feature","id":"F022:STP_000004_047","geometry":{"type":"Point","coordinates":[139.780265,35.709695]},"properties":{"id":"F022:STP_000004_047","feed_id":"F022","feed_slug":"taito-megurin","municipality":"台東区","service_name":"めぐりん","license":"CC BY 4.0","source_stop_id":"STP_000004_047","stop_code":null,"stop_name":"㊵ 永寿総合病院東","stop_desc":null,"zone_id":"ZON_000004_047","location_type":0,"parent_station":null,"wheelchair_boarding":null}}]}
