{"type":"FeatureCollection","name":"higashimurayama-green-bus_routes","features":[{"type":"Feature","id":"F015:東村山駅東口発～多摩北部医療センター行:fallback-unknown","geometry":{"type":"LineString","coordinates":[[139.466216,35.76111],[139.467812,35.760774],[139.468725,35.759415],[139.468709,35.75786],[139.467965,35.754545],[139.469333,35.75513],[139.47053,35.757411],[139.471129,35.759224],[139.474214,35.759743],[139.476356,35.760105],[139.480058,35.760804],[139.482514,35.761254],[139.484387,35.761749],[139.48611,35.76283],[139.487314,35.761721],[139.4889,35.760255],[139.492641,35.7607]]},"properties":{"id":"F015:東村山駅東口発～多摩北部医療センター行:fallback-unknown","feed_id":"F015","feed_slug":"higashimurayama-green-bus","municipality":"東村山市","service_name":"グリーンバス","license":"CC BY 4.0","source_route_id":"東村山駅東口発～多摩北部医療センター行","route_short_name":null,"route_long_name":"東村山駅東口発～多摩北部医療センター行","route_desc":null,"route_type":3,"route_url":null,"route_color":null,"route_text_color":null,"directions":[],"geometry_source":"stop_times.txt fallback"}},{"type":"Feature","id":"F015:東村山駅東口発～新秋津駅行:fallback-unknown","geometry":{"type":"LineString","coordinates":[[139.466216,35.76111],[139.467812,35.760774],[139.468725,35.759415],[139.468709,35.75786],[139.467965,35.754545],[139.469333,35.75513],[139.47053,35.757411],[139.471129,35.759224],[139.474214,35.759743],[139.476356,35.760105],[139.480058,35.760804],[139.482514,35.761254],[139.484387,35.761749],[139.48611,35.76283],[139.487314,35.761721],[139.4889,35.760255],[139.492641,35.7607],[139.491842,35.761466],[139.492236,35.763754],[139.490404,35.765074],[139.489131,35.765706],[139.48646,35.766842],[139.485484,35.767605],[139.486218,35.771001],[139.483301,35.772708],[139.485643,35.775092],[139.490306,35.776902],[139.492925,35.777566]]},"properties":{"id":"F015:東村山駅東口発～新秋津駅行:fallback-unknown","feed_id":"F015","feed_slug":"higashimurayama-green-bus","municipality":"東村山市","service_name":"グリーンバス","license":"CC BY 4.0","source_route_id":"東村山駅東口発～新秋津駅行","route_short_name":null,"route_long_name":"東村山駅東口発～新秋津駅行","route_desc":null,"route_type":3,"route_url":null,"route_color":null,"route_text_color":null,"directions":[],"geometry_source":"stop_times.txt fallback"}},{"type":"Feature","id":"F015:多摩北部医療センター発～東村山駅東口行:fallback-unknown","geometry":{"type":"LineString","coordinates":[[139.492641,35.7607],[139.491842,35.761466],[139.488689,35.760376],[139.487445,35.761525],[139.485862,35.762988],[139.484193,35.761617],[139.482305,35.761149],[139.480407,35.760799],[139.476762,35.760122],[139.474003,35.759652],[139.471973,35.759314],[139.470869,35.75697],[139.469689,35.755113],[139.467965,35.754545],[139.46881,35.757666],[139.468664,35.759156],[139.468312,35.760867],[139.466216,35.76111]]},"properties":{"id":"F015:多摩北部医療センター発～東村山駅東口行:fallback-unknown","feed_id":"F015","feed_slug":"higashimurayama-green-bus","municipality":"東村山市","service_name":"グリーンバス","license":"CC BY 4.0","source_route_id":"多摩北部医療センター発～東村山駅東口行","route_short_name":null,"route_long_name":"多摩北部医療センター発～東村山駅東口行","route_desc":null,"route_type":3,"route_url":null,"route_color":null,"route_text_color":null,"directions":[],"geometry_source":"stop_times.txt fallback"}},{"type":"Feature","id":"F015:新秋津駅発～東村山駅東口行:fallback-unknown","geometry":{"type":"LineString","coordinates":[[139.492925,35.777566],[139.491079,35.776936],[139.48655,35.775504],[139.483131,35.773263],[139.486195,35.770688],[139.485838,35.76827],[139.486295,35.766838],[139.488211,35.765982],[139.490203,35.765233],[139.491812,35.764133],[139.492641,35.7607],[139.491842,35.761466],[139.488689,35.760376],[139.487445,35.761525],[139.485862,35.762988],[139.484193,35.761617],[139.482305,35.761149],[139.480407,35.760799],[139.476762,35.760122],[139.474003,35.759652],[139.471973,35.759314],[139.470869,35.75697],[139.469689,35.755113],[139.467965,35.754545],[139.46881,35.757666],[139.468664,35.759156],[139.468312,35.760867],[139.466216,35.76111]]},"properties":{"id":"F015:新秋津駅発～東村山駅東口行:fallback-unknown","feed_id":"F015","feed_slug":"higashimurayama-green-bus","municipality":"東村山市","service_name":"グリーンバス","license":"CC BY 4.0","source_route_id":"新秋津駅発～東村山駅東口行","route_short_name":null,"route_long_name":"新秋津駅発～東村山駅東口行","route_desc":null,"route_type":3,"route_url":null,"route_color":null,"route_text_color":null,"directions":[],"geometry_source":"stop_times.txt fallback"}},{"type":"Feature","id":"F015:久米川町循環:fallback-unknown","geometry":{"type":"LineString","coordinates":[[139.466639,35.760951],[139.469388,35.764807],[139.472321,35.768881],[139.474407,35.770881],[139.476033,35.771482],[139.477367,35.772793],[139.476739,35.774204],[139.475056,35.774124],[139.473312,35.771152],[139.472369,35.768773],[139.474148,35.76757],[139.475732,35.766214],[139.477296,35.763003],[139.47739,35.760798],[139.471813,35.760765],[139.468312,35.760867],[139.466639,35.760951]]},"properties":{"id":"F015:久米川町循環:fallback-unknown","feed_id":"F015","feed_slug":"higashimurayama-green-bus","municipality":"東村山市","service_name":"グリーンバス","license":"CC BY 4.0","source_route_id":"久米川町循環","route_short_name":null,"route_long_name":"久米川町循環","route_desc":null,"route_type":3,"route_url":null,"route_color":null,"route_text_color":null,"directions":[],"geometry_source":"stop_times.txt fallback"}},{"type":"Feature","id":"F015:諏訪町循環:fallback-unknown","geometry":{"type":"LineString","coordinates":[[139.465456,35.761032],[139.466542,35.766189],[139.468007,35.770185],[139.461781,35.770029],[139.464018,35.770908],[139.466221,35.771702],[139.467633,35.772988],[139.469214,35.773207],[139.471491,35.772652],[139.470056,35.770241],[139.468525,35.769512],[139.467335,35.767359],[139.466406,35.765618],[139.465456,35.761032]]},"properties":{"id":"F015:諏訪町循環:fallback-unknown","feed_id":"F015","feed_slug":"higashimurayama-green-bus","municipality":"東村山市","service_name":"グリーンバス","license":"CC BY 4.0","source_route_id":"諏訪町循環","route_short_name":null,"route_long_name":"諏訪町循環","route_desc":null,"route_type":3,"route_url":null,"route_color":null,"route_text_color":null,"directions":[],"geometry_source":"stop_times.txt fallback"}},{"type":"Feature","id":"F015:東村山駅西口発～久米川駅南口行:fallback-unknown","geometry":{"type":"LineString","coordinates":[[139.465456,35.761032],[139.464379,35.758739],[139.462057,35.757273],[139.459431,35.756205],[139.456406,35.755014],[139.454264,35.75423],[139.451691,35.752575],[139.448773,35.752883],[139.449286,35.750318],[139.460877,35.7498],[139.463005,35.748533],[139.471732,35.74983]]},"properties":{"id":"F015:東村山駅西口発～久米川駅南口行:fallback-unknown","feed_id":"F015","feed_slug":"higashimurayama-green-bus","municipality":"東村山市","service_name":"グリーンバス","license":"CC BY 4.0","source_route_id":"東村山駅西口発～久米川駅南口行","route_short_name":null,"route_long_name":"東村山駅西口発～久米川駅南口行","route_desc":null,"route_type":3,"route_url":null,"route_color":null,"route_text_color":null,"directions":[],"geometry_source":"stop_times.txt fallback"}},{"type":"Feature","id":"F015:久米川駅南口発～東村山駅西口行:fallback-unknown","geometry":{"type":"LineString","coordinates":[[139.471374,35.749776],[139.463442,35.748494],[139.460727,35.750082],[139.449412,35.7498],[139.448424,35.75246],[139.451667,35.752808],[139.454037,35.75354],[139.456834,35.755219],[139.459098,35.756142],[139.461439,35.757086],[139.464404,35.758423],[139.465456,35.761032]]},"properties":{"id":"F015:久米川駅南口発～東村山駅西口行:fallback-unknown","feed_id":"F015","feed_slug":"higashimurayama-green-bus","municipality":"東村山市","service_name":"グリーンバス","license":"CC BY 4.0","source_route_id":"久米川駅南口発～東村山駅西口行","route_short_name":null,"route_long_name":"久米川駅南口発～東村山駅西口行","route_desc":null,"route_type":3,"route_url":null,"route_color":null,"route_text_color":null,"directions":[],"geometry_source":"stop_times.txt fallback"}}]}
