{"type":"FeatureCollection","name":"higashimurayama-green-bus_stops","features":[{"type":"Feature","id":"F015:1_1","geometry":{"type":"Point","coordinates":[139.466216,35.76111]},"properties":{"id":"F015:1_1","feed_id":"F015","feed_slug":"higashimurayama-green-bus","municipality":"東村山市","service_name":"グリーンバス","license":"CC BY 4.0","source_stop_id":"1_1","stop_code":null,"stop_name":"東村山駅東口","stop_desc":null,"zone_id":"1_1","location_type":0,"parent_station":null,"wheelchair_boarding":null}},{"type":"Feature","id":"F015:1_2","geometry":{"type":"Point","coordinates":[139.466639,35.760951]},"properties":{"id":"F015:1_2","feed_id":"F015","feed_slug":"higashimurayama-green-bus","municipality":"東村山市","service_name":"グリーンバス","license":"CC BY 4.0","source_stop_id":"1_2","stop_code":null,"stop_name":"東村山駅東口","stop_desc":null,"zone_id":"1_2","location_type":0,"parent_station":null,"wheelchair_boarding":null}},{"type":"Feature","id":"F015:2_1","geometry":{"type":"Point","coordinates":[139.468312,35.760867]},"properties":{"id":"F015:2_1","feed_id":"F015","feed_slug":"higashimurayama-green-bus","municipality":"東村山市","service_name":"グリーンバス","license":"CC BY 4.0","source_stop_id":"2_1","stop_code":null,"stop_name":"桜並木","stop_desc":null,"zone_id":"2_1","location_type":0,"parent_station":null,"wheelchair_boarding":null}},{"type":"Feature","id":"F015:2_2","geometry":{"type":"Point","coordinates":[139.467812,35.760774]},"properties":{"id":"F015:2_2","feed_id":"F015","feed_slug":"higashimurayama-green-bus","municipality":"東村山市","service_name":"グリーンバス","license":"CC BY 4.0","source_stop_id":"2_2","stop_code":null,"stop_name":"桜並木","stop_desc":null,"zone_id":"2_2","location_type":0,"parent_station":null,"wheelchair_boarding":null}},{"type":"Feature","id":"F015:3_1","geometry":{"type":"Point","coordinates":[139.468725,35.759415]},"properties":{"id":"F015:3_1","feed_id":"F015","feed_slug":"higashimurayama-green-bus","municipality":"東村山市","service_name":"グリーンバス","license":"CC BY 4.0","source_stop_id":"3_1","stop_code":null,"stop_name":"本町二丁目","stop_desc":null,"zone_id":"3_1","location_type":0,"parent_station":null,"wheelchair_boarding":null}},{"type":"Feature","id":"F015:3_2","geometry":{"type":"Point","coordinates":[139.468664,35.759156]},"properties":{"id":"F015:3_2","feed_id":"F015","feed_slug":"higashimurayama-green-bus","municipality":"東村山市","service_name":"グリーンバス","license":"CC BY 4.0","source_stop_id":"3_2","stop_code":null,"stop_name":"本町二丁目","stop_desc":null,"zone_id":"3_2","location_type":0,"parent_station":null,"wheelchair_boarding":null}},{"type":"Feature","id":"F015:4_1","geometry":{"type":"Point","coordinates":[139.46881,35.757666]},"properties":{"id":"F015:4_1","feed_id":"F015","feed_slug":"higashimurayama-green-bus","municipality":"東村山市","service_name":"グリーンバス","license":"CC BY 4.0","source_stop_id":"4_1","stop_code":null,"stop_name":"東村山税務署","stop_desc":null,"zone_id":"4_1","location_type":0,"parent_station":null,"wheelchair_boarding":null}},{"type":"Feature","id":"F015:4_2","geometry":{"type":"Point","coordinates":[139.468709,35.75786]},"properties":{"id":"F015:4_2","feed_id":"F015","feed_slug":"higashimurayama-green-bus","municipality":"東村山市","service_name":"グリーンバス","license":"CC BY 4.0","source_stop_id":"4_2","stop_code":null,"stop_name":"東村山税務署","stop_desc":null,"zone_id":"4_2","location_type":0,"parent_station":null,"wheelchair_boarding":null}},{"type":"Feature","id":"F015:5_1","geometry":{"type":"Point","coordinates":[139.467965,35.754545]},"properties":{"id":"F015:5_1","feed_id":"F015","feed_slug":"higashimurayama-green-bus","municipality":"東村山市","service_name":"グリーンバス","license":"CC BY 4.0","source_stop_id":"5_1","stop_code":null,"stop_name":"東村山市役所","stop_desc":null,"zone_id":"5_1","location_type":0,"parent_station":null,"wheelchair_boarding":null}},{"type":"Feature","id":"F015:6_1","geometry":{"type":"Point","coordinates":[139.469333,35.75513]},"properties":{"id":"F015:6_1","feed_id":"F015","feed_slug":"higashimurayama-green-bus","municipality":"東村山市","service_name":"グリーンバス","license":"CC BY 4.0","source_stop_id":"6_1","stop_code":null,"stop_name":"市役所入口・久米川病院前","stop_desc":null,"zone_id":"6_1","location_type":0,"parent_station":null,"wheelchair_boarding":null}},{"type":"Feature","id":"F015:6_2","geometry":{"type":"Point","coordinates":[139.469689,35.755113]},"properties":{"id":"F015:6_2","feed_id":"F015","feed_slug":"higashimurayama-green-bus","municipality":"東村山市","service_name":"グリーンバス","license":"CC BY 4.0","source_stop_id":"6_2","stop_code":null,"stop_name":"市役所入口・久米川病院前","stop_desc":null,"zone_id":"6_2","location_type":0,"parent_station":null,"wheelchair_boarding":null}},{"type":"Feature","id":"F015:7_1","geometry":{"type":"Point","coordinates":[139.47053,35.757411]},"properties":{"id":"F015:7_1","feed_id":"F015","feed_slug":"higashimurayama-green-bus","municipality":"東村山市","service_name":"グリーンバス","license":"CC BY 4.0","source_stop_id":"7_1","stop_code":null,"stop_name":"むさしのアイタウン中央","stop_desc":null,"zone_id":"7_1","location_type":0,"parent_station":null,"wheelchair_boarding":null}},{"type":"Feature","id":"F015:7_2","geometry":{"type":"Point","coordinates":[139.470869,35.75697]},"properties":{"id":"F015:7_2","feed_id":"F015","feed_slug":"higashimurayama-green-bus","municipality":"東村山市","service_name":"グリーンバス","license":"CC BY 4.0","source_stop_id":"7_2","stop_code":null,"stop_name":"むさしのアイタウン中央","stop_desc":null,"zone_id":"7_2","location_type":0,"parent_station":null,"wheelchair_boarding":null}},{"type":"Feature","id":"F015:8_1","geometry":{"type":"Point","coordinates":[139.471129,35.759224]},"properties":{"id":"F015:8_1","feed_id":"F015","feed_slug":"higashimurayama-green-bus","municipality":"東村山市","service_name":"グリーンバス","license":"CC BY 4.0","source_stop_id":"8_1","stop_code":null,"stop_name":"本町三丁目","stop_desc":null,"zone_id":"8_1","location_type":0,"parent_station":null,"wheelchair_boarding":null}},{"type":"Feature","id":"F015:8_2","geometry":{"type":"Point","coordinates":[139.471973,35.759314]},"properties":{"id":"F015:8_2","feed_id":"F015","feed_slug":"higashimurayama-green-bus","municipality":"東村山市","service_name":"グリーンバス","license":"CC BY 4.0","source_stop_id":"8_2","stop_code":null,"stop_name":"本町三丁目","stop_desc":null,"zone_id":"8_2","location_type":0,"parent_station":null,"wheelchair_boarding":null}},{"type":"Feature","id":"F015:9_1","geometry":{"type":"Point","coordinates":[139.474214,35.759743]},"properties":{"id":"F015:9_1","feed_id":"F015","feed_slug":"higashimurayama-green-bus","municipality":"東村山市","service_name":"グリーンバス","license":"CC BY 4.0","source_stop_id":"9_1","stop_code":null,"stop_name":"鷹の道中央","stop_desc":null,"zone_id":"9_1","location_type":0,"parent_station":null,"wheelchair_boarding":null}},{"type":"Feature","id":"F015:9_2","geometry":{"type":"Point","coordinates":[139.474003,35.759652]},"properties":{"id":"F015:9_2","feed_id":"F015","feed_slug":"higashimurayama-green-bus","municipality":"東村山市","service_name":"グリーンバス","license":"CC BY 4.0","source_stop_id":"9_2","stop_code":null,"stop_name":"鷹の道中央","stop_desc":null,"zone_id":"9_2","location_type":0,"parent_station":null,"wheelchair_boarding":null}},{"type":"Feature","id":"F015:10_1","geometry":{"type":"Point","coordinates":[139.476356,35.760105]},"properties":{"id":"F015:10_1","feed_id":"F015","feed_slug":"higashimurayama-green-bus","municipality":"東村山市","service_name":"グリーンバス","license":"CC BY 4.0","source_stop_id":"10_1","stop_code":null,"stop_name":"都立東村山高校","stop_desc":null,"zone_id":"10_1","location_type":0,"parent_station":null,"wheelchair_boarding":null}},{"type":"Feature","id":"F015:11_1","geometry":{"type":"Point","coordinates":[139.476762,35.760122]},"properties":{"id":"F015:11_1","feed_id":"F015","feed_slug":"higashimurayama-green-bus","municipality":"東村山市","service_name":"グリーンバス","license":"CC BY 4.0","source_stop_id":"11_1","stop_code":null,"stop_name":"都立東村山高校","stop_desc":null,"zone_id":"11_1","location_type":0,"parent_station":null,"wheelchair_boarding":null}},{"type":"Feature","id":"F015:12_1","geometry":{"type":"Point","coordinates":[139.480058,35.760804]},"properties":{"id":"F015:12_1","feed_id":"F015","feed_slug":"higashimurayama-green-bus","municipality":"東村山市","service_name":"グリーンバス","license":"CC BY 4.0","source_stop_id":"12_1","stop_code":null,"stop_name":"スポーツセンター","stop_desc":null,"zone_id":"12_1","location_type":0,"parent_station":null,"wheelchair_boarding":null}},{"type":"Feature","id":"F015:12_2","geometry":{"type":"Point","coordinates":[139.480407,35.760799]},"properties":{"id":"F015:12_2","feed_id":"F015","feed_slug":"higashimurayama-green-bus","municipality":"東村山市","service_name":"グリーンバス","license":"CC BY 4.0","source_stop_id":"12_2","stop_code":null,"stop_name":"スポーツセンター","stop_desc":null,"zone_id":"12_2","location_type":0,"parent_station":null,"wheelchair_boarding":null}},{"type":"Feature","id":"F015:13_1","geometry":{"type":"Point","coordinates":[139.482514,35.761254]},"properties":{"id":"F015:13_1","feed_id":"F015","feed_slug":"higashimurayama-green-bus","municipality":"東村山市","service_name":"グリーンバス","license":"CC BY 4.0","source_stop_id":"13_1","stop_code":null,"stop_name":"恩田町四丁目","stop_desc":null,"zone_id":"13_1","location_type":0,"parent_station":null,"wheelchair_boarding":null}},{"type":"Feature","id":"F015:14_1","geometry":{"type":"Point","coordinates":[139.482305,35.761149]},"properties":{"id":"F015:14_1","feed_id":"F015","feed_slug":"higashimurayama-green-bus","municipality":"東村山市","service_name":"グリーンバス","license":"CC BY 4.0","source_stop_id":"14_1","stop_code":null,"stop_name":"恩多町四丁目","stop_desc":null,"zone_id":"14_1","location_type":0,"parent_station":null,"wheelchair_boarding":null}},{"type":"Feature","id":"F015:15_1","geometry":{"type":"Point","coordinates":[139.484387,35.761749]},"properties":{"id":"F015:15_1","feed_id":"F015","feed_slug":"higashimurayama-green-bus","municipality":"東村山市","service_name":"グリーンバス","license":"CC BY 4.0","source_stop_id":"15_1","stop_code":null,"stop_name":"鷹の道入口","stop_desc":null,"zone_id":"15_1","location_type":0,"parent_station":null,"wheelchair_boarding":null}},{"type":"Feature","id":"F015:15_2","geometry":{"type":"Point","coordinates":[139.484193,35.761617]},"properties":{"id":"F015:15_2","feed_id":"F015","feed_slug":"higashimurayama-green-bus","municipality":"東村山市","service_name":"グリーンバス","license":"CC BY 4.0","source_stop_id":"15_2","stop_code":null,"stop_name":"鷹の道入口","stop_desc":null,"zone_id":"15_2","location_type":0,"parent_station":null,"wheelchair_boarding":null}},{"type":"Feature","id":"F015:16_1","geometry":{"type":"Point","coordinates":[139.48611,35.76283]},"properties":{"id":"F015:16_1","feed_id":"F015","feed_slug":"higashimurayama-green-bus","municipality":"東村山市","service_name":"グリーンバス","license":"CC BY 4.0","source_stop_id":"16_1","stop_code":null,"stop_name":"青葉商店街北","stop_desc":null,"zone_id":"16_1","location_type":0,"parent_station":null,"wheelchair_boarding":null}},{"type":"Feature","id":"F015:16_2","geometry":{"type":"Point","coordinates":[139.485862,35.762988]},"properties":{"id":"F015:16_2","feed_id":"F015","feed_slug":"higashimurayama-green-bus","municipality":"東村山市","service_name":"グリーンバス","license":"CC BY 4.0","source_stop_id":"16_2","stop_code":null,"stop_name":"青葉商店街北","stop_desc":null,"zone_id":"16_2","location_type":0,"parent_station":null,"wheelchair_boarding":null}},{"type":"Feature","id":"F015:17_1","geometry":{"type":"Point","coordinates":[139.487314,35.761721]},"properties":{"id":"F015:17_1","feed_id":"F015","feed_slug":"higashimurayama-green-bus","municipality":"東村山市","service_name":"グリーンバス","license":"CC BY 4.0","source_stop_id":"17_1","stop_code":null,"stop_name":"青葉商店街中央","stop_desc":null,"zone_id":"17_1","location_type":0,"parent_station":null,"wheelchair_boarding":null}},{"type":"Feature","id":"F015:17_2","geometry":{"type":"Point","coordinates":[139.487445,35.761525]},"properties":{"id":"F015:17_2","feed_id":"F015","feed_slug":"higashimurayama-green-bus","municipality":"東村山市","service_name":"グリーンバス","license":"CC BY 4.0","source_stop_id":"17_2","stop_code":null,"stop_name":"青葉商店街中央","stop_desc":null,"zone_id":"17_2","location_type":0,"parent_station":null,"wheelchair_boarding":null}},{"type":"Feature","id":"F015:18_1","geometry":{"type":"Point","coordinates":[139.4889,35.760255]},"properties":{"id":"F015:18_1","feed_id":"F015","feed_slug":"higashimurayama-green-bus","municipality":"東村山市","service_name":"グリーンバス","license":"CC BY 4.0","source_stop_id":"18_1","stop_code":null,"stop_name":"青葉商店街南","stop_desc":null,"zone_id":"18_1","location_type":0,"parent_station":null,"wheelchair_boarding":null}},{"type":"Feature","id":"F015:18_2","geometry":{"type":"Point","coordinates":[139.488689,35.760376]},"properties":{"id":"F015:18_2","feed_id":"F015","feed_slug":"higashimurayama-green-bus","municipality":"東村山市","service_name":"グリーンバス","license":"CC BY 4.0","source_stop_id":"18_2","stop_code":null,"stop_name":"青葉商店街南","stop_desc":null,"zone_id":"18_2","location_type":0,"parent_station":null,"wheelchair_boarding":null}},{"type":"Feature","id":"F015:19_1","geometry":{"type":"Point","coordinates":[139.491842,35.761466]},"properties":{"id":"F015:19_1","feed_id":"F015","feed_slug":"higashimurayama-green-bus","municipality":"東村山市","service_name":"グリーンバス","license":"CC BY 4.0","source_stop_id":"19_1","stop_code":null,"stop_name":"医療センター入口","stop_desc":null,"zone_id":"19_1","location_type":0,"parent_station":null,"wheelchair_boarding":null}},{"type":"Feature","id":"F015:20_1","geometry":{"type":"Point","coordinates":[139.492641,35.7607]},"properties":{"id":"F015:20_1","feed_id":"F015","feed_slug":"higashimurayama-green-bus","municipality":"東村山市","service_name":"グリーンバス","license":"CC BY 4.0","source_stop_id":"20_1","stop_code":null,"stop_name":"多摩北部医療センター","stop_desc":null,"zone_id":"20_1","location_type":0,"parent_station":null,"wheelchair_boarding":null}},{"type":"Feature","id":"F015:21_1","geometry":{"type":"Point","coordinates":[139.465456,35.761032]},"properties":{"id":"F015:21_1","feed_id":"F015","feed_slug":"higashimurayama-green-bus","municipality":"東村山市","service_name":"グリーンバス","license":"CC BY 4.0","source_stop_id":"21_1","stop_code":null,"stop_name":"東村山駅西口","stop_desc":null,"zone_id":"21_1","location_type":0,"parent_station":null,"wheelchair_boarding":null}},{"type":"Feature","id":"F015:22_1","geometry":{"type":"Point","coordinates":[139.466542,35.766189]},"properties":{"id":"F015:22_1","feed_id":"F015","feed_slug":"higashimurayama-green-bus","municipality":"東村山市","service_name":"グリーンバス","license":"CC BY 4.0","source_stop_id":"22_1","stop_code":null,"stop_name":"ふるさと歴史館","stop_desc":null,"zone_id":"22_1","location_type":0,"parent_station":null,"wheelchair_boarding":null}},{"type":"Feature","id":"F015:23_1","geometry":{"type":"Point","coordinates":[139.466406,35.765618]},"properties":{"id":"F015:23_1","feed_id":"F015","feed_slug":"higashimurayama-green-bus","municipality":"東村山市","service_name":"グリーンバス","license":"CC BY 4.0","source_stop_id":"23_1","stop_code":null,"stop_name":"社会福祉センター","stop_desc":null,"zone_id":"23_1","location_type":0,"parent_station":null,"wheelchair_boarding":null}},{"type":"Feature","id":"F015:24_1","geometry":{"type":"Point","coordinates":[139.467335,35.767359]},"properties":{"id":"F015:24_1","feed_id":"F015","feed_slug":"higashimurayama-green-bus","municipality":"東村山市","service_name":"グリーンバス","license":"CC BY 4.0","source_stop_id":"24_1","stop_code":null,"stop_name":"西宿通り中央","stop_desc":null,"zone_id":"24_1","location_type":0,"parent_station":null,"wheelchair_boarding":null}},{"type":"Feature","id":"F015:25_1","geometry":{"type":"Point","coordinates":[139.468525,35.769512]},"properties":{"id":"F015:25_1","feed_id":"F015","feed_slug":"higashimurayama-green-bus","municipality":"東村山市","service_name":"グリーンバス","license":"CC BY 4.0","source_stop_id":"25_1","stop_code":null,"stop_name":"西宿通り北","stop_desc":null,"zone_id":"25_1","location_type":0,"parent_station":null,"wheelchair_boarding":null}},{"type":"Feature","id":"F015:26_1","geometry":{"type":"Point","coordinates":[139.468007,35.770185]},"properties":{"id":"F015:26_1","feed_id":"F015","feed_slug":"higashimurayama-green-bus","municipality":"東村山市","service_name":"グリーンバス","license":"CC BY 4.0","source_stop_id":"26_1","stop_code":null,"stop_name":"徳蔵寺","stop_desc":null,"zone_id":"26_1","location_type":0,"parent_station":null,"wheelchair_boarding":null}},{"type":"Feature","id":"F015:27_1","geometry":{"type":"Point","coordinates":[139.466221,35.771702]},"properties":{"id":"F015:27_1","feed_id":"F015","feed_slug":"higashimurayama-green-bus","municipality":"東村山市","service_name":"グリーンバス","license":"CC BY 4.0","source_stop_id":"27_1","stop_code":null,"stop_name":"諏訪町二丁目","stop_desc":null,"zone_id":"27_1","location_type":0,"parent_station":null,"wheelchair_boarding":null}},{"type":"Feature","id":"F015:28_1","geometry":{"type":"Point","coordinates":[139.464018,35.770908]},"properties":{"id":"F015:28_1","feed_id":"F015","feed_slug":"higashimurayama-green-bus","municipality":"東村山市","service_name":"グリーンバス","license":"CC BY 4.0","source_stop_id":"28_1","stop_code":null,"stop_name":"白十字病院","stop_desc":null,"zone_id":"28_1","location_type":0,"parent_station":null,"wheelchair_boarding":null}},{"type":"Feature","id":"F015:29_1","geometry":{"type":"Point","coordinates":[139.461781,35.770029]},"properties":{"id":"F015:29_1","feed_id":"F015","feed_slug":"higashimurayama-green-bus","municipality":"東村山市","service_name":"グリーンバス","license":"CC BY 4.0","source_stop_id":"29_1","stop_code":null,"stop_name":"新山手病院","stop_desc":null,"zone_id":"29_1","location_type":0,"parent_station":null,"wheelchair_boarding":null}},{"type":"Feature","id":"F015:30_1","geometry":{"type":"Point","coordinates":[139.467633,35.772988]},"properties":{"id":"F015:30_1","feed_id":"F015","feed_slug":"higashimurayama-green-bus","municipality":"東村山市","service_name":"グリーンバス","license":"CC BY 4.0","source_stop_id":"30_1","stop_code":null,"stop_name":"西宿公園","stop_desc":null,"zone_id":"30_1","location_type":0,"parent_station":null,"wheelchair_boarding":null}},{"type":"Feature","id":"F015:31_1","geometry":{"type":"Point","coordinates":[139.469214,35.773207]},"properties":{"id":"F015:31_1","feed_id":"F015","feed_slug":"higashimurayama-green-bus","municipality":"東村山市","service_name":"グリーンバス","license":"CC BY 4.0","source_stop_id":"31_1","stop_code":null,"stop_name":"北山緑道入口","stop_desc":null,"zone_id":"31_1","location_type":0,"parent_station":null,"wheelchair_boarding":null}},{"type":"Feature","id":"F015:32_1","geometry":{"type":"Point","coordinates":[139.471491,35.772652]},"properties":{"id":"F015:32_1","feed_id":"F015","feed_slug":"higashimurayama-green-bus","municipality":"東村山市","service_name":"グリーンバス","license":"CC BY 4.0","source_stop_id":"32_1","stop_code":null,"stop_name":"公事道北","stop_desc":null,"zone_id":"32_1","location_type":0,"parent_station":null,"wheelchair_boarding":null}},{"type":"Feature","id":"F015:33_1","geometry":{"type":"Point","coordinates":[139.470056,35.770241]},"properties":{"id":"F015:33_1","feed_id":"F015","feed_slug":"higashimurayama-green-bus","municipality":"東村山市","service_name":"グリーンバス","license":"CC BY 4.0","source_stop_id":"33_1","stop_code":null,"stop_name":"公事道南","stop_desc":null,"zone_id":"33_1","location_type":0,"parent_station":null,"wheelchair_boarding":null}},{"type":"Feature","id":"F015:34_1","geometry":{"type":"Point","coordinates":[139.464379,35.758739]},"properties":{"id":"F015:34_1","feed_id":"F015","feed_slug":"higashimurayama-green-bus","municipality":"東村山市","service_name":"グリーンバス","license":"CC BY 4.0","source_stop_id":"34_1","stop_code":null,"stop_name":"地域福祉センター","stop_desc":null,"zone_id":"34_1","location_type":0,"parent_station":null,"wheelchair_boarding":null}},{"type":"Feature","id":"F015:34_2","geometry":{"type":"Point","coordinates":[139.464404,35.758423]},"properties":{"id":"F015:34_2","feed_id":"F015","feed_slug":"higashimurayama-green-bus","municipality":"東村山市","service_name":"グリーンバス","license":"CC BY 4.0","source_stop_id":"34_2","stop_code":null,"stop_name":"地域福祉センター","stop_desc":null,"zone_id":"34_2","location_type":0,"parent_station":null,"wheelchair_boarding":null}},{"type":"Feature","id":"F015:35_1","geometry":{"type":"Point","coordinates":[139.462057,35.757273]},"properties":{"id":"F015:35_1","feed_id":"F015","feed_slug":"higashimurayama-green-bus","municipality":"東村山市","service_name":"グリーンバス","license":"CC BY 4.0","source_stop_id":"35_1","stop_code":null,"stop_name":"夢ハウス","stop_desc":null,"zone_id":"35_1","location_type":0,"parent_station":null,"wheelchair_boarding":null}},{"type":"Feature","id":"F015:35_2","geometry":{"type":"Point","coordinates":[139.461439,35.757086]},"properties":{"id":"F015:35_2","feed_id":"F015","feed_slug":"higashimurayama-green-bus","municipality":"東村山市","service_name":"グリーンバス","license":"CC BY 4.0","source_stop_id":"35_2","stop_code":null,"stop_name":"夢ハウス","stop_desc":null,"zone_id":"35_2","location_type":0,"parent_station":null,"wheelchair_boarding":null}},{"type":"Feature","id":"F015:36_1","geometry":{"type":"Point","coordinates":[139.459431,35.756205]},"properties":{"id":"F015:36_1","feed_id":"F015","feed_slug":"higashimurayama-green-bus","municipality":"東村山市","service_name":"グリーンバス","license":"CC BY 4.0","source_stop_id":"36_1","stop_code":null,"stop_name":"第七中学校前","stop_desc":null,"zone_id":"36_1","location_type":0,"parent_station":null,"wheelchair_boarding":null}},{"type":"Feature","id":"F015:36_2","geometry":{"type":"Point","coordinates":[139.459098,35.756142]},"properties":{"id":"F015:36_2","feed_id":"F015","feed_slug":"higashimurayama-green-bus","municipality":"東村山市","service_name":"グリーンバス","license":"CC BY 4.0","source_stop_id":"36_2","stop_code":null,"stop_name":"第七中学校前","stop_desc":null,"zone_id":"36_2","location_type":0,"parent_station":null,"wheelchair_boarding":null}},{"type":"Feature","id":"F015:37_1","geometry":{"type":"Point","coordinates":[139.456406,35.755014]},"properties":{"id":"F015:37_1","feed_id":"F015","feed_slug":"higashimurayama-green-bus","municipality":"東村山市","service_name":"グリーンバス","license":"CC BY 4.0","source_stop_id":"37_1","stop_code":null,"stop_name":"浄水場北","stop_desc":null,"zone_id":"37_1","location_type":0,"parent_station":null,"wheelchair_boarding":null}},{"type":"Feature","id":"F015:37_2","geometry":{"type":"Point","coordinates":[139.456834,35.755219]},"properties":{"id":"F015:37_2","feed_id":"F015","feed_slug":"higashimurayama-green-bus","municipality":"東村山市","service_name":"グリーンバス","license":"CC BY 4.0","source_stop_id":"37_2","stop_code":null,"stop_name":"浄水場北","stop_desc":null,"zone_id":"37_2","location_type":0,"parent_station":null,"wheelchair_boarding":null}},{"type":"Feature","id":"F015:38_1","geometry":{"type":"Point","coordinates":[139.454264,35.75423]},"properties":{"id":"F015:38_1","feed_id":"F015","feed_slug":"higashimurayama-green-bus","municipality":"東村山市","service_name":"グリーンバス","license":"CC BY 4.0","source_stop_id":"38_1","stop_code":null,"stop_name":"浄水場西","stop_desc":null,"zone_id":"38_1","location_type":0,"parent_station":null,"wheelchair_boarding":null}},{"type":"Feature","id":"F015:38_2","geometry":{"type":"Point","coordinates":[139.454037,35.75354]},"properties":{"id":"F015:38_2","feed_id":"F015","feed_slug":"higashimurayama-green-bus","municipality":"東村山市","service_name":"グリーンバス","license":"CC BY 4.0","source_stop_id":"38_2","stop_code":null,"stop_name":"浄水場西","stop_desc":null,"zone_id":"38_2","location_type":0,"parent_station":null,"wheelchair_boarding":null}},{"type":"Feature","id":"F015:39_1","geometry":{"type":"Point","coordinates":[139.451691,35.752575]},"properties":{"id":"F015:39_1","feed_id":"F015","feed_slug":"higashimurayama-green-bus","municipality":"東村山市","service_name":"グリーンバス","license":"CC BY 4.0","source_stop_id":"39_1","stop_code":null,"stop_name":"消防署東","stop_desc":null,"zone_id":"39_1","location_type":0,"parent_station":null,"wheelchair_boarding":null}},{"type":"Feature","id":"F015:39_2","geometry":{"type":"Point","coordinates":[139.451667,35.752808]},"properties":{"id":"F015:39_2","feed_id":"F015","feed_slug":"higashimurayama-green-bus","municipality":"東村山市","service_name":"グリーンバス","license":"CC BY 4.0","source_stop_id":"39_2","stop_code":null,"stop_name":"消防署東","stop_desc":null,"zone_id":"39_2","location_type":0,"parent_station":null,"wheelchair_boarding":null}},{"type":"Feature","id":"F015:40_1","geometry":{"type":"Point","coordinates":[139.448424,35.75246]},"properties":{"id":"F015:40_1","feed_id":"F015","feed_slug":"higashimurayama-green-bus","municipality":"東村山市","service_name":"グリーンバス","license":"CC BY 4.0","source_stop_id":"40_1","stop_code":null,"stop_name":"富士見町四丁目北","stop_desc":null,"zone_id":"40_1","location_type":0,"parent_station":null,"wheelchair_boarding":null}},{"type":"Feature","id":"F015:40_2","geometry":{"type":"Point","coordinates":[139.448773,35.752883]},"properties":{"id":"F015:40_2","feed_id":"F015","feed_slug":"higashimurayama-green-bus","municipality":"東村山市","service_name":"グリーンバス","license":"CC BY 4.0","source_stop_id":"40_2","stop_code":null,"stop_name":"富士見町四丁目北","stop_desc":null,"zone_id":"40_2","location_type":0,"parent_station":null,"wheelchair_boarding":null}},{"type":"Feature","id":"F015:41_1","geometry":{"type":"Point","coordinates":[139.449286,35.750318]},"properties":{"id":"F015:41_1","feed_id":"F015","feed_slug":"higashimurayama-green-bus","municipality":"東村山市","service_name":"グリーンバス","license":"CC BY 4.0","source_stop_id":"41_1","stop_code":null,"stop_name":"富士見町四丁目中央","stop_desc":null,"zone_id":"41_1","location_type":0,"parent_station":null,"wheelchair_boarding":null}},{"type":"Feature","id":"F015:41_2","geometry":{"type":"Point","coordinates":[139.449412,35.7498]},"properties":{"id":"F015:41_2","feed_id":"F015","feed_slug":"higashimurayama-green-bus","municipality":"東村山市","service_name":"グリーンバス","license":"CC BY 4.0","source_stop_id":"41_2","stop_code":null,"stop_name":"富士見町四丁目中央","stop_desc":null,"zone_id":"41_2","location_type":0,"parent_station":null,"wheelchair_boarding":null}},{"type":"Feature","id":"F015:42_1","geometry":{"type":"Point","coordinates":[139.460877,35.7498]},"properties":{"id":"F015:42_1","feed_id":"F015","feed_slug":"higashimurayama-green-bus","municipality":"東村山市","service_name":"グリーンバス","license":"CC BY 4.0","source_stop_id":"42_1","stop_code":null,"stop_name":"グリーンタウン西","stop_desc":null,"zone_id":"42_1","location_type":0,"parent_station":null,"wheelchair_boarding":null}},{"type":"Feature","id":"F015:42_2","geometry":{"type":"Point","coordinates":[139.460727,35.750082]},"properties":{"id":"F015:42_2","feed_id":"F015","feed_slug":"higashimurayama-green-bus","municipality":"東村山市","service_name":"グリーンバス","license":"CC BY 4.0","source_stop_id":"42_2","stop_code":null,"stop_name":"グリーンタウン西","stop_desc":null,"zone_id":"42_2","location_type":0,"parent_station":null,"wheelchair_boarding":null}},{"type":"Feature","id":"F015:43_1","geometry":{"type":"Point","coordinates":[139.463005,35.748533]},"properties":{"id":"F015:43_1","feed_id":"F015","feed_slug":"higashimurayama-green-bus","municipality":"東村山市","service_name":"グリーンバス","license":"CC BY 4.0","source_stop_id":"43_1","stop_code":null,"stop_name":"グリーンタウン南","stop_desc":null,"zone_id":"43_1","location_type":0,"parent_station":null,"wheelchair_boarding":null}},{"type":"Feature","id":"F015:43_2","geometry":{"type":"Point","coordinates":[139.463442,35.748494]},"properties":{"id":"F015:43_2","feed_id":"F015","feed_slug":"higashimurayama-green-bus","municipality":"東村山市","service_name":"グリーンバス","license":"CC BY 4.0","source_stop_id":"43_2","stop_code":null,"stop_name":"グリーンタウン南","stop_desc":null,"zone_id":"43_2","location_type":0,"parent_station":null,"wheelchair_boarding":null}},{"type":"Feature","id":"F015:44_1","geometry":{"type":"Point","coordinates":[139.471732,35.74983]},"properties":{"id":"F015:44_1","feed_id":"F015","feed_slug":"higashimurayama-green-bus","municipality":"東村山市","service_name":"グリーンバス","license":"CC BY 4.0","source_stop_id":"44_1","stop_code":null,"stop_name":"久米川駅南口","stop_desc":null,"zone_id":"44_1","location_type":0,"parent_station":null,"wheelchair_boarding":null}},{"type":"Feature","id":"F015:44_2","geometry":{"type":"Point","coordinates":[139.471374,35.749776]},"properties":{"id":"F015:44_2","feed_id":"F015","feed_slug":"higashimurayama-green-bus","municipality":"東村山市","service_name":"グリーンバス","license":"CC BY 4.0","source_stop_id":"44_2","stop_code":null,"stop_name":"久米川駅南口","stop_desc":null,"zone_id":"44_2","location_type":0,"parent_station":null,"wheelchair_boarding":null}},{"type":"Feature","id":"F015:45_1","geometry":{"type":"Point","coordinates":[139.492236,35.763754]},"properties":{"id":"F015:45_1","feed_id":"F015","feed_slug":"higashimurayama-green-bus","municipality":"東村山市","service_name":"グリーンバス","license":"CC BY 4.0","source_stop_id":"45_1","stop_code":null,"stop_name":"青葉通り","stop_desc":null,"zone_id":"45_1","location_type":0,"parent_station":null,"wheelchair_boarding":null}},{"type":"Feature","id":"F015:45_2","geometry":{"type":"Point","coordinates":[139.491812,35.764133]},"properties":{"id":"F015:45_2","feed_id":"F015","feed_slug":"higashimurayama-green-bus","municipality":"東村山市","service_name":"グリーンバス","license":"CC BY 4.0","source_stop_id":"45_2","stop_code":null,"stop_name":"青葉通り","stop_desc":null,"zone_id":"45_2","location_type":0,"parent_station":null,"wheelchair_boarding":null}},{"type":"Feature","id":"F015:46_1","geometry":{"type":"Point","coordinates":[139.490404,35.765074]},"properties":{"id":"F015:46_1","feed_id":"F015","feed_slug":"higashimurayama-green-bus","municipality":"東村山市","service_name":"グリーンバス","license":"CC BY 4.0","source_stop_id":"46_1","stop_code":null,"stop_name":"青葉小学校","stop_desc":null,"zone_id":"46_1","location_type":0,"parent_station":null,"wheelchair_boarding":null}},{"type":"Feature","id":"F015:46_2","geometry":{"type":"Point","coordinates":[139.490203,35.765233]},"properties":{"id":"F015:46_2","feed_id":"F015","feed_slug":"higashimurayama-green-bus","municipality":"東村山市","service_name":"グリーンバス","license":"CC BY 4.0","source_stop_id":"46_2","stop_code":null,"stop_name":"青葉小学校","stop_desc":null,"zone_id":"46_2","location_type":0,"parent_station":null,"wheelchair_boarding":null}},{"type":"Feature","id":"F015:47_1","geometry":{"type":"Point","coordinates":[139.488211,35.765982]},"properties":{"id":"F015:47_1","feed_id":"F015","feed_slug":"higashimurayama-green-bus","municipality":"東村山市","service_name":"グリーンバス","license":"CC BY 4.0","source_stop_id":"47_1","stop_code":null,"stop_name":"青葉町住宅","stop_desc":null,"zone_id":"47_1","location_type":0,"parent_station":null,"wheelchair_boarding":null}},{"type":"Feature","id":"F015:47_2","geometry":{"type":"Point","coordinates":[139.489131,35.765706]},"properties":{"id":"F015:47_2","feed_id":"F015","feed_slug":"higashimurayama-green-bus","municipality":"東村山市","service_name":"グリーンバス","license":"CC BY 4.0","source_stop_id":"47_2","stop_code":null,"stop_name":"青葉町住宅","stop_desc":null,"zone_id":"47_2","location_type":0,"parent_station":null,"wheelchair_boarding":null}},{"type":"Feature","id":"F015:48_1","geometry":{"type":"Point","coordinates":[139.486295,35.766838]},"properties":{"id":"F015:48_1","feed_id":"F015","feed_slug":"higashimurayama-green-bus","municipality":"東村山市","service_name":"グリーンバス","license":"CC BY 4.0","source_stop_id":"48_1","stop_code":null,"stop_name":"久米川町一丁目","stop_desc":null,"zone_id":"48_1","location_type":0,"parent_station":null,"wheelchair_boarding":null}},{"type":"Feature","id":"F015:48_2","geometry":{"type":"Point","coordinates":[139.48646,35.766842]},"properties":{"id":"F015:48_2","feed_id":"F015","feed_slug":"higashimurayama-green-bus","municipality":"東村山市","service_name":"グリーンバス","license":"CC BY 4.0","source_stop_id":"48_2","stop_code":null,"stop_name":"久米川町一丁目","stop_desc":null,"zone_id":"48_2","location_type":0,"parent_station":null,"wheelchair_boarding":null}},{"type":"Feature","id":"F015:49_1","geometry":{"type":"Point","coordinates":[139.485838,35.76827]},"properties":{"id":"F015:49_1","feed_id":"F015","feed_slug":"higashimurayama-green-bus","municipality":"東村山市","service_name":"グリーンバス","license":"CC BY 4.0","source_stop_id":"49_1","stop_code":null,"stop_name":"所沢街道入口","stop_desc":null,"zone_id":"49_1","location_type":0,"parent_station":null,"wheelchair_boarding":null}},{"type":"Feature","id":"F015:49_2","geometry":{"type":"Point","coordinates":[139.485484,35.767605]},"properties":{"id":"F015:49_2","feed_id":"F015","feed_slug":"higashimurayama-green-bus","municipality":"東村山市","service_name":"グリーンバス","license":"CC BY 4.0","source_stop_id":"49_2","stop_code":null,"stop_name":"所沢街道入口","stop_desc":null,"zone_id":"49_2","location_type":0,"parent_station":null,"wheelchair_boarding":null}},{"type":"Feature","id":"F015:50_1","geometry":{"type":"Point","coordinates":[139.486195,35.770688]},"properties":{"id":"F015:50_1","feed_id":"F015","feed_slug":"higashimurayama-green-bus","municipality":"東村山市","service_name":"グリーンバス","license":"CC BY 4.0","source_stop_id":"50_1","stop_code":null,"stop_name":"秋津文化センター","stop_desc":null,"zone_id":"50_1","location_type":0,"parent_station":null,"wheelchair_boarding":null}},{"type":"Feature","id":"F015:50_2","geometry":{"type":"Point","coordinates":[139.486218,35.771001]},"properties":{"id":"F015:50_2","feed_id":"F015","feed_slug":"higashimurayama-green-bus","municipality":"東村山市","service_name":"グリーンバス","license":"CC BY 4.0","source_stop_id":"50_2","stop_code":null,"stop_name":"秋津文化センター","stop_desc":null,"zone_id":"50_2","location_type":0,"parent_station":null,"wheelchair_boarding":null}},{"type":"Feature","id":"F015:51_1","geometry":{"type":"Point","coordinates":[139.483301,35.772708]},"properties":{"id":"F015:51_1","feed_id":"F015","feed_slug":"higashimurayama-green-bus","municipality":"東村山市","service_name":"グリーンバス","license":"CC BY 4.0","source_stop_id":"51_1","stop_code":null,"stop_name":"秋津小学校","stop_desc":null,"zone_id":"51_1","location_type":0,"parent_station":null,"wheelchair_boarding":null}},{"type":"Feature","id":"F015:51_2","geometry":{"type":"Point","coordinates":[139.483131,35.773263]},"properties":{"id":"F015:51_2","feed_id":"F015","feed_slug":"higashimurayama-green-bus","municipality":"東村山市","service_name":"グリーンバス","license":"CC BY 4.0","source_stop_id":"51_2","stop_code":null,"stop_name":"秋津小学校","stop_desc":null,"zone_id":"51_2","location_type":0,"parent_station":null,"wheelchair_boarding":null}},{"type":"Feature","id":"F015:52_1","geometry":{"type":"Point","coordinates":[139.485643,35.775092]},"properties":{"id":"F015:52_1","feed_id":"F015","feed_slug":"higashimurayama-green-bus","municipality":"東村山市","service_name":"グリーンバス","license":"CC BY 4.0","source_stop_id":"52_1","stop_code":null,"stop_name":"中通り中央","stop_desc":null,"zone_id":"52_1","location_type":0,"parent_station":null,"wheelchair_boarding":null}},{"type":"Feature","id":"F015:52_2","geometry":{"type":"Point","coordinates":[139.48655,35.775504]},"properties":{"id":"F015:52_2","feed_id":"F015","feed_slug":"higashimurayama-green-bus","municipality":"東村山市","service_name":"グリーンバス","license":"CC BY 4.0","source_stop_id":"52_2","stop_code":null,"stop_name":"中通り中央","stop_desc":null,"zone_id":"52_2","location_type":0,"parent_station":null,"wheelchair_boarding":null}},{"type":"Feature","id":"F015:53_1","geometry":{"type":"Point","coordinates":[139.490306,35.776902]},"properties":{"id":"F015:53_1","feed_id":"F015","feed_slug":"higashimurayama-green-bus","municipality":"東村山市","service_name":"グリーンバス","license":"CC BY 4.0","source_stop_id":"53_1","stop_code":null,"stop_name":"秋津中通り","stop_desc":null,"zone_id":"53_1","location_type":0,"parent_station":null,"wheelchair_boarding":null}},{"type":"Feature","id":"F015:53_2","geometry":{"type":"Point","coordinates":[139.491079,35.776936]},"properties":{"id":"F015:53_2","feed_id":"F015","feed_slug":"higashimurayama-green-bus","municipality":"東村山市","service_name":"グリーンバス","license":"CC BY 4.0","source_stop_id":"53_2","stop_code":null,"stop_name":"秋津中通り","stop_desc":null,"zone_id":"53_2","location_type":0,"parent_station":null,"wheelchair_boarding":null}},{"type":"Feature","id":"F015:54_1","geometry":{"type":"Point","coordinates":[139.492925,35.777566]},"properties":{"id":"F015:54_1","feed_id":"F015","feed_slug":"higashimurayama-green-bus","municipality":"東村山市","service_name":"グリーンバス","license":"CC BY 4.0","source_stop_id":"54_1","stop_code":null,"stop_name":"新秋津駅","stop_desc":null,"zone_id":"54_1","location_type":0,"parent_station":null,"wheelchair_boarding":null}},{"type":"Feature","id":"F015:55_1","geometry":{"type":"Point","coordinates":[139.469388,35.764807]},"properties":{"id":"F015:55_1","feed_id":"F015","feed_slug":"higashimurayama-green-bus","municipality":"東村山市","service_name":"グリーンバス","license":"CC BY 4.0","source_stop_id":"55_1","stop_code":null,"stop_name":"久米川四丁目","stop_desc":null,"zone_id":"55_1","location_type":0,"parent_station":null,"wheelchair_boarding":null}},{"type":"Feature","id":"F015:56_1","geometry":{"type":"Point","coordinates":[139.472321,35.768881]},"properties":{"id":"F015:56_1","feed_id":"F015","feed_slug":"higashimurayama-green-bus","municipality":"東村山市","service_name":"グリーンバス","license":"CC BY 4.0","source_stop_id":"56_1","stop_code":null,"stop_name":"久米川辻","stop_desc":null,"zone_id":"56_1","location_type":0,"parent_station":null,"wheelchair_boarding":null}},{"type":"Feature","id":"F015:56_2","geometry":{"type":"Point","coordinates":[139.472369,35.768773]},"properties":{"id":"F015:56_2","feed_id":"F015","feed_slug":"higashimurayama-green-bus","municipality":"東村山市","service_name":"グリーンバス","license":"CC BY 4.0","source_stop_id":"56_2","stop_code":null,"stop_name":"久米川辻","stop_desc":null,"zone_id":"56_2","location_type":0,"parent_station":null,"wheelchair_boarding":null}},{"type":"Feature","id":"F015:57_1","geometry":{"type":"Point","coordinates":[139.474407,35.770881]},"properties":{"id":"F015:57_1","feed_id":"F015","feed_slug":"higashimurayama-green-bus","municipality":"東村山市","service_name":"グリーンバス","license":"CC BY 4.0","source_stop_id":"57_1","stop_code":null,"stop_name":"第二中学校前","stop_desc":null,"zone_id":"57_1","location_type":0,"parent_station":null,"wheelchair_boarding":null}},{"type":"Feature","id":"F015:58_1","geometry":{"type":"Point","coordinates":[139.476033,35.771482]},"properties":{"id":"F015:58_1","feed_id":"F015","feed_slug":"higashimurayama-green-bus","municipality":"東村山市","service_name":"グリーンバス","license":"CC BY 4.0","source_stop_id":"58_1","stop_code":null,"stop_name":"野行通り入口","stop_desc":null,"zone_id":"58_1","location_type":0,"parent_station":null,"wheelchair_boarding":null}},{"type":"Feature","id":"F015:59_1","geometry":{"type":"Point","coordinates":[139.477367,35.772793]},"properties":{"id":"F015:59_1","feed_id":"F015","feed_slug":"higashimurayama-green-bus","municipality":"東村山市","service_name":"グリーンバス","license":"CC BY 4.0","source_stop_id":"59_1","stop_code":null,"stop_name":"南秋津","stop_desc":null,"zone_id":"59_1","location_type":0,"parent_station":null,"wheelchair_boarding":null}},{"type":"Feature","id":"F015:60_1","geometry":{"type":"Point","coordinates":[139.476739,35.774204]},"properties":{"id":"F015:60_1","feed_id":"F015","feed_slug":"higashimurayama-green-bus","municipality":"東村山市","service_name":"グリーンバス","license":"CC BY 4.0","source_stop_id":"60_1","stop_code":null,"stop_name":"二柳橋南","stop_desc":null,"zone_id":"60_1","location_type":0,"parent_station":null,"wheelchair_boarding":null}},{"type":"Feature","id":"F015:61_1","geometry":{"type":"Point","coordinates":[139.475056,35.774124]},"properties":{"id":"F015:61_1","feed_id":"F015","feed_slug":"higashimurayama-green-bus","municipality":"東村山市","service_name":"グリーンバス","license":"CC BY 4.0","source_stop_id":"61_1","stop_code":null,"stop_name":"二瀬橋東","stop_desc":null,"zone_id":"61_1","location_type":0,"parent_station":null,"wheelchair_boarding":null}},{"type":"Feature","id":"F015:62_1","geometry":{"type":"Point","coordinates":[139.473312,35.771152]},"properties":{"id":"F015:62_1","feed_id":"F015","feed_slug":"higashimurayama-green-bus","municipality":"東村山市","service_name":"グリーンバス","license":"CC BY 4.0","source_stop_id":"62_1","stop_code":null,"stop_name":"消防第二分団","stop_desc":null,"zone_id":"62_1","location_type":0,"parent_station":null,"wheelchair_boarding":null}},{"type":"Feature","id":"F015:63_1","geometry":{"type":"Point","coordinates":[139.474148,35.76757]},"properties":{"id":"F015:63_1","feed_id":"F015","feed_slug":"higashimurayama-green-bus","municipality":"東村山市","service_name":"グリーンバス","license":"CC BY 4.0","source_stop_id":"63_1","stop_code":null,"stop_name":"江戸道","stop_desc":null,"zone_id":"63_1","location_type":0,"parent_station":null,"wheelchair_boarding":null}},{"type":"Feature","id":"F015:64_1","geometry":{"type":"Point","coordinates":[139.475732,35.766214]},"properties":{"id":"F015:64_1","feed_id":"F015","feed_slug":"higashimurayama-green-bus","municipality":"東村山市","service_name":"グリーンバス","license":"CC BY 4.0","source_stop_id":"64_1","stop_code":null,"stop_name":"野際通り北","stop_desc":null,"zone_id":"64_1","location_type":0,"parent_station":null,"wheelchair_boarding":null}},{"type":"Feature","id":"F015:65_1","geometry":{"type":"Point","coordinates":[139.477296,35.763003]},"properties":{"id":"F015:65_1","feed_id":"F015","feed_slug":"higashimurayama-green-bus","municipality":"東村山市","service_name":"グリーンバス","license":"CC BY 4.0","source_stop_id":"65_1","stop_code":null,"stop_name":"野際神社","stop_desc":null,"zone_id":"65_1","location_type":0,"parent_station":null,"wheelchair_boarding":null}},{"type":"Feature","id":"F015:66_1","geometry":{"type":"Point","coordinates":[139.47739,35.760798]},"properties":{"id":"F015:66_1","feed_id":"F015","feed_slug":"higashimurayama-green-bus","municipality":"東村山市","service_name":"グリーンバス","license":"CC BY 4.0","source_stop_id":"66_1","stop_code":null,"stop_name":"野際通り西","stop_desc":null,"zone_id":"66_1","location_type":0,"parent_station":null,"wheelchair_boarding":null}},{"type":"Feature","id":"F015:67_1","geometry":{"type":"Point","coordinates":[139.471813,35.760765]},"properties":{"id":"F015:67_1","feed_id":"F015","feed_slug":"higashimurayama-green-bus","municipality":"東村山市","service_name":"グリーンバス","license":"CC BY 4.0","source_stop_id":"67_1","stop_code":null,"stop_name":"天王森保育園","stop_desc":null,"zone_id":"67_1","location_type":0,"parent_station":null,"wheelchair_boarding":null}}]}
