{"type":"FeatureCollection","name":"suginami-green-slow-mobility_routes","features":[{"type":"Feature","id":"F025:000001:000001","geometry":{"type":"LineString","coordinates":[[139.61867,35.704216],[139.619732,35.704227],[139.620759,35.704255],[139.6211,35.704262],[139.621384,35.704321],[139.621795,35.704381],[139.622772,35.704419],[139.623294,35.704353],[139.624165,35.704173],[139.625008,35.703937],[139.625502,35.703804],[139.625533,35.703731],[139.625425,35.703424],[139.625288,35.70311],[139.625131,35.702825],[139.624953,35.702567],[139.624676,35.70217],[139.624445,35.701898],[139.624205,35.701671],[139.623632,35.701254],[139.623625,35.701184],[139.623953,35.700845],[139.624342,35.700512],[139.624349,35.700475],[139.623968,35.699915],[139.623909,35.699902],[139.623433,35.700107],[139.623407,35.700098],[139.623096,35.699671],[139.622911,35.699218],[139.622551,35.698319],[139.622509,35.698287],[139.621923,35.698374],[139.621103,35.698478],[139.62106,35.698515],[139.621097,35.699145],[139.621017,35.700005],[139.621009,35.700264],[139.620952,35.700402],[139.619997,35.701472],[139.619906,35.701499],[139.619386,35.701216],[139.619257,35.701216],[139.61863,35.701582],[139.618131,35.701957],[139.617144,35.702641],[139.617122,35.702706],[139.617036,35.702994],[139.617068,35.703094],[139.61863,35.704218]]},"properties":{"id":"F025:000001:000001","feed_id":"F025","feed_slug":"suginami-green-slow-mobility","municipality":"杉並区","service_name":"グリーンスローモビリティ","license":"CC BY 4.0","source_route_id":"000001","route_short_name":null,"route_long_name":"グリーンスローモビリティ","route_desc":null,"route_type":3,"route_url":null,"route_color":"347E42","route_text_color":"FFFFFF","directions":[],"geometry_source":"shapes.txt"}}]}
