{"type":"FeatureCollection","name":"suginami-green-slow-mobility_stops","features":[{"type":"Feature","id":"F025:000001_001","geometry":{"type":"Point","coordinates":[139.618697,35.704232]},"properties":{"id":"F025:000001_001","feed_id":"F025","feed_slug":"suginami-green-slow-mobility","municipality":"杉並区","service_name":"グリーンスローモビリティ","license":"CC BY 4.0","source_stop_id":"000001_001","stop_code":null,"stop_name":"荻窪駅西口","stop_desc":null,"zone_id":"000001_001","location_type":0,"parent_station":null,"wheelchair_boarding":null}},{"type":"Feature","id":"F025:000001_002","geometry":{"type":"Point","coordinates":[139.624049,35.70148]},"properties":{"id":"F025:000001_002","feed_id":"F025","feed_slug":"suginami-green-slow-mobility","municipality":"杉並区","service_name":"グリーンスローモビリティ","license":"CC BY 4.0","source_stop_id":"000001_002","stop_code":null,"stop_name":"大田黒公園","stop_desc":null,"zone_id":"000001_002","location_type":0,"parent_station":null,"wheelchair_boarding":null}},{"type":"Feature","id":"F025:000001_003","geometry":{"type":"Point","coordinates":[139.622044,35.698334]},"properties":{"id":"F025:000001_003","feed_id":"F025","feed_slug":"suginami-green-slow-mobility","municipality":"杉並区","service_name":"グリーンスローモビリティ","license":"CC BY 4.0","source_stop_id":"000001_003","stop_code":null,"stop_name":"荻外荘公園","stop_desc":null,"zone_id":"000001_003","location_type":0,"parent_station":null,"wheelchair_boarding":null}},{"type":"Feature","id":"F025:000001_004","geometry":{"type":"Point","coordinates":[139.617976,35.702023]},"properties":{"id":"F025:000001_004","feed_id":"F025","feed_slug":"suginami-green-slow-mobility","municipality":"杉並区","service_name":"グリーンスローモビリティ","license":"CC BY 4.0","source_stop_id":"000001_004","stop_code":null,"stop_name":"桃井第二小学校","stop_desc":null,"zone_id":"000001_004","location_type":0,"parent_station":null,"wheelchair_boarding":null}}]}
