{"type":"FeatureCollection","name":"kunitachi-kunikko_routes","features":[{"type":"Feature","id":"F011:1:SHP0002","geometry":{"type":"LineString","coordinates":[[139.430165442381,35.6996517281988],[139.430408312067,35.6996745061978],[139.430904686451,35.6997210596208],[139.431202411652,35.6997515550824],[139.43136431883,35.6997691375591],[139.431663751602,35.6998016547692],[139.431827366352,35.6998190807473],[139.43229675293,35.6998800716704],[139.432682693551,35.6999276599143],[139.432809054852,35.6999432408408],[139.433332085609,35.6999955187749],[139.4333589077,35.6999998752694],[139.433372318745,35.7000020535167],[139.433624868988,35.7000307553386],[139.434292316437,35.7001066093849],[139.434525668621,35.7001392830937],[139.434828678045,35.7001831049918],[139.434917271137,35.7001959175223],[139.435284733772,35.7002481954564],[139.435330331326,35.7002525519509],[139.435555636883,35.700278690918],[139.435732662678,35.7003026516378],[139.435869455338,35.7003222558631],[139.436218142509,35.7003549295719],[139.436746537685,35.7003810685389],[139.436939213372,35.7003906096209],[139.437065235405,35.7003968500893],[139.437406361103,35.7004137422478],[139.437929391861,35.7004333464731],[139.438280761242,35.7004507724511],[139.4384765625,35.7004573071929],[139.438539482749,35.70045842613],[139.438640686277,35.7004602258747],[139.438844025135,35.7004638419346],[139.439168572426,35.7004725549236],[139.439970552921,35.700518298116],[139.440128803253,35.700158887319],[139.440120756626,35.7000020535167],[139.440077841282,35.6997341291043],[139.440064430237,35.6995250173679],[139.440067112446,35.6992418452248],[139.440447986126,35.6991982802797],[139.440445303917,35.6991743195599],[139.44095492363,35.6991982802797],[139.441287125599,35.6992151418019],[139.441454419926,35.6992236331332],[139.441641569138,35.6992331322358],[139.441665709019,35.6992353104831],[139.442094862461,35.6992592712029],[139.442411363125,35.6993594705766],[139.442599117756,35.6993333316095],[139.442760050297,35.6993442228458],[139.443108737469,35.6993572923293],[139.443468153477,35.6993703618128],[139.443819522858,35.6993856095436],[139.444498121738,35.6994117485107],[139.446069896221,35.699466204692],[139.44621587313,35.6995615458682],[139.446576833725,35.6997972982747],[139.44677826804,35.6997036077054],[139.446635842323,35.6995120461555],[139.446271061897,35.6994902642417]]},"properties":{"id":"F011:1:SHP0002","feed_id":"F011","feed_slug":"kunitachi-kunikko","municipality":"国立市","service_name":"くにっこ","license":"CC0 1.0","source_route_id":"1","route_short_name":null,"route_long_name":"くにっこ北ルート","route_desc":null,"route_type":3,"route_url":null,"route_color":"0041FF","route_text_color":"FFFFFF","directions":["1"],"geometry_source":"shapes.txt"}},{"type":"Feature","id":"F011:1:SHP0003","geometry":{"type":"LineString","coordinates":[[139.446271061897,35.6994902642417],[139.44621587313,35.6995615458682],[139.446069896221,35.699466204692],[139.444498121738,35.6994117485107],[139.443819522858,35.6993856095436],[139.443468153477,35.6993703618128],[139.443108737469,35.6993572923293],[139.442760050297,35.6993442228458],[139.442599117756,35.6993333316095],[139.442411363125,35.6993594705766],[139.442094862461,35.6992592712029],[139.441665709019,35.6992353104831],[139.441641569138,35.6992331322358],[139.441454419926,35.6992236331332],[139.441287125599,35.6992151418019],[139.44095492363,35.6991982802797],[139.440445303917,35.6991743195599],[139.440447986126,35.6991982802797],[139.440067112446,35.6992418452248],[139.440064430237,35.6995250173679],[139.440077841282,35.6997341291043],[139.440120756626,35.7000020535167],[139.440128803253,35.700158887319],[139.439970552921,35.700518298116],[139.439168572426,35.7004725549236],[139.438844025135,35.7004638419346],[139.438640686277,35.7004602258747],[139.438539482749,35.70045842613],[139.4384765625,35.7004573071929],[139.438280761242,35.7004507724511],[139.437929391861,35.7004333464731],[139.437406361103,35.7004137422478],[139.437065235405,35.7003968500893],[139.436939213372,35.7003906096209],[139.436746537685,35.7003810685389],[139.436218142509,35.7003549295719],[139.435869455338,35.7003222558631],[139.435732662678,35.7003026516378],[139.435555636883,35.700278690918],[139.435330331326,35.7002525519509],[139.435284733772,35.7002481954564],[139.434917271137,35.7001959175223],[139.434828678045,35.7001831049918],[139.434525668621,35.7001392830937],[139.434292316437,35.7001066093849],[139.433624868988,35.7000307553386],[139.433372318745,35.7000020535167],[139.4333589077,35.6999998752694],[139.433332085609,35.6999955187749],[139.432809054852,35.6999432408408],[139.432682693551,35.6999276599143],[139.43229675293,35.6998800716704],[139.431827366352,35.6998190807473],[139.431663751602,35.6998016547692],[139.43136431883,35.6997691375591],[139.431202411652,35.6997515550824],[139.430904686451,35.6997210596208],[139.430408312067,35.6996745061978]]},"properties":{"id":"F011:1:SHP0003","feed_id":"F011","feed_slug":"kunitachi-kunikko","municipality":"国立市","service_name":"くにっこ","license":"CC0 1.0","source_route_id":"1","route_short_name":null,"route_long_name":"くにっこ北ルート","route_desc":null,"route_type":3,"route_url":null,"route_color":"0041FF","route_text_color":"FFFFFF","directions":["0"],"geometry_source":"shapes.txt"}},{"type":"Feature","id":"F011:2:SHP0001","geometry":{"type":"LineString","coordinates":[[139.446271061897,35.6994902642417],[139.44621587313,35.6995615458682],[139.446069896221,35.699466204692],[139.444498121738,35.6994117485107],[139.443819522858,35.6993856095436],[139.443468153477,35.6993703618128],[139.443108737469,35.6993572923293],[139.442760050297,35.6993442228458],[139.442599117756,35.6993333316095],[139.442411363125,35.6993594705766],[139.442094862461,35.6992592712029],[139.441665709019,35.6992353104831],[139.441641569138,35.6992331322358],[139.441454419926,35.6992236331332],[139.441287125599,35.6992151418019],[139.44095492363,35.6991982802797],[139.440445303917,35.6991743195599],[139.440447986126,35.6991982802797],[139.440067112446,35.6992418452248],[139.440064430237,35.6995250173679],[139.440077841282,35.6997341291043],[139.440120756626,35.7000020535167],[139.440128803253,35.700158887319],[139.439970552921,35.700518298116],[139.439168572426,35.7004725549236],[139.438844025135,35.7004638419346],[139.438640686277,35.7004602258747],[139.438539482749,35.70045842613],[139.4384765625,35.7004573071929],[139.438280761242,35.7004507724511],[139.437929391861,35.7004333464731],[139.437406361103,35.7004137422478],[139.437065235405,35.7003968500893],[139.436939213372,35.7003906096209],[139.436746537685,35.7003810685389],[139.436218142509,35.7003549295719],[139.435869455338,35.7003222558631],[139.435732662678,35.7003026516378],[139.435555636883,35.700278690918],[139.435330331326,35.7002525519509],[139.435284733772,35.7002481954564],[139.434917271137,35.7001959175223],[139.434828678045,35.7001831049918],[139.434525668621,35.7001392830937],[139.434292316437,35.7001066093849],[139.433624868988,35.7000307553386],[139.433372318745,35.7000020535167],[139.4333589077,35.6999998752694],[139.433332085609,35.6999955187749],[139.432809054852,35.6999432408408],[139.432682693551,35.6999276599143],[139.43229675293,35.6998800716704],[139.431827366352,35.6998190807473],[139.431663751602,35.6998016547692],[139.43136431883,35.6997691375591],[139.431202411652,35.6997515550824],[139.430904686451,35.6997210596208],[139.430408312067,35.6996745061978],[139.430165442381,35.6996517281988],[139.429882764816,35.6996252167416],[139.429338276386,35.6995467998405],[139.429375827312,35.6991329328621],[139.429402649403,35.6988388694827],[139.42943751812,35.6983857940538],[139.429472386837,35.6980046007842],[139.429507255554,35.6976168727729],[139.429732561111,35.6975275646355],[139.430027604103,35.6974142957783],[139.430156350136,35.6973750873277],[139.43074722721,35.6971939582638],[139.431108534336,35.6970832021956],[139.431446492672,35.6969633985966],[139.431484043598,35.6970243895197],[139.431524276733,35.6970418154977],[139.431835412979,35.6970418154977],[139.431993663311,35.697052706734],[139.432138502598,35.6970592414758],[139.432468956585,35.6970717651666],[139.43254083395,35.6970744892066],[139.432787597179,35.6970853804428],[139.432838559151,35.6970875586901],[139.433155059814,35.6970984499264],[139.433332085609,35.6971006281736],[139.433611035347,35.6971028064209],[139.434166252613,35.6971180541516],[139.43436473608,35.6971245888934],[139.43474560976,35.6971354801297],[139.435062110424,35.6971441931187],[139.435139894485,35.697146371366],[139.43550012386,35.697157264024],[139.43564414978,35.6971616190967],[139.436084032059,35.697172510333],[139.436333477497,35.6971790450748],[139.43667948246,35.6971877580638],[139.436859190464,35.6971921145583],[139.437004029751,35.6971964710528],[139.437210559845,35.6972030057946],[139.437309801579,35.6972073622891],[139.437516331673,35.6972138970308],[139.437669217587,35.6972204317726],[139.4384765625,35.6972443924924],[139.438559710979,35.6972465707397],[139.438846707344,35.6972596402232],[139.439200758934,35.6972705314595],[139.439300313775,35.6972740213628],[139.439573585987,35.697283600943],[139.439774751663,35.6972857791902],[139.439978599548,35.6972901356848],[139.440142214298,35.6972966704265],[139.440319240093,35.6972988486738],[139.440474808216,35.6973032051683],[139.44057404995,35.69730973991],[139.44065451622,35.6973119181573],[139.440979063511,35.6973206311463],[139.441030025482,35.6973293441353],[139.441357254982,35.6973402353716],[139.441664257661,35.6973489073637],[139.441665709019,35.6973489483606],[139.442046582699,35.6973598395969],[139.442199468613,35.6973641960914],[139.442574977875,35.6973750873277],[139.442819058895,35.6973816220694],[139.44304972887,35.697385978564],[139.443720281124,35.6973990480475],[139.443698823452,35.6981026219107],[139.44367736578,35.6985818363067],[139.443666636944,35.6988149087629],[139.444503486156,35.6988432259772],[139.445383250713,35.6988650084498],[139.445616192116,35.698871110834],[139.446214735508,35.6988867909223],[139.446313977242,35.6988824344278],[139.446348845959,35.6988257999992],[139.446480146981,35.6988304767886],[139.446543641764,35.6987776935428],[139.446592926979,35.6987953045376],[139.44667339325,35.6988061957739],[139.446748495102,35.6987953045376],[139.446810185909,35.6987648090761],[139.446855783463,35.69872995712],[139.446887969971,35.6986820356804],[139.446904063225,35.6986297577463],[139.446901381016,35.6985796580594],[139.446877241135,35.6985208453836],[139.446826279163,35.6984663892022],[139.446756541729,35.6984358937406],[139.446678757668,35.6984206460099],[139.44656342268,35.6984337154934],[139.446504414082,35.6984576762132],[139.446469545364,35.6984881716748],[139.446362257004,35.6984337154934],[139.446190595627,35.6983509420977],[139.446013569832,35.6982877729273],[139.4458553195,35.6982158907679],[139.445750713348,35.6981701475756],[139.444235265255,35.6974251870145],[139.443712234497,35.6971877580638],[139.443434463148,35.6970546189194],[139.443130105648,35.6969087367131],[139.442671537399,35.6966889394425],[139.442572295666,35.6966431962502],[139.441665709019,35.6962097250465],[139.441586611964,35.6961701486937],[139.441099762917,35.6959265529034],[139.440920054913,35.6958481360022],[139.440523026969,35.6956572445261],[139.439841806889,35.6953297131557],[139.438677728176,35.6947633688695],[139.4384765625,35.6946697042375],[139.437494874001,35.6942013810778],[139.437186419964,35.6940685079953],[139.436779956031,35.6938742297109],[139.436202049255,35.6935980065883],[139.436250329018,35.6935457286542],[139.436282515526,35.6929946320988],[139.436285197735,35.6929815611531],[139.436309337616,35.6924391169049],[139.436341524124,35.691733285835],[139.436346888542,35.6916679311063],[139.436350711819,35.6915778783789],[139.43635225296,35.6915415786308],[139.436373710632,35.691033990238],[139.436400190397,35.6904300055764],[139.436405897141,35.6902998387856],[139.436419308186,35.6900405983618],[139.436432719231,35.6897356096279],[139.436438083649,35.6895678658242],[139.436483681202,35.6888358928629],[139.43648904562,35.6887661811522],[139.436494410038,35.6886136867853],[139.436493845723,35.6885997075005],[139.436483681202,35.6883479108886],[139.436497092247,35.6882193799222],[139.436443448067,35.6879165696792],[139.436397850513,35.6877226839841],[139.436306655407,35.6871824182269],[139.43660256684,35.687154076322],[139.436875283718,35.687127955953],[139.437553882599,35.6870604227333],[139.43847656,35.68694496],[139.438771605492,35.6869079283664],[139.438935220242,35.6868839649658],[139.439243753512,35.6868429043025],[139.439331488202,35.6868312282696],[139.440048336983,35.6867358275808],[139.440670609474,35.6866726513431],[139.441190958023,35.6865876901958],[139.441665709019,35.6865375849038],[139.442089534552,35.6864827348736],[139.442153871059,35.686474408666],[139.442233734729,35.6864653445197],[139.442768096924,35.6864046969554],[139.442776143551,35.6864853011208],[139.442864656448,35.6869297132759],[139.442937076092,35.6872543084284],[139.442974627018,35.6873654114672],[139.444047510624,35.6872325235189],[139.444452524185,35.6871715257721],[139.444505330582,35.6871647875418],[139.44552809,35.6870342808418],[139.445469081402,35.6867118641803],[139.44544762373,35.6865876901958],[139.445426541206,35.6864975078419],[139.445407390594,35.6864155894102],[139.445404804445,35.6864025664886],[139.445340335369,35.6860779233119],[139.445318877697,35.6859145364902],[139.44528400898,35.6857511496685],[139.445243775845,35.6855594424643],[139.44514721632,35.6851150303092],[139.445135536384,35.6850375576559],[139.445131123066,35.6850082842523],[139.445098936558,35.6848906457406],[139.445074796677,35.6846945815546],[139.445067016443,35.6846480909698],[139.44503724575,35.684470196986],[139.444997012615,35.6842632403452],[139.444946050644,35.684071533141],[139.444908499718,35.6839212004513],[139.444728791714,35.6835181345443],[139.444659399255,35.6833788751947],[139.444637596607,35.6833351208351],[139.444516897202,35.6831063536986],[139.444425378548,35.682919775396],[139.444380104542,35.6828274756656],[139.444165527821,35.6824222310239],[139.444090425968,35.6824505545741],[139.443642497063,35.6826161384062],[139.443095326424,35.6828035095847],[139.442384541035,35.6830562428021],[139.441944658756,35.6832174691649],[139.441794455051,35.6832871886732],[139.441692531109,35.6833351208351],[139.441665709019,35.6833460145083],[139.44160670042,35.6833743380585],[139.441067576408,35.6835595305023],[139.440802037716,35.6836510373569],[139.440700113773,35.683685897111],[139.440796673298,35.6837447229461],[139.440842270851,35.6838427660045],[139.440987110138,35.6837991913119],[139.441129267216,35.6837185781305],[139.441164135933,35.6836553948261],[139.441067576408,35.6835595305023],[139.44160670042,35.6833743380585],[139.441665709019,35.6833460145083],[139.441692531109,35.6833351208351],[139.441794455051,35.6832871886732],[139.441944658756,35.6832174691649],[139.442384541035,35.6830562428021],[139.443095326424,35.6828035095847],[139.443642497063,35.6826161384062],[139.444090425968,35.6824505545741],[139.444165527821,35.6824222310239],[139.444380104542,35.6828274756656],[139.444425378548,35.682919775396],[139.444516897202,35.6831063536986],[139.444637596607,35.6833351208351],[139.444659399255,35.6833788751947],[139.444728791714,35.6835181345443],[139.444908499718,35.6839212004513],[139.444946050644,35.684071533141],[139.444997012615,35.6842632403452],[139.44503724575,35.684470196986],[139.445067016443,35.6846480909698],[139.445074796677,35.6846945815546],[139.445098936558,35.6848906457406],[139.445131123066,35.6850082842523],[139.445135536384,35.6850375576559],[139.44514721632,35.6851150303092],[139.445243775845,35.6855594424643],[139.44528400898,35.6857511496685],[139.445318877697,35.6859145364902],[139.445340335369,35.6860779233119],[139.445404804445,35.6864025664886],[139.445407390594,35.6864155894102],[139.445426541206,35.6864975078419],[139.44544762373,35.6865876901958],[139.445469081402,35.6867118641803],[139.44552809,35.6870342808418],[139.444505330582,35.6871647875418],[139.444452524185,35.6871715257721],[139.444047510624,35.6872325235189],[139.442974627018,35.6873654114672],[139.442937076092,35.6872543084284],[139.442864656448,35.6869297132759],[139.442776143551,35.6864853011208],[139.442768096924,35.6864046969554],[139.442233734729,35.6864653445197],[139.442153871059,35.686474408666],[139.442089534552,35.6864827348736],[139.441665709019,35.6865375849038],[139.441190958023,35.6865876901958],[139.440670609474,35.6866726513431],[139.440048336983,35.6867358275808],[139.439331488202,35.6868312282696],[139.439243753512,35.6868429043025],[139.438935220242,35.6868839649658],[139.438771605492,35.6869079283664],[139.438868165016,35.6874307661959],[139.438932538033,35.68782725155],[139.438970088959,35.6878838923149],[139.438970088959,35.68807],[139.438970088959,35.6881126338653],[139.438980817795,35.6882455218136],[139.438932538033,35.6889361034469],[139.438908398151,35.6896441130077],[139.438900351524,35.6898271062481],[139.438894987106,35.6899273168321],[139.438889622688,35.6900166349613],[139.438881576061,35.6901930927287],[139.438873529434,35.6903608365324],[139.438862800598,35.6906723607392],[139.43885743618,35.6908030701966],[139.438854753971,35.6909141732353],[139.438846707344,35.6911037019486],[139.43883263091,35.6913314801688],[139.438811838627,35.6916679311063],[139.438803792,35.6918117115094],[139.438793063164,35.692184233463],[139.438785016537,35.6925110071065],[139.438769084103,35.6927721664399],[139.438755512238,35.6929946320988],[139.438752830029,35.6930556230219],[139.438731372356,35.6936786017367],[139.438701868057,35.6942188070559],[139.438677728176,35.6947633688695],[139.439841806889,35.6953297131557],[139.440523026969,35.6956572445261],[139.440920054913,35.6958481360022],[139.441099762917,35.6959265529034],[139.441586611964,35.6961701486937],[139.441665709019,35.6962097250465],[139.442572295666,35.6966431962502],[139.442671537399,35.6966889394425],[139.443130105648,35.6969087367131],[139.443434463148,35.6970546189194],[139.443712234497,35.6971877580638],[139.443720281124,35.6973990480475],[139.443698823452,35.6981026219107],[139.44367736578,35.6985818363067],[139.443666636944,35.6988149087629],[139.444503486156,35.6988432259772],[139.445383250713,35.6988650084498],[139.445616192116,35.698871110834],[139.446214735508,35.6988867909223],[139.446313977242,35.6988824344278],[139.446348845959,35.6988257999992],[139.446480146981,35.6988304767886],[139.446543641764,35.6987776935428],[139.446592926979,35.6987953045376],[139.44667339325,35.6988061957739],[139.446748495102,35.6987953045376],[139.446810185909,35.6987648090761],[139.446855783463,35.69872995712],[139.446887969971,35.6986820356804],[139.446904063225,35.6986297577463],[139.446901381016,35.6985796580594],[139.446877241135,35.6985208453836],[139.446826279163,35.6984663892022],[139.446756541729,35.6984358937406],[139.446678757668,35.6984206460099],[139.44656342268,35.6984337154934],[139.446504414082,35.6984576762132],[139.446469545364,35.6984881716748],[139.446362257004,35.6984337154934],[139.446190595627,35.6983509420977],[139.446013569832,35.6982877729273],[139.4458553195,35.6982158907679],[139.445750713348,35.6981701475756],[139.444235265255,35.6974251870145],[139.443712234497,35.6971877580638],[139.443434463148,35.6970546189194],[139.443130105648,35.6969087367131],[139.442671537399,35.6966889394425],[139.442572295666,35.6966431962502],[139.44239795208,35.6966519092392],[139.442282617092,35.6966519092392],[139.441925883293,35.6966453744974],[139.441665709019,35.6966410180029],[139.44106221199,35.6966214137776],[139.440525770187,35.6966127007886],[139.440413117409,35.6966105225413],[139.439249038696,35.6965756705853],[139.439220735064,35.6965745760307],[139.439023733139,35.6965669575962],[139.438602626324,35.6965538881127],[139.4384765625,35.6965517098655],[139.437103271484,35.6965059666731],[139.436931610107,35.6964994319314],[139.43665266037,35.6964907189423],[139.436129629612,35.6964732929643],[139.435724616051,35.6964602234808],[139.435375928879,35.6964471539972],[139.435306191444,35.69644497575],[139.435054063797,35.696436262761],[139.434375464916,35.6964123020412],[139.434138339022,35.6964057741708],[139.434058964252,35.6964035890522],[139.433643221855,35.6963883413214],[139.433401823044,35.6963883413214],[139.433332085609,35.6963883413214],[139.433155059814,35.6963861630741],[139.43286806345,35.6963774500851],[139.432570338249,35.6963687370961],[139.432328939438,35.6963600241071],[139.432202875614,35.6963556676126],[139.431089758873,35.6963295286455],[139.430653081877,35.6963312093541],[139.430523812771,35.6963317068928],[139.43027973175,35.6963317068928],[139.429721832275,35.6963033896784],[139.429576992989,35.6963317068928],[139.429547488689,35.6969263683932],[139.429541221494,35.6970417337507],[139.429539442062,35.6970744892066],[139.429526031017,35.6972596402232],[139.429507255554,35.6976168727729],[139.429472386837,35.6980046007842],[139.42943751812,35.6983857940538],[139.429402649403,35.6988388694827],[139.429375827312,35.6991329328621],[139.429338276386,35.6995467998405],[139.429882764816,35.6996252167416],[139.430165442381,35.6996517281988],[139.430408312067,35.6996745061978],[139.430904686451,35.6997210596208],[139.431202411652,35.6997515550824],[139.43136431883,35.6997691375591],[139.431663751602,35.6998016547692],[139.431827366352,35.6998190807473],[139.43229675293,35.6998800716704],[139.432682693551,35.6999276599143],[139.432809054852,35.6999432408408],[139.433332085609,35.6999955187749],[139.4333589077,35.6999998752694],[139.433372318745,35.7000020535167],[139.433624868988,35.7000307553386],[139.434292316437,35.7001066093849],[139.434525668621,35.7001392830937],[139.434828678045,35.7001831049918],[139.434917271137,35.7001959175223],[139.435284733772,35.7002481954564],[139.435330331326,35.7002525519509],[139.435555636883,35.700278690918],[139.435732662678,35.7003026516378],[139.435869455338,35.7003222558631],[139.436218142509,35.7003549295719],[139.436746537685,35.7003810685389],[139.436939213372,35.7003906096209],[139.437065235405,35.7003968500893],[139.437406361103,35.7004137422478],[139.437929391861,35.7004333464731],[139.438280761242,35.7004507724511],[139.4384765625,35.7004573071929],[139.438539482749,35.70045842613],[139.438640686277,35.7004602258747],[139.438844025135,35.7004638419346],[139.439168572426,35.7004725549236],[139.439970552921,35.700518298116],[139.440128803253,35.700158887319],[139.440120756626,35.7000020535167],[139.440077841282,35.6997341291043],[139.440064430237,35.6995250173679],[139.440067112446,35.6992418452248],[139.440447986126,35.6991982802797],[139.440445303917,35.6991743195599],[139.44095492363,35.6991982802797],[139.441287125599,35.6992151418019],[139.441454419926,35.6992236331332],[139.441641569138,35.6992331322358],[139.441665709019,35.6992353104831],[139.442094862461,35.6992592712029],[139.442411363125,35.6993594705766],[139.442599117756,35.6993333316095],[139.442760050297,35.6993442228458],[139.443108737469,35.6993572923293],[139.443468153477,35.6993703618128],[139.443819522858,35.6993856095436],[139.444498121738,35.6994117485107],[139.446069896221,35.699466204692],[139.44621587313,35.6995615458682],[139.446576833725,35.6997972982747],[139.44677826804,35.6997036077054],[139.446635842323,35.6995120461555],[139.446271061897,35.6994902642417]]},"properties":{"id":"F011:2:SHP0001","feed_id":"F011","feed_slug":"kunitachi-kunikko","municipality":"国立市","service_name":"くにっこ","license":"CC0 1.0","source_route_id":"2","route_short_name":null,"route_long_name":"くにっこ北西中ルート","route_desc":null,"route_type":3,"route_url":null,"route_color":"FF9900","route_text_color":"000000","directions":["0"],"geometry_source":"shapes.txt"}}]}
