{"type":"FeatureCollection","name":"tachikawa-kururin_routes","features":[{"type":"Feature","id":"F014:10:fallback-0","geometry":{"type":"LineString","coordinates":[[139.37008035249,35.7263834527171],[139.374555945057,35.7293581564151],[139.375322224014,35.7322578110297],[139.377629434915,35.7329407167658],[139.377317420596,35.7348199141949],[139.374419166708,35.7330633865418],[139.373454068501,35.7337060108471],[139.371279724929,35.7330393037809],[139.368118429671,35.7338253669675],[139.365409449468,35.7330493632084],[139.363388668833,35.7332528137021],[139.360203931077,35.7336847623257],[139.355051283326,35.7343392467867],[139.355163554368,35.7318042548774],[139.356745693775,35.7315411458928],[139.35964733135,35.7311087491643],[139.362187475731,35.7307199054576],[139.365634751306,35.7292189181846],[139.365691766393,35.7267024658957],[139.365737965853,35.7253588330003],[139.370322708992,35.7258724860511],[139.365773607758,35.7240658330742],[139.363806797628,35.7178531389837],[139.360795417433,35.7140870142439]]},"properties":{"id":"F014:10:fallback-0","feed_id":"F014","feed_slug":"tachikawa-kururin","municipality":"立川市","service_name":"くるりん","license":"CC BY 4.0","source_route_id":"10","route_short_name":null,"route_long_name":"くるりんバス　西砂ルート","route_desc":null,"route_type":3,"route_url":null,"route_color":"FFFF00","route_text_color":"000000","directions":["0"],"geometry_source":"stop_times.txt fallback"}},{"type":"Feature","id":"F014:10:fallback-1","geometry":{"type":"LineString","coordinates":[[139.360795417433,35.7140870142439],[139.363912416773,35.7179872365161],[139.365690737584,35.7238275670392],[139.370322708992,35.7258724860511],[139.36566004906,35.7250453398916],[139.365606694811,35.7263883221],[139.365551172059,35.7288570049624],[139.362757899118,35.7305817808535],[139.360620963572,35.7308929365644],[139.357294205523,35.7314061522009],[139.355431663148,35.7316932174014],[139.35550184805,35.7346053217071],[139.359826248054,35.7338297936444],[139.363058842768,35.733340989975],[139.365014678407,35.7331475659459],[139.368459024531,35.7337734816462],[139.371271750223,35.7333175268281],[139.373120525599,35.7339468905812],[139.374419166708,35.7330633865418],[139.37465945609,35.7354524316982],[139.376939325533,35.7350436054489],[139.377172371298,35.7326207687473],[139.375359774941,35.731948634374],[139.374710461823,35.7294482293379],[139.37008035249,35.7263834527171]]},"properties":{"id":"F014:10:fallback-1","feed_id":"F014","feed_slug":"tachikawa-kururin","municipality":"立川市","service_name":"くるりん","license":"CC BY 4.0","source_route_id":"10","route_short_name":null,"route_long_name":"くるりんバス　西砂ルート","route_desc":null,"route_type":3,"route_url":null,"route_color":"FFFF00","route_text_color":"000000","directions":["1"],"geometry_source":"stop_times.txt fallback"}},{"type":"Feature","id":"F014:11:fallback-0","geometry":{"type":"LineString","coordinates":[[139.37008035249,35.7263834527171],[139.374555945057,35.7293581564151],[139.375322224014,35.7322578110297],[139.374419166708,35.7330633865418],[139.37465945609,35.7354524316982],[139.376939325533,35.7350436054489],[139.377172371298,35.7326207687473],[139.375359774941,35.731948634374],[139.374710461823,35.7294482293379],[139.37008035249,35.7263834527171]]},"properties":{"id":"F014:11:fallback-0","feed_id":"F014","feed_slug":"tachikawa-kururin","municipality":"立川市","service_name":"くるりん","license":"CC BY 4.0","source_route_id":"11","route_short_name":null,"route_long_name":"くるりんバス　西砂ルート","route_desc":null,"route_type":3,"route_url":null,"route_color":"FFFF00","route_text_color":"000000","directions":["0"],"geometry_source":"stop_times.txt fallback"}},{"type":"Feature","id":"F014:20:fallback-0","geometry":{"type":"LineString","coordinates":[[139.37008035249,35.7263834527171],[139.374555945057,35.7293581564151],[139.375998880802,35.7310161016047],[139.380271922144,35.7302463268992],[139.391888209054,35.7290496963693],[139.398017703358,35.7297182690813],[139.401592820434,35.7301399678007],[139.40604014525,35.7306482545025],[139.407691000222,35.730840578298],[139.418254432671,35.7323716386244],[139.418366275201,35.7287129918089]]},"properties":{"id":"F014:20:fallback-0","feed_id":"F014","feed_slug":"tachikawa-kururin","municipality":"立川市","service_name":"くるりん","license":"CC BY 4.0","source_route_id":"20","route_short_name":null,"route_long_name":"くるりんバス　砂川支線","route_desc":null,"route_type":3,"route_url":null,"route_color":"F79646","route_text_color":"000000","directions":["0"],"geometry_source":"stop_times.txt fallback"}},{"type":"Feature","id":"F014:20:fallback-1","geometry":{"type":"LineString","coordinates":[[139.418366275201,35.7287129918089],[139.418254432671,35.7323716386244],[139.391888209054,35.7290496963693],[139.38026333353,35.7301169503694],[139.376566168016,35.7307765949323],[139.374710461823,35.7294482293379],[139.37008035249,35.7263834527171]]},"properties":{"id":"F014:20:fallback-1","feed_id":"F014","feed_slug":"tachikawa-kururin","municipality":"立川市","service_name":"くるりん","license":"CC BY 4.0","source_route_id":"20","route_short_name":null,"route_long_name":"くるりんバス　砂川支線","route_desc":null,"route_type":3,"route_url":null,"route_color":"F79646","route_text_color":"000000","directions":["1"],"geometry_source":"stop_times.txt fallback"}},{"type":"Feature","id":"F014:30:fallback-0","geometry":{"type":"LineString","coordinates":[[139.413297769069,35.6972315565774],[139.414989145985,35.693930668062],[139.414069029424,35.6921962120008],[139.41326,35.69066],[139.41095,35.68768],[139.41243,35.687],[139.41596,35.68757],[139.41882,35.68657],[139.42037,35.68838],[139.42158,35.69061],[139.423788988265,35.691009339956],[139.421678324656,35.6922532368688],[139.42054,35.69069],[139.41947,35.68874],[139.41849,35.68689],[139.41584,35.68758],[139.413399012773,35.6882922996127],[139.413134185879,35.6905883929957],[139.41396,35.69214],[139.414956172976,35.6940246683227],[139.413297769069,35.6972315565774]]},"properties":{"id":"F014:30:fallback-0","feed_id":"F014","feed_slug":"tachikawa-kururin","municipality":"立川市","service_name":"くるりん","license":"CC BY 4.0","source_route_id":"30","route_short_name":null,"route_long_name":"くるりんバス　錦ルート","route_desc":null,"route_type":3,"route_url":null,"route_color":"92D050","route_text_color":"000000","directions":["0"],"geometry_source":"stop_times.txt fallback"}},{"type":"Feature","id":"F014:40:fallback-0","geometry":{"type":"LineString","coordinates":[[139.413005713628,35.6989157641159],[139.416005016283,35.7003886780938],[139.420234060343,35.7003635621213],[139.422709977691,35.7000065447378],[139.424197356044,35.6995451739656],[139.423238144721,35.6996098574101],[139.420393962241,35.7001337275888],[139.417087865134,35.7001192734147],[139.413266297847,35.6987266874365]]},"properties":{"id":"F014:40:fallback-0","feed_id":"F014","feed_slug":"tachikawa-kururin","municipality":"立川市","service_name":"くるりん","license":"CC BY 4.0","source_route_id":"40","route_short_name":null,"route_long_name":"くるりんバス　曙支線","route_desc":null,"route_type":3,"route_url":null,"route_color":"00B0F0","route_text_color":"000000","directions":["0"],"geometry_source":"stop_times.txt fallback"}}]}
