{"type":"FeatureCollection","name":"tachikawa-kururin_stops","features":[{"type":"Feature","id":"F014:1_01","geometry":{"type":"Point","coordinates":[139.37008035249,35.7263834527171]},"properties":{"id":"F014:1_01","feed_id":"F014","feed_slug":"tachikawa-kururin","municipality":"立川市","service_name":"くるりん","license":"CC BY 4.0","source_stop_id":"1_01","stop_code":null,"stop_name":"西武立川駅北口","stop_desc":null,"zone_id":"1_01","location_type":0,"parent_station":null,"wheelchair_boarding":null}},{"type":"Feature","id":"F014:10_01","geometry":{"type":"Point","coordinates":[139.368118429671,35.7338253669675]},"properties":{"id":"F014:10_01","feed_id":"F014","feed_slug":"tachikawa-kururin","municipality":"立川市","service_name":"くるりん","license":"CC BY 4.0","source_stop_id":"10_01","stop_code":null,"stop_name":"七中前","stop_desc":null,"zone_id":"10_01","location_type":0,"parent_station":null,"wheelchair_boarding":null}},{"type":"Feature","id":"F014:10_02","geometry":{"type":"Point","coordinates":[139.368459024531,35.7337734816462]},"properties":{"id":"F014:10_02","feed_id":"F014","feed_slug":"tachikawa-kururin","municipality":"立川市","service_name":"くるりん","license":"CC BY 4.0","source_stop_id":"10_02","stop_code":null,"stop_name":"七中前","stop_desc":null,"zone_id":"10_02","location_type":0,"parent_station":null,"wheelchair_boarding":null}},{"type":"Feature","id":"F014:11_01","geometry":{"type":"Point","coordinates":[139.365409449468,35.7330493632084]},"properties":{"id":"F014:11_01","feed_id":"F014","feed_slug":"tachikawa-kururin","municipality":"立川市","service_name":"くるりん","license":"CC BY 4.0","source_stop_id":"11_01","stop_code":null,"stop_name":"西砂町五丁目東","stop_desc":null,"zone_id":"11_01","location_type":0,"parent_station":null,"wheelchair_boarding":null}},{"type":"Feature","id":"F014:11_02","geometry":{"type":"Point","coordinates":[139.365014678407,35.7331475659459]},"properties":{"id":"F014:11_02","feed_id":"F014","feed_slug":"tachikawa-kururin","municipality":"立川市","service_name":"くるりん","license":"CC BY 4.0","source_stop_id":"11_02","stop_code":null,"stop_name":"西砂町五丁目東","stop_desc":null,"zone_id":"11_02","location_type":0,"parent_station":null,"wheelchair_boarding":null}},{"type":"Feature","id":"F014:12_01","geometry":{"type":"Point","coordinates":[139.363388668833,35.7332528137021]},"properties":{"id":"F014:12_01","feed_id":"F014","feed_slug":"tachikawa-kururin","municipality":"立川市","service_name":"くるりん","license":"CC BY 4.0","source_stop_id":"12_01","stop_code":null,"stop_name":"西砂町五丁目","stop_desc":null,"zone_id":"12_01","location_type":0,"parent_station":null,"wheelchair_boarding":null}},{"type":"Feature","id":"F014:12_02","geometry":{"type":"Point","coordinates":[139.363058842768,35.733340989975]},"properties":{"id":"F014:12_02","feed_id":"F014","feed_slug":"tachikawa-kururin","municipality":"立川市","service_name":"くるりん","license":"CC BY 4.0","source_stop_id":"12_02","stop_code":null,"stop_name":"西砂町五丁目","stop_desc":null,"zone_id":"12_02","location_type":0,"parent_station":null,"wheelchair_boarding":null}},{"type":"Feature","id":"F014:13_01","geometry":{"type":"Point","coordinates":[139.360203931077,35.7336847623257]},"properties":{"id":"F014:13_01","feed_id":"F014","feed_slug":"tachikawa-kururin","municipality":"立川市","service_name":"くるりん","license":"CC BY 4.0","source_stop_id":"13_01","stop_code":null,"stop_name":"西砂町四丁目","stop_desc":null,"zone_id":"13_01","location_type":0,"parent_station":null,"wheelchair_boarding":null}},{"type":"Feature","id":"F014:13_02","geometry":{"type":"Point","coordinates":[139.359826248054,35.7338297936444]},"properties":{"id":"F014:13_02","feed_id":"F014","feed_slug":"tachikawa-kururin","municipality":"立川市","service_name":"くるりん","license":"CC BY 4.0","source_stop_id":"13_02","stop_code":null,"stop_name":"西砂町四丁目","stop_desc":null,"zone_id":"13_02","location_type":0,"parent_station":null,"wheelchair_boarding":null}},{"type":"Feature","id":"F014:14_01","geometry":{"type":"Point","coordinates":[139.355051283326,35.7343392467867]},"properties":{"id":"F014:14_01","feed_id":"F014","feed_slug":"tachikawa-kururin","municipality":"立川市","service_name":"くるりん","license":"CC BY 4.0","source_stop_id":"14_01","stop_code":null,"stop_name":"リサイクルセンター南","stop_desc":null,"zone_id":"14_01","location_type":0,"parent_station":null,"wheelchair_boarding":null}},{"type":"Feature","id":"F014:14_02","geometry":{"type":"Point","coordinates":[139.35550184805,35.7346053217071]},"properties":{"id":"F014:14_02","feed_id":"F014","feed_slug":"tachikawa-kururin","municipality":"立川市","service_name":"くるりん","license":"CC BY 4.0","source_stop_id":"14_02","stop_code":null,"stop_name":"リサイクルセンター南","stop_desc":null,"zone_id":"14_02","location_type":0,"parent_station":null,"wheelchair_boarding":null}},{"type":"Feature","id":"F014:15_01","geometry":{"type":"Point","coordinates":[139.355163554368,35.7318042548774]},"properties":{"id":"F014:15_01","feed_id":"F014","feed_slug":"tachikawa-kururin","municipality":"立川市","service_name":"くるりん","license":"CC BY 4.0","source_stop_id":"15_01","stop_code":null,"stop_name":"西砂スポーツ広場北","stop_desc":null,"zone_id":"15_01","location_type":0,"parent_station":null,"wheelchair_boarding":null}},{"type":"Feature","id":"F014:15_02","geometry":{"type":"Point","coordinates":[139.355431663148,35.7316932174014]},"properties":{"id":"F014:15_02","feed_id":"F014","feed_slug":"tachikawa-kururin","municipality":"立川市","service_name":"くるりん","license":"CC BY 4.0","source_stop_id":"15_02","stop_code":null,"stop_name":"西砂スポーツ広場北","stop_desc":null,"zone_id":"15_02","location_type":0,"parent_station":null,"wheelchair_boarding":null}},{"type":"Feature","id":"F014:16_01","geometry":{"type":"Point","coordinates":[139.356745693775,35.7315411458928]},"properties":{"id":"F014:16_01","feed_id":"F014","feed_slug":"tachikawa-kururin","municipality":"立川市","service_name":"くるりん","license":"CC BY 4.0","source_stop_id":"16_01","stop_code":null,"stop_name":"中里","stop_desc":null,"zone_id":"16_01","location_type":0,"parent_station":null,"wheelchair_boarding":null}},{"type":"Feature","id":"F014:16_02","geometry":{"type":"Point","coordinates":[139.357294205523,35.7314061522009]},"properties":{"id":"F014:16_02","feed_id":"F014","feed_slug":"tachikawa-kururin","municipality":"立川市","service_name":"くるりん","license":"CC BY 4.0","source_stop_id":"16_02","stop_code":null,"stop_name":"中里","stop_desc":null,"zone_id":"16_02","location_type":0,"parent_station":null,"wheelchair_boarding":null}},{"type":"Feature","id":"F014:17_01","geometry":{"type":"Point","coordinates":[139.35964733135,35.7311087491643]},"properties":{"id":"F014:17_01","feed_id":"F014","feed_slug":"tachikawa-kururin","municipality":"立川市","service_name":"くるりん","license":"CC BY 4.0","source_stop_id":"17_01","stop_code":null,"stop_name":"西砂川","stop_desc":null,"zone_id":"17_01","location_type":0,"parent_station":null,"wheelchair_boarding":null}},{"type":"Feature","id":"F014:17_02","geometry":{"type":"Point","coordinates":[139.360620963572,35.7308929365644]},"properties":{"id":"F014:17_02","feed_id":"F014","feed_slug":"tachikawa-kururin","municipality":"立川市","service_name":"くるりん","license":"CC BY 4.0","source_stop_id":"17_02","stop_code":null,"stop_name":"西砂川","stop_desc":null,"zone_id":"17_02","location_type":0,"parent_station":null,"wheelchair_boarding":null}},{"type":"Feature","id":"F014:17_03","geometry":{"type":"Point","coordinates":[139.359823326023,35.7298813648919]},"properties":{"id":"F014:17_03","feed_id":"F014","feed_slug":"tachikawa-kururin","municipality":"立川市","service_name":"くるりん","license":"CC BY 4.0","source_stop_id":"17_03","stop_code":null,"stop_name":"西砂川","stop_desc":null,"zone_id":"17_03","location_type":0,"parent_station":null,"wheelchair_boarding":null}},{"type":"Feature","id":"F014:18_01","geometry":{"type":"Point","coordinates":[139.362187475731,35.7307199054576]},"properties":{"id":"F014:18_01","feed_id":"F014","feed_slug":"tachikawa-kururin","municipality":"立川市","service_name":"くるりん","license":"CC BY 4.0","source_stop_id":"18_01","stop_code":null,"stop_name":"西砂殿ヶ谷","stop_desc":null,"zone_id":"18_01","location_type":0,"parent_station":null,"wheelchair_boarding":null}},{"type":"Feature","id":"F014:18_02","geometry":{"type":"Point","coordinates":[139.362757899118,35.7305817808535]},"properties":{"id":"F014:18_02","feed_id":"F014","feed_slug":"tachikawa-kururin","municipality":"立川市","service_name":"くるりん","license":"CC BY 4.0","source_stop_id":"18_02","stop_code":null,"stop_name":"西砂殿ヶ谷","stop_desc":null,"zone_id":"18_02","location_type":0,"parent_station":null,"wheelchair_boarding":null}},{"type":"Feature","id":"F014:19_01","geometry":{"type":"Point","coordinates":[139.365634751306,35.7292189181846]},"properties":{"id":"F014:19_01","feed_id":"F014","feed_slug":"tachikawa-kururin","municipality":"立川市","service_name":"くるりん","license":"CC BY 4.0","source_stop_id":"19_01","stop_code":null,"stop_name":"西砂小学校","stop_desc":null,"zone_id":"19_01","location_type":0,"parent_station":null,"wheelchair_boarding":null}},{"type":"Feature","id":"F014:19_02","geometry":{"type":"Point","coordinates":[139.365551172059,35.7288570049624]},"properties":{"id":"F014:19_02","feed_id":"F014","feed_slug":"tachikawa-kururin","municipality":"立川市","service_name":"くるりん","license":"CC BY 4.0","source_stop_id":"19_02","stop_code":null,"stop_name":"西砂小学校","stop_desc":null,"zone_id":"19_02","location_type":0,"parent_station":null,"wheelchair_boarding":null}},{"type":"Feature","id":"F014:19_03","geometry":{"type":"Point","coordinates":[139.364785586235,35.7277329105411]},"properties":{"id":"F014:19_03","feed_id":"F014","feed_slug":"tachikawa-kururin","municipality":"立川市","service_name":"くるりん","license":"CC BY 4.0","source_stop_id":"19_03","stop_code":null,"stop_name":"西砂小学校","stop_desc":null,"zone_id":"19_03","location_type":0,"parent_station":null,"wheelchair_boarding":null}},{"type":"Feature","id":"F014:19_04","geometry":{"type":"Point","coordinates":[139.364950750701,35.7276700224057]},"properties":{"id":"F014:19_04","feed_id":"F014","feed_slug":"tachikawa-kururin","municipality":"立川市","service_name":"くるりん","license":"CC BY 4.0","source_stop_id":"19_04","stop_code":null,"stop_name":"西砂小学校","stop_desc":null,"zone_id":"19_04","location_type":0,"parent_station":null,"wheelchair_boarding":null}},{"type":"Feature","id":"F014:2_01","geometry":{"type":"Point","coordinates":[139.374555945057,35.7293581564151]},"properties":{"id":"F014:2_01","feed_id":"F014","feed_slug":"tachikawa-kururin","municipality":"立川市","service_name":"くるりん","license":"CC BY 4.0","source_stop_id":"2_01","stop_code":null,"stop_name":"松中","stop_desc":null,"zone_id":"2_01","location_type":0,"parent_station":null,"wheelchair_boarding":null}},{"type":"Feature","id":"F014:2_02","geometry":{"type":"Point","coordinates":[139.374710461823,35.7294482293379]},"properties":{"id":"F014:2_02","feed_id":"F014","feed_slug":"tachikawa-kururin","municipality":"立川市","service_name":"くるりん","license":"CC BY 4.0","source_stop_id":"2_02","stop_code":null,"stop_name":"松中","stop_desc":null,"zone_id":"2_02","location_type":0,"parent_station":null,"wheelchair_boarding":null}},{"type":"Feature","id":"F014:20_01","geometry":{"type":"Point","coordinates":[139.361460702208,35.7282648256554]},"properties":{"id":"F014:20_01","feed_id":"F014","feed_slug":"tachikawa-kururin","municipality":"立川市","service_name":"くるりん","license":"CC BY 4.0","source_stop_id":"20_01","stop_code":null,"stop_name":"西砂町二丁目","stop_desc":null,"zone_id":"20_01","location_type":0,"parent_station":null,"wheelchair_boarding":null}},{"type":"Feature","id":"F014:20_02","geometry":{"type":"Point","coordinates":[139.361706124336,35.7281592214271]},"properties":{"id":"F014:20_02","feed_id":"F014","feed_slug":"tachikawa-kururin","municipality":"立川市","service_name":"くるりん","license":"CC BY 4.0","source_stop_id":"20_02","stop_code":null,"stop_name":"西砂町二丁目","stop_desc":null,"zone_id":"20_02","location_type":0,"parent_station":null,"wheelchair_boarding":null}},{"type":"Feature","id":"F014:21_01","geometry":{"type":"Point","coordinates":[139.365691766393,35.7267024658957]},"properties":{"id":"F014:21_01","feed_id":"F014","feed_slug":"tachikawa-kururin","municipality":"立川市","service_name":"くるりん","license":"CC BY 4.0","source_stop_id":"21_01","stop_code":null,"stop_name":"西砂小東","stop_desc":null,"zone_id":"21_01","location_type":0,"parent_station":null,"wheelchair_boarding":null}},{"type":"Feature","id":"F014:21_02","geometry":{"type":"Point","coordinates":[139.365606694811,35.7263883221]},"properties":{"id":"F014:21_02","feed_id":"F014","feed_slug":"tachikawa-kururin","municipality":"立川市","service_name":"くるりん","license":"CC BY 4.0","source_stop_id":"21_02","stop_code":null,"stop_name":"西砂小東","stop_desc":null,"zone_id":"21_02","location_type":0,"parent_station":null,"wheelchair_boarding":null}},{"type":"Feature","id":"F014:22_01","geometry":{"type":"Point","coordinates":[139.365737965853,35.7253588330003]},"properties":{"id":"F014:22_01","feed_id":"F014","feed_slug":"tachikawa-kururin","municipality":"立川市","service_name":"くるりん","license":"CC BY 4.0","source_stop_id":"22_01","stop_code":null,"stop_name":"西武立川駅西","stop_desc":null,"zone_id":"22_01","location_type":0,"parent_station":null,"wheelchair_boarding":null}},{"type":"Feature","id":"F014:22_02","geometry":{"type":"Point","coordinates":[139.36566004906,35.7250453398916]},"properties":{"id":"F014:22_02","feed_id":"F014","feed_slug":"tachikawa-kururin","municipality":"立川市","service_name":"くるりん","license":"CC BY 4.0","source_stop_id":"22_02","stop_code":null,"stop_name":"西武立川駅西","stop_desc":null,"zone_id":"22_02","location_type":0,"parent_station":null,"wheelchair_boarding":null}},{"type":"Feature","id":"F014:23_01","geometry":{"type":"Point","coordinates":[139.370322708992,35.7258724860511]},"properties":{"id":"F014:23_01","feed_id":"F014","feed_slug":"tachikawa-kururin","municipality":"立川市","service_name":"くるりん","license":"CC BY 4.0","source_stop_id":"23_01","stop_code":null,"stop_name":"西武立川駅南口","stop_desc":null,"zone_id":"23_01","location_type":0,"parent_station":null,"wheelchair_boarding":null}},{"type":"Feature","id":"F014:24_01","geometry":{"type":"Point","coordinates":[139.365773607758,35.7240658330742]},"properties":{"id":"F014:24_01","feed_id":"F014","feed_slug":"tachikawa-kururin","municipality":"立川市","service_name":"くるりん","license":"CC BY 4.0","source_stop_id":"24_01","stop_code":null,"stop_name":"美堀橋","stop_desc":null,"zone_id":"24_01","location_type":0,"parent_station":null,"wheelchair_boarding":null}},{"type":"Feature","id":"F014:24_02","geometry":{"type":"Point","coordinates":[139.365690737584,35.7238275670392]},"properties":{"id":"F014:24_02","feed_id":"F014","feed_slug":"tachikawa-kururin","municipality":"立川市","service_name":"くるりん","license":"CC BY 4.0","source_stop_id":"24_02","stop_code":null,"stop_name":"美堀橋","stop_desc":null,"zone_id":"24_02","location_type":0,"parent_station":null,"wheelchair_boarding":null}},{"type":"Feature","id":"F014:25_01","geometry":{"type":"Point","coordinates":[139.363806797628,35.7178531389837]},"properties":{"id":"F014:25_01","feed_id":"F014","feed_slug":"tachikawa-kururin","municipality":"立川市","service_name":"くるりん","license":"CC BY 4.0","source_stop_id":"25_01","stop_code":null,"stop_name":"昭島代官山","stop_desc":null,"zone_id":"25_01","location_type":0,"parent_station":null,"wheelchair_boarding":null}},{"type":"Feature","id":"F014:25_02","geometry":{"type":"Point","coordinates":[139.363912416773,35.7179872365161]},"properties":{"id":"F014:25_02","feed_id":"F014","feed_slug":"tachikawa-kururin","municipality":"立川市","service_name":"くるりん","license":"CC BY 4.0","source_stop_id":"25_02","stop_code":null,"stop_name":"昭島代官山","stop_desc":null,"zone_id":"25_02","location_type":0,"parent_station":null,"wheelchair_boarding":null}},{"type":"Feature","id":"F014:26_01","geometry":{"type":"Point","coordinates":[139.360795417433,35.7140870142439]},"properties":{"id":"F014:26_01","feed_id":"F014","feed_slug":"tachikawa-kururin","municipality":"立川市","service_name":"くるりん","license":"CC BY 4.0","source_stop_id":"26_01","stop_code":null,"stop_name":"昭島駅北口","stop_desc":null,"zone_id":"26_01","location_type":0,"parent_station":null,"wheelchair_boarding":null}},{"type":"Feature","id":"F014:27_01","geometry":{"type":"Point","coordinates":[139.375998880802,35.7310161016047]},"properties":{"id":"F014:27_01","feed_id":"F014","feed_slug":"tachikawa-kururin","municipality":"立川市","service_name":"くるりん","license":"CC BY 4.0","source_stop_id":"27_01","stop_code":null,"stop_name":"松中団地","stop_desc":null,"zone_id":"27_01","location_type":0,"parent_station":null,"wheelchair_boarding":null}},{"type":"Feature","id":"F014:27_02","geometry":{"type":"Point","coordinates":[139.376566168016,35.7307765949323]},"properties":{"id":"F014:27_02","feed_id":"F014","feed_slug":"tachikawa-kururin","municipality":"立川市","service_name":"くるりん","license":"CC BY 4.0","source_stop_id":"27_02","stop_code":null,"stop_name":"松中団地","stop_desc":null,"zone_id":"27_02","location_type":0,"parent_station":null,"wheelchair_boarding":null}},{"type":"Feature","id":"F014:28_01","geometry":{"type":"Point","coordinates":[139.380271922144,35.7302463268992]},"properties":{"id":"F014:28_01","feed_id":"F014","feed_slug":"tachikawa-kururin","municipality":"立川市","service_name":"くるりん","license":"CC BY 4.0","source_stop_id":"28_01","stop_code":null,"stop_name":"天王橋団地","stop_desc":null,"zone_id":"28_01","location_type":0,"parent_station":null,"wheelchair_boarding":null}},{"type":"Feature","id":"F014:28_02","geometry":{"type":"Point","coordinates":[139.38026333353,35.7301169503694]},"properties":{"id":"F014:28_02","feed_id":"F014","feed_slug":"tachikawa-kururin","municipality":"立川市","service_name":"くるりん","license":"CC BY 4.0","source_stop_id":"28_02","stop_code":null,"stop_name":"天王橋団地","stop_desc":null,"zone_id":"28_02","location_type":0,"parent_station":null,"wheelchair_boarding":null}},{"type":"Feature","id":"F014:29_01","geometry":{"type":"Point","coordinates":[139.391888209054,35.7290496963693]},"properties":{"id":"F014:29_01","feed_id":"F014","feed_slug":"tachikawa-kururin","municipality":"立川市","service_name":"くるりん","license":"CC BY 4.0","source_stop_id":"29_01","stop_code":null,"stop_name":"武蔵砂川駅","stop_desc":null,"zone_id":"29_01","location_type":0,"parent_station":null,"wheelchair_boarding":null}},{"type":"Feature","id":"F014:3_01","geometry":{"type":"Point","coordinates":[139.375322224014,35.7322578110297]},"properties":{"id":"F014:3_01","feed_id":"F014","feed_slug":"tachikawa-kururin","municipality":"立川市","service_name":"くるりん","license":"CC BY 4.0","source_stop_id":"3_01","stop_code":null,"stop_name":"松中団地北","stop_desc":null,"zone_id":"3_01","location_type":0,"parent_station":null,"wheelchair_boarding":null}},{"type":"Feature","id":"F014:3_02","geometry":{"type":"Point","coordinates":[139.375359774941,35.731948634374]},"properties":{"id":"F014:3_02","feed_id":"F014","feed_slug":"tachikawa-kururin","municipality":"立川市","service_name":"くるりん","license":"CC BY 4.0","source_stop_id":"3_02","stop_code":null,"stop_name":"松中団地北","stop_desc":null,"zone_id":"3_02","location_type":0,"parent_station":null,"wheelchair_boarding":null}},{"type":"Feature","id":"F014:30_01","geometry":{"type":"Point","coordinates":[139.398017703358,35.7297182690813]},"properties":{"id":"F014:30_01","feed_id":"F014","feed_slug":"tachikawa-kururin","municipality":"立川市","service_name":"くるりん","license":"CC BY 4.0","source_stop_id":"30_01","stop_code":null,"stop_name":"砂川町八丁目南","stop_desc":null,"zone_id":"30_01","location_type":0,"parent_station":null,"wheelchair_boarding":null}},{"type":"Feature","id":"F014:31_01","geometry":{"type":"Point","coordinates":[139.401592820434,35.7301399678007]},"properties":{"id":"F014:31_01","feed_id":"F014","feed_slug":"tachikawa-kururin","municipality":"立川市","service_name":"くるりん","license":"CC BY 4.0","source_stop_id":"31_01","stop_code":null,"stop_name":"東航通り","stop_desc":null,"zone_id":"31_01","location_type":0,"parent_station":null,"wheelchair_boarding":null}},{"type":"Feature","id":"F014:32_01","geometry":{"type":"Point","coordinates":[139.40604014525,35.7306482545025]},"properties":{"id":"F014:32_01","feed_id":"F014","feed_slug":"tachikawa-kururin","municipality":"立川市","service_name":"くるりん","license":"CC BY 4.0","source_stop_id":"32_01","stop_code":null,"stop_name":"砂川町七丁目","stop_desc":null,"zone_id":"32_01","location_type":0,"parent_station":null,"wheelchair_boarding":null}},{"type":"Feature","id":"F014:33_01","geometry":{"type":"Point","coordinates":[139.407691000222,35.730840578298]},"properties":{"id":"F014:33_01","feed_id":"F014","feed_slug":"tachikawa-kururin","municipality":"立川市","service_name":"くるりん","license":"CC BY 4.0","source_stop_id":"33_01","stop_code":null,"stop_name":"砂川公園前","stop_desc":null,"zone_id":"33_01","location_type":0,"parent_station":null,"wheelchair_boarding":null}},{"type":"Feature","id":"F014:34_01","geometry":{"type":"Point","coordinates":[139.418254432671,35.7323716386244]},"properties":{"id":"F014:34_01","feed_id":"F014","feed_slug":"tachikawa-kururin","municipality":"立川市","service_name":"くるりん","license":"CC BY 4.0","source_stop_id":"34_01","stop_code":null,"stop_name":"玉川上水駅","stop_desc":null,"zone_id":"34_01","location_type":0,"parent_station":null,"wheelchair_boarding":null}},{"type":"Feature","id":"F014:35_01","geometry":{"type":"Point","coordinates":[139.418366275201,35.7287129918089]},"properties":{"id":"F014:35_01","feed_id":"F014","feed_slug":"tachikawa-kururin","municipality":"立川市","service_name":"くるりん","license":"CC BY 4.0","source_stop_id":"35_01","stop_code":null,"stop_name":"上水営業所","stop_desc":null,"zone_id":"35_01","location_type":0,"parent_station":null,"wheelchair_boarding":null}},{"type":"Feature","id":"F014:36_01","geometry":{"type":"Point","coordinates":[139.413005713628,35.6989157641159]},"properties":{"id":"F014:36_01","feed_id":"F014","feed_slug":"tachikawa-kururin","municipality":"立川市","service_name":"くるりん","license":"CC BY 4.0","source_stop_id":"36_01","stop_code":null,"stop_name":"立川駅北口","stop_desc":null,"zone_id":"36_01","location_type":0,"parent_station":null,"wheelchair_boarding":null}},{"type":"Feature","id":"F014:36_02","geometry":{"type":"Point","coordinates":[139.413266297847,35.6987266874365]},"properties":{"id":"F014:36_02","feed_id":"F014","feed_slug":"tachikawa-kururin","municipality":"立川市","service_name":"くるりん","license":"CC BY 4.0","source_stop_id":"36_02","stop_code":null,"stop_name":"立川駅北口","stop_desc":null,"zone_id":"36_02","location_type":0,"parent_station":null,"wheelchair_boarding":null}},{"type":"Feature","id":"F014:37_01","geometry":{"type":"Point","coordinates":[139.416005016283,35.7003886780938]},"properties":{"id":"F014:37_01","feed_id":"F014","feed_slug":"tachikawa-kururin","municipality":"立川市","service_name":"くるりん","license":"CC BY 4.0","source_stop_id":"37_01","stop_code":null,"stop_name":"緑川商店会","stop_desc":null,"zone_id":"37_01","location_type":0,"parent_station":null,"wheelchair_boarding":null}},{"type":"Feature","id":"F014:37_02","geometry":{"type":"Point","coordinates":[139.417087865134,35.7001192734147]},"properties":{"id":"F014:37_02","feed_id":"F014","feed_slug":"tachikawa-kururin","municipality":"立川市","service_name":"くるりん","license":"CC BY 4.0","source_stop_id":"37_02","stop_code":null,"stop_name":"緑川商店会","stop_desc":null,"zone_id":"37_02","location_type":0,"parent_station":null,"wheelchair_boarding":null}},{"type":"Feature","id":"F014:38_01","geometry":{"type":"Point","coordinates":[139.420234060343,35.7003635621213]},"properties":{"id":"F014:38_01","feed_id":"F014","feed_slug":"tachikawa-kururin","municipality":"立川市","service_name":"くるりん","license":"CC BY 4.0","source_stop_id":"38_01","stop_code":null,"stop_name":"二小南","stop_desc":null,"zone_id":"38_01","location_type":0,"parent_station":null,"wheelchair_boarding":null}},{"type":"Feature","id":"F014:39_01","geometry":{"type":"Point","coordinates":[139.422709977691,35.7000065447378]},"properties":{"id":"F014:39_01","feed_id":"F014","feed_slug":"tachikawa-kururin","municipality":"立川市","service_name":"くるりん","license":"CC BY 4.0","source_stop_id":"39_01","stop_code":null,"stop_name":"ぎょうせいデジタル前","stop_desc":null,"zone_id":"39_01","location_type":0,"parent_station":null,"wheelchair_boarding":null}},{"type":"Feature","id":"F014:4_01","geometry":{"type":"Point","coordinates":[139.377629434915,35.7329407167658]},"properties":{"id":"F014:4_01","feed_id":"F014","feed_slug":"tachikawa-kururin","municipality":"立川市","service_name":"くるりん","license":"CC BY 4.0","source_stop_id":"4_01","stop_code":null,"stop_name":"西砂児童館","stop_desc":null,"zone_id":"4_01","location_type":0,"parent_station":null,"wheelchair_boarding":null}},{"type":"Feature","id":"F014:4_02","geometry":{"type":"Point","coordinates":[139.377172371298,35.7326207687473]},"properties":{"id":"F014:4_02","feed_id":"F014","feed_slug":"tachikawa-kururin","municipality":"立川市","service_name":"くるりん","license":"CC BY 4.0","source_stop_id":"4_02","stop_code":null,"stop_name":"西砂児童館","stop_desc":null,"zone_id":"4_02","location_type":0,"parent_station":null,"wheelchair_boarding":null}},{"type":"Feature","id":"F014:40_01","geometry":{"type":"Point","coordinates":[139.424197356044,35.6995451739656]},"properties":{"id":"F014:40_01","feed_id":"F014","feed_slug":"tachikawa-kururin","municipality":"立川市","service_name":"くるりん","license":"CC BY 4.0","source_stop_id":"40_01","stop_code":null,"stop_name":"アートアベニュー立川","stop_desc":null,"zone_id":"40_01","location_type":0,"parent_station":null,"wheelchair_boarding":null}},{"type":"Feature","id":"F014:41_01","geometry":{"type":"Point","coordinates":[139.423238144721,35.6996098574101]},"properties":{"id":"F014:41_01","feed_id":"F014","feed_slug":"tachikawa-kururin","municipality":"立川市","service_name":"くるりん","license":"CC BY 4.0","source_stop_id":"41_01","stop_code":null,"stop_name":"東京ガス前","stop_desc":null,"zone_id":"41_01","location_type":0,"parent_station":null,"wheelchair_boarding":null}},{"type":"Feature","id":"F014:42_01","geometry":{"type":"Point","coordinates":[139.420393962241,35.7001337275888]},"properties":{"id":"F014:42_01","feed_id":"F014","feed_slug":"tachikawa-kururin","municipality":"立川市","service_name":"くるりん","license":"CC BY 4.0","source_stop_id":"42_01","stop_code":null,"stop_name":"曙三西公園南","stop_desc":null,"zone_id":"42_01","location_type":0,"parent_station":null,"wheelchair_boarding":null}},{"type":"Feature","id":"F014:43_01","geometry":{"type":"Point","coordinates":[139.413297769069,35.6972315565774]},"properties":{"id":"F014:43_01","feed_id":"F014","feed_slug":"tachikawa-kururin","municipality":"立川市","service_name":"くるりん","license":"CC BY 4.0","source_stop_id":"43_01","stop_code":null,"stop_name":"立川駅南口","stop_desc":null,"zone_id":"43_01","location_type":0,"parent_station":null,"wheelchair_boarding":null}},{"type":"Feature","id":"F014:44_01","geometry":{"type":"Point","coordinates":[139.414989145985,35.693930668062]},"properties":{"id":"F014:44_01","feed_id":"F014","feed_slug":"tachikawa-kururin","municipality":"立川市","service_name":"くるりん","license":"CC BY 4.0","source_stop_id":"44_01","stop_code":null,"stop_name":"錦中央通り","stop_desc":null,"zone_id":"44_01","location_type":0,"parent_station":null,"wheelchair_boarding":null}},{"type":"Feature","id":"F014:44_02","geometry":{"type":"Point","coordinates":[139.414956172976,35.6940246683227]},"properties":{"id":"F014:44_02","feed_id":"F014","feed_slug":"tachikawa-kururin","municipality":"立川市","service_name":"くるりん","license":"CC BY 4.0","source_stop_id":"44_02","stop_code":null,"stop_name":"錦中央通り","stop_desc":null,"zone_id":"44_02","location_type":0,"parent_station":null,"wheelchair_boarding":null}},{"type":"Feature","id":"F014:45_01","geometry":{"type":"Point","coordinates":[139.414069029424,35.6921962120008]},"properties":{"id":"F014:45_01","feed_id":"F014","feed_slug":"tachikawa-kururin","municipality":"立川市","service_name":"くるりん","license":"CC BY 4.0","source_stop_id":"45_01","stop_code":null,"stop_name":"立川年金事務所","stop_desc":null,"zone_id":"45_01","location_type":0,"parent_station":null,"wheelchair_boarding":null}},{"type":"Feature","id":"F014:45_02","geometry":{"type":"Point","coordinates":[139.41396,35.69214]},"properties":{"id":"F014:45_02","feed_id":"F014","feed_slug":"tachikawa-kururin","municipality":"立川市","service_name":"くるりん","license":"CC BY 4.0","source_stop_id":"45_02","stop_code":null,"stop_name":"立川年金事務所","stop_desc":null,"zone_id":"45_02","location_type":0,"parent_station":null,"wheelchair_boarding":null}},{"type":"Feature","id":"F014:46_01","geometry":{"type":"Point","coordinates":[139.41326,35.69066]},"properties":{"id":"F014:46_01","feed_id":"F014","feed_slug":"tachikawa-kururin","municipality":"立川市","service_name":"くるりん","license":"CC BY 4.0","source_stop_id":"46_01","stop_code":null,"stop_name":"錦町五丁目","stop_desc":null,"zone_id":"46_01","location_type":0,"parent_station":null,"wheelchair_boarding":null}},{"type":"Feature","id":"F014:46_02","geometry":{"type":"Point","coordinates":[139.413134185879,35.6905883929957]},"properties":{"id":"F014:46_02","feed_id":"F014","feed_slug":"tachikawa-kururin","municipality":"立川市","service_name":"くるりん","license":"CC BY 4.0","source_stop_id":"46_02","stop_code":null,"stop_name":"錦町五丁目","stop_desc":null,"zone_id":"46_02","location_type":0,"parent_station":null,"wheelchair_boarding":null}},{"type":"Feature","id":"F014:47_01","geometry":{"type":"Point","coordinates":[139.41095,35.68768]},"properties":{"id":"F014:47_01","feed_id":"F014","feed_slug":"tachikawa-kururin","municipality":"立川市","service_name":"くるりん","license":"CC BY 4.0","source_stop_id":"47_01","stop_code":null,"stop_name":"柴崎体育館","stop_desc":null,"zone_id":"47_01","location_type":0,"parent_station":null,"wheelchair_boarding":null}},{"type":"Feature","id":"F014:48_01","geometry":{"type":"Point","coordinates":[139.41243,35.687]},"properties":{"id":"F014:48_01","feed_id":"F014","feed_slug":"tachikawa-kururin","municipality":"立川市","service_name":"くるりん","license":"CC BY 4.0","source_stop_id":"48_01","stop_code":null,"stop_name":"柴崎市民体育館南","stop_desc":null,"zone_id":"48_01","location_type":0,"parent_station":null,"wheelchair_boarding":null}},{"type":"Feature","id":"F014:49_01","geometry":{"type":"Point","coordinates":[139.41596,35.68757]},"properties":{"id":"F014:49_01","feed_id":"F014","feed_slug":"tachikawa-kururin","municipality":"立川市","service_name":"くるりん","license":"CC BY 4.0","source_stop_id":"49_01","stop_code":null,"stop_name":"錦町六丁目西","stop_desc":null,"zone_id":"49_01","location_type":0,"parent_station":null,"wheelchair_boarding":null}},{"type":"Feature","id":"F014:49_02","geometry":{"type":"Point","coordinates":[139.41584,35.68758]},"properties":{"id":"F014:49_02","feed_id":"F014","feed_slug":"tachikawa-kururin","municipality":"立川市","service_name":"くるりん","license":"CC BY 4.0","source_stop_id":"49_02","stop_code":null,"stop_name":"錦町六丁目西","stop_desc":null,"zone_id":"49_02","location_type":0,"parent_station":null,"wheelchair_boarding":null}},{"type":"Feature","id":"F014:5_01","geometry":{"type":"Point","coordinates":[139.377317420596,35.7348199141949]},"properties":{"id":"F014:5_01","feed_id":"F014","feed_slug":"tachikawa-kururin","municipality":"立川市","service_name":"くるりん","license":"CC BY 4.0","source_stop_id":"5_01","stop_code":null,"stop_name":"立川一番町東住宅","stop_desc":null,"zone_id":"5_01","location_type":0,"parent_station":null,"wheelchair_boarding":null}},{"type":"Feature","id":"F014:5_02","geometry":{"type":"Point","coordinates":[139.376939325533,35.7350436054489]},"properties":{"id":"F014:5_02","feed_id":"F014","feed_slug":"tachikawa-kururin","municipality":"立川市","service_name":"くるりん","license":"CC BY 4.0","source_stop_id":"5_02","stop_code":null,"stop_name":"立川一番町東住宅","stop_desc":null,"zone_id":"5_02","location_type":0,"parent_station":null,"wheelchair_boarding":null}},{"type":"Feature","id":"F014:50_01","geometry":{"type":"Point","coordinates":[139.41882,35.68657]},"properties":{"id":"F014:50_01","feed_id":"F014","feed_slug":"tachikawa-kururin","municipality":"立川市","service_name":"くるりん","license":"CC BY 4.0","source_stop_id":"50_01","stop_code":null,"stop_name":"錦町六丁目東","stop_desc":null,"zone_id":"50_01","location_type":0,"parent_station":null,"wheelchair_boarding":null}},{"type":"Feature","id":"F014:50_02","geometry":{"type":"Point","coordinates":[139.41849,35.68689]},"properties":{"id":"F014:50_02","feed_id":"F014","feed_slug":"tachikawa-kururin","municipality":"立川市","service_name":"くるりん","license":"CC BY 4.0","source_stop_id":"50_02","stop_code":null,"stop_name":"錦町六丁目東","stop_desc":null,"zone_id":"50_02","location_type":0,"parent_station":null,"wheelchair_boarding":null}},{"type":"Feature","id":"F014:51_01","geometry":{"type":"Point","coordinates":[139.42037,35.68838]},"properties":{"id":"F014:51_01","feed_id":"F014","feed_slug":"tachikawa-kururin","municipality":"立川市","service_name":"くるりん","license":"CC BY 4.0","source_stop_id":"51_01","stop_code":null,"stop_name":"元多摩教育センター東","stop_desc":null,"zone_id":"51_01","location_type":0,"parent_station":null,"wheelchair_boarding":null}},{"type":"Feature","id":"F014:52_01","geometry":{"type":"Point","coordinates":[139.42158,35.69061]},"properties":{"id":"F014:52_01","feed_id":"F014","feed_slug":"tachikawa-kururin","municipality":"立川市","service_name":"くるりん","license":"CC BY 4.0","source_stop_id":"52_01","stop_code":null,"stop_name":"錦町四丁目東","stop_desc":null,"zone_id":"52_01","location_type":0,"parent_station":null,"wheelchair_boarding":null}},{"type":"Feature","id":"F014:53_01","geometry":{"type":"Point","coordinates":[139.423788988265,35.691009339956]},"properties":{"id":"F014:53_01","feed_id":"F014","feed_slug":"tachikawa-kururin","municipality":"立川市","service_name":"くるりん","license":"CC BY 4.0","source_stop_id":"53_01","stop_code":null,"stop_name":"立川病院東","stop_desc":null,"zone_id":"53_01","location_type":0,"parent_station":null,"wheelchair_boarding":null}},{"type":"Feature","id":"F014:54_01","geometry":{"type":"Point","coordinates":[139.421678324656,35.6922532368688]},"properties":{"id":"F014:54_01","feed_id":"F014","feed_slug":"tachikawa-kururin","municipality":"立川市","service_name":"くるりん","license":"CC BY 4.0","source_stop_id":"54_01","stop_code":null,"stop_name":"立川病院","stop_desc":null,"zone_id":"54_01","location_type":0,"parent_station":null,"wheelchair_boarding":null}},{"type":"Feature","id":"F014:55_01","geometry":{"type":"Point","coordinates":[139.42054,35.69069]},"properties":{"id":"F014:55_01","feed_id":"F014","feed_slug":"tachikawa-kururin","municipality":"立川市","service_name":"くるりん","license":"CC BY 4.0","source_stop_id":"55_01","stop_code":null,"stop_name":"錦町四丁目","stop_desc":null,"zone_id":"55_01","location_type":0,"parent_station":null,"wheelchair_boarding":null}},{"type":"Feature","id":"F014:56_01","geometry":{"type":"Point","coordinates":[139.41947,35.68874]},"properties":{"id":"F014:56_01","feed_id":"F014","feed_slug":"tachikawa-kururin","municipality":"立川市","service_name":"くるりん","license":"CC BY 4.0","source_stop_id":"56_01","stop_code":null,"stop_name":"元多摩教育センター","stop_desc":null,"zone_id":"56_01","location_type":0,"parent_station":null,"wheelchair_boarding":null}},{"type":"Feature","id":"F014:57_01","geometry":{"type":"Point","coordinates":[139.413399012773,35.6882922996127]},"properties":{"id":"F014:57_01","feed_id":"F014","feed_slug":"tachikawa-kururin","municipality":"立川市","service_name":"くるりん","license":"CC BY 4.0","source_stop_id":"57_01","stop_code":null,"stop_name":"柴崎体育館東","stop_desc":null,"zone_id":"57_01","location_type":0,"parent_station":null,"wheelchair_boarding":null}},{"type":"Feature","id":"F014:6_02","geometry":{"type":"Point","coordinates":[139.37465945609,35.7354524316982]},"properties":{"id":"F014:6_02","feed_id":"F014","feed_slug":"tachikawa-kururin","municipality":"立川市","service_name":"くるりん","license":"CC BY 4.0","source_stop_id":"6_02","stop_code":null,"stop_name":"エステート立川中央","stop_desc":null,"zone_id":"6_02","location_type":0,"parent_station":null,"wheelchair_boarding":null}},{"type":"Feature","id":"F014:7_01","geometry":{"type":"Point","coordinates":[139.374419166708,35.7330633865418]},"properties":{"id":"F014:7_01","feed_id":"F014","feed_slug":"tachikawa-kururin","municipality":"立川市","service_name":"くるりん","license":"CC BY 4.0","source_stop_id":"7_01","stop_code":null,"stop_name":"松中団地操車場","stop_desc":null,"zone_id":"7_01","location_type":0,"parent_station":null,"wheelchair_boarding":null}},{"type":"Feature","id":"F014:8_01","geometry":{"type":"Point","coordinates":[139.373454068501,35.7337060108471]},"properties":{"id":"F014:8_01","feed_id":"F014","feed_slug":"tachikawa-kururin","municipality":"立川市","service_name":"くるりん","license":"CC BY 4.0","source_stop_id":"8_01","stop_code":null,"stop_name":"一番福祉会館","stop_desc":null,"zone_id":"8_01","location_type":0,"parent_station":null,"wheelchair_boarding":null}},{"type":"Feature","id":"F014:8_02","geometry":{"type":"Point","coordinates":[139.373120525599,35.7339468905812]},"properties":{"id":"F014:8_02","feed_id":"F014","feed_slug":"tachikawa-kururin","municipality":"立川市","service_name":"くるりん","license":"CC BY 4.0","source_stop_id":"8_02","stop_code":null,"stop_name":"一番福祉会館","stop_desc":null,"zone_id":"8_02","location_type":0,"parent_station":null,"wheelchair_boarding":null}},{"type":"Feature","id":"F014:9_01","geometry":{"type":"Point","coordinates":[139.371279724929,35.7330393037809]},"properties":{"id":"F014:9_01","feed_id":"F014","feed_slug":"tachikawa-kururin","municipality":"立川市","service_name":"くるりん","license":"CC BY 4.0","source_stop_id":"9_01","stop_code":null,"stop_name":"西砂町六丁目","stop_desc":null,"zone_id":"9_01","location_type":0,"parent_station":null,"wheelchair_boarding":null}},{"type":"Feature","id":"F014:9_02","geometry":{"type":"Point","coordinates":[139.371271750223,35.7333175268281]},"properties":{"id":"F014:9_02","feed_id":"F014","feed_slug":"tachikawa-kururin","municipality":"立川市","service_name":"くるりん","license":"CC BY 4.0","source_stop_id":"9_02","stop_code":null,"stop_name":"西砂町六丁目","stop_desc":null,"zone_id":"9_02","location_type":0,"parent_station":null,"wheelchair_boarding":null}}]}
