{"type":"FeatureCollection","name":"kiyose-kiyobus_routes","features":[{"type":"Feature","id":"F013:333001:fallback-0","geometry":{"type":"LineString","coordinates":[[139.51988,35.77157],[139.51764,35.77258],[139.51424,35.77122],[139.51107,35.77387],[139.50512,35.77411],[139.50312,35.77433],[139.50195,35.77578],[139.50122,35.77812],[139.49952,35.77822],[139.49705,35.77879],[139.49983,35.77828],[139.50127,35.78203],[139.50572,35.78043],[139.50816,35.78166],[139.50966,35.77896],[139.51018,35.77691],[139.51405,35.77595],[139.51596,35.7762],[139.5182,35.776],[139.51939,35.77452],[139.52046,35.77223]]},"properties":{"id":"F013:333001:fallback-0","feed_id":"F013","feed_slug":"kiyose-kiyobus","municipality":"清瀬市","service_name":"きよバス","license":"CC BY 4.0","source_route_id":"333001","route_short_name":null,"route_long_name":"志木街道経由","route_desc":null,"route_type":3,"route_url":null,"route_color":"CC0033","route_text_color":"FFFFFF","directions":["0"],"geometry_source":"stop_times.txt fallback"}},{"type":"Feature","id":"F013:333001:fallback-1","geometry":{"type":"LineString","coordinates":[[139.52046,35.77223],[139.51808,35.77599],[139.5155,35.776],[139.51356,35.77577],[139.5102,35.77655],[139.50951,35.77913],[139.50854,35.78181],[139.50564,35.78003],[139.50127,35.78203],[139.49952,35.77822],[139.49705,35.77879],[139.49983,35.77828],[139.50168,35.77816],[139.50208,35.77563],[139.50303,35.77443],[139.50574,35.7742],[139.51081,35.77422],[139.51428,35.7713],[139.51848,35.77233],[139.51988,35.77157]]},"properties":{"id":"F013:333001:fallback-1","feed_id":"F013","feed_slug":"kiyose-kiyobus","municipality":"清瀬市","service_name":"きよバス","license":"CC BY 4.0","source_route_id":"333001","route_short_name":null,"route_long_name":"志木街道経由","route_desc":null,"route_type":3,"route_url":null,"route_color":"CC0033","route_text_color":"FFFFFF","directions":["1"],"geometry_source":"stop_times.txt fallback"}},{"type":"Feature","id":"F013:333002:fallback-0","geometry":{"type":"LineString","coordinates":[[139.51988,35.77157],[139.51764,35.77258],[139.51424,35.77122],[139.51179,35.77229],[139.50943,35.77112],[139.5096,35.76988],[139.51121,35.7674],[139.50746,35.76595],[139.50434,35.764],[139.50218,35.76764],[139.50115,35.77021],[139.50047,35.772],[139.50118,35.77454],[139.50195,35.77578],[139.50122,35.77812],[139.49952,35.77822],[139.49705,35.77879],[139.49983,35.77828],[139.50127,35.78203],[139.50572,35.78043],[139.50816,35.78166],[139.50966,35.77896],[139.51018,35.77691],[139.51405,35.77595],[139.51596,35.7762],[139.5182,35.776],[139.51939,35.77452],[139.52046,35.77223]]},"properties":{"id":"F013:333002:fallback-0","feed_id":"F013","feed_slug":"kiyose-kiyobus","municipality":"清瀬市","service_name":"きよバス","license":"CC BY 4.0","source_route_id":"333002","route_short_name":null,"route_long_name":"緑蔭通り経由","route_desc":null,"route_type":3,"route_url":null,"route_color":"000080","route_text_color":"FFFFFF","directions":["0"],"geometry_source":"stop_times.txt fallback"}},{"type":"Feature","id":"F013:333002:fallback-1","geometry":{"type":"LineString","coordinates":[[139.52046,35.77223],[139.51808,35.77599],[139.5155,35.776],[139.51356,35.77577],[139.5102,35.77655],[139.50951,35.77913],[139.50854,35.78181],[139.50564,35.78003],[139.50127,35.78203],[139.49952,35.77822],[139.49705,35.77879],[139.49983,35.77828],[139.50168,35.77816],[139.50208,35.77563],[139.50139,35.77445],[139.50062,35.77171],[139.50125,35.77014],[139.50233,35.76741],[139.50459,35.76418],[139.50759,35.76626],[139.51141,35.76733],[139.5092,35.77003],[139.50873,35.77102],[139.5115,35.77223],[139.51428,35.7713],[139.51848,35.77233],[139.51988,35.77157]]},"properties":{"id":"F013:333002:fallback-1","feed_id":"F013","feed_slug":"kiyose-kiyobus","municipality":"清瀬市","service_name":"きよバス","license":"CC BY 4.0","source_route_id":"333002","route_short_name":null,"route_long_name":"緑蔭通り経由","route_desc":null,"route_type":3,"route_url":null,"route_color":"000080","route_text_color":"FFFFFF","directions":["1"],"geometry_source":"stop_times.txt fallback"}}]}
