{"type":"FeatureCollection","name":"kiyose-kiyobus_stops","features":[{"type":"Feature","id":"F013:100191-01","geometry":{"type":"Point","coordinates":[139.5155,35.776]},"properties":{"id":"F013:100191-01","feed_id":"F013","feed_slug":"kiyose-kiyobus","municipality":"清瀬市","service_name":"きよバス","license":"CC BY 4.0","source_stop_id":"100191-01","stop_code":null,"stop_name":"元町二丁目","stop_desc":null,"zone_id":"100191-01","location_type":0,"parent_station":null,"wheelchair_boarding":null}},{"type":"Feature","id":"F013:100191-02","geometry":{"type":"Point","coordinates":[139.51596,35.7762]},"properties":{"id":"F013:100191-02","feed_id":"F013","feed_slug":"kiyose-kiyobus","municipality":"清瀬市","service_name":"きよバス","license":"CC BY 4.0","source_stop_id":"100191-02","stop_code":null,"stop_name":"元町二丁目","stop_desc":null,"zone_id":"100191-02","location_type":0,"parent_station":null,"wheelchair_boarding":null}},{"type":"Feature","id":"F013:100192-01","geometry":{"type":"Point","coordinates":[139.51356,35.77577]},"properties":{"id":"F013:100192-01","feed_id":"F013","feed_slug":"kiyose-kiyobus","municipality":"清瀬市","service_name":"きよバス","license":"CC BY 4.0","source_stop_id":"100192-01","stop_code":null,"stop_name":"芝山小学校東","stop_desc":null,"zone_id":"100192-01","location_type":0,"parent_station":null,"wheelchair_boarding":null}},{"type":"Feature","id":"F013:100192-02","geometry":{"type":"Point","coordinates":[139.51405,35.77595]},"properties":{"id":"F013:100192-02","feed_id":"F013","feed_slug":"kiyose-kiyobus","municipality":"清瀬市","service_name":"きよバス","license":"CC BY 4.0","source_stop_id":"100192-02","stop_code":null,"stop_name":"芝山小学校東","stop_desc":null,"zone_id":"100192-02","location_type":0,"parent_station":null,"wheelchair_boarding":null}},{"type":"Feature","id":"F013:100193-01","geometry":{"type":"Point","coordinates":[139.5102,35.77655]},"properties":{"id":"F013:100193-01","feed_id":"F013","feed_slug":"kiyose-kiyobus","municipality":"清瀬市","service_name":"きよバス","license":"CC BY 4.0","source_stop_id":"100193-01","stop_code":null,"stop_name":"中里一丁目","stop_desc":null,"zone_id":"100193-01","location_type":0,"parent_station":null,"wheelchair_boarding":null}},{"type":"Feature","id":"F013:100193-02","geometry":{"type":"Point","coordinates":[139.51018,35.77691]},"properties":{"id":"F013:100193-02","feed_id":"F013","feed_slug":"kiyose-kiyobus","municipality":"清瀬市","service_name":"きよバス","license":"CC BY 4.0","source_stop_id":"100193-02","stop_code":null,"stop_name":"中里一丁目","stop_desc":null,"zone_id":"100193-02","location_type":0,"parent_station":null,"wheelchair_boarding":null}},{"type":"Feature","id":"F013:100194-01","geometry":{"type":"Point","coordinates":[139.50951,35.77913]},"properties":{"id":"F013:100194-01","feed_id":"F013","feed_slug":"kiyose-kiyobus","municipality":"清瀬市","service_name":"きよバス","license":"CC BY 4.0","source_stop_id":"100194-01","stop_code":null,"stop_name":"第四中学校東","stop_desc":null,"zone_id":"100194-01","location_type":0,"parent_station":null,"wheelchair_boarding":null}},{"type":"Feature","id":"F013:100194-02","geometry":{"type":"Point","coordinates":[139.50966,35.77896]},"properties":{"id":"F013:100194-02","feed_id":"F013","feed_slug":"kiyose-kiyobus","municipality":"清瀬市","service_name":"きよバス","license":"CC BY 4.0","source_stop_id":"100194-02","stop_code":null,"stop_name":"第四中学校東","stop_desc":null,"zone_id":"100194-02","location_type":0,"parent_station":null,"wheelchair_boarding":null}},{"type":"Feature","id":"F013:100195-01","geometry":{"type":"Point","coordinates":[139.50854,35.78181]},"properties":{"id":"F013:100195-01","feed_id":"F013","feed_slug":"kiyose-kiyobus","municipality":"清瀬市","service_name":"きよバス","license":"CC BY 4.0","source_stop_id":"100195-01","stop_code":null,"stop_name":"第四小学校西","stop_desc":null,"zone_id":"100195-01","location_type":0,"parent_station":null,"wheelchair_boarding":null}},{"type":"Feature","id":"F013:100195-02","geometry":{"type":"Point","coordinates":[139.50816,35.78166]},"properties":{"id":"F013:100195-02","feed_id":"F013","feed_slug":"kiyose-kiyobus","municipality":"清瀬市","service_name":"きよバス","license":"CC BY 4.0","source_stop_id":"100195-02","stop_code":null,"stop_name":"第四小学校西","stop_desc":null,"zone_id":"100195-02","location_type":0,"parent_station":null,"wheelchair_boarding":null}},{"type":"Feature","id":"F013:100196-01","geometry":{"type":"Point","coordinates":[139.50564,35.78003]},"properties":{"id":"F013:100196-01","feed_id":"F013","feed_slug":"kiyose-kiyobus","municipality":"清瀬市","service_name":"きよバス","license":"CC BY 4.0","source_stop_id":"100196-01","stop_code":null,"stop_name":"明治薬科大学","stop_desc":null,"zone_id":"100196-01","location_type":0,"parent_station":null,"wheelchair_boarding":null}},{"type":"Feature","id":"F013:100196-02","geometry":{"type":"Point","coordinates":[139.50572,35.78043]},"properties":{"id":"F013:100196-02","feed_id":"F013","feed_slug":"kiyose-kiyobus","municipality":"清瀬市","service_name":"きよバス","license":"CC BY 4.0","source_stop_id":"100196-02","stop_code":null,"stop_name":"明治薬科大学","stop_desc":null,"zone_id":"100196-02","location_type":0,"parent_station":null,"wheelchair_boarding":null}},{"type":"Feature","id":"F013:100197-01","geometry":{"type":"Point","coordinates":[139.50127,35.78203]},"properties":{"id":"F013:100197-01","feed_id":"F013","feed_slug":"kiyose-kiyobus","municipality":"清瀬市","service_name":"きよバス","license":"CC BY 4.0","source_stop_id":"100197-01","stop_code":null,"stop_name":"野塩団地","stop_desc":null,"zone_id":"100197-01","location_type":0,"parent_station":null,"wheelchair_boarding":null}},{"type":"Feature","id":"F013:100198-01","geometry":{"type":"Point","coordinates":[139.49983,35.77828]},"properties":{"id":"F013:100198-01","feed_id":"F013","feed_slug":"kiyose-kiyobus","municipality":"清瀬市","service_name":"きよバス","license":"CC BY 4.0","source_stop_id":"100198-01","stop_code":null,"stop_name":"野塩市民センター南","stop_desc":null,"zone_id":"100198-01","location_type":0,"parent_station":null,"wheelchair_boarding":null}},{"type":"Feature","id":"F013:100198-02","geometry":{"type":"Point","coordinates":[139.49952,35.77822]},"properties":{"id":"F013:100198-02","feed_id":"F013","feed_slug":"kiyose-kiyobus","municipality":"清瀬市","service_name":"きよバス","license":"CC BY 4.0","source_stop_id":"100198-02","stop_code":null,"stop_name":"野塩市民センター南","stop_desc":null,"zone_id":"100198-02","location_type":0,"parent_station":null,"wheelchair_boarding":null}},{"type":"Feature","id":"F013:100199-01","geometry":{"type":"Point","coordinates":[139.50168,35.77816]},"properties":{"id":"F013:100199-01","feed_id":"F013","feed_slug":"kiyose-kiyobus","municipality":"清瀬市","service_name":"きよバス","license":"CC BY 4.0","source_stop_id":"100199-01","stop_code":null,"stop_name":"野塩郵便局東","stop_desc":null,"zone_id":"100199-01","location_type":0,"parent_station":null,"wheelchair_boarding":null}},{"type":"Feature","id":"F013:100199-02","geometry":{"type":"Point","coordinates":[139.50122,35.77812]},"properties":{"id":"F013:100199-02","feed_id":"F013","feed_slug":"kiyose-kiyobus","municipality":"清瀬市","service_name":"きよバス","license":"CC BY 4.0","source_stop_id":"100199-02","stop_code":null,"stop_name":"野塩郵便局東","stop_desc":null,"zone_id":"100199-02","location_type":0,"parent_station":null,"wheelchair_boarding":null}},{"type":"Feature","id":"F013:100200-01","geometry":{"type":"Point","coordinates":[139.50208,35.77563]},"properties":{"id":"F013:100200-01","feed_id":"F013","feed_slug":"kiyose-kiyobus","municipality":"清瀬市","service_name":"きよバス","license":"CC BY 4.0","source_stop_id":"100200-01","stop_code":null,"stop_name":"野塩四丁目","stop_desc":null,"zone_id":"100200-01","location_type":0,"parent_station":null,"wheelchair_boarding":null}},{"type":"Feature","id":"F013:100200-02","geometry":{"type":"Point","coordinates":[139.50195,35.77578]},"properties":{"id":"F013:100200-02","feed_id":"F013","feed_slug":"kiyose-kiyobus","municipality":"清瀬市","service_name":"きよバス","license":"CC BY 4.0","source_stop_id":"100200-02","stop_code":null,"stop_name":"野塩四丁目","stop_desc":null,"zone_id":"100200-02","location_type":0,"parent_station":null,"wheelchair_boarding":null}},{"type":"Feature","id":"F013:100201-01","geometry":{"type":"Point","coordinates":[139.50139,35.77445]},"properties":{"id":"F013:100201-01","feed_id":"F013","feed_slug":"kiyose-kiyobus","municipality":"清瀬市","service_name":"きよバス","license":"CC BY 4.0","source_stop_id":"100201-01","stop_code":null,"stop_name":"東星学園","stop_desc":null,"zone_id":"100201-01","location_type":0,"parent_station":null,"wheelchair_boarding":null}},{"type":"Feature","id":"F013:100201-02","geometry":{"type":"Point","coordinates":[139.50118,35.77454]},"properties":{"id":"F013:100201-02","feed_id":"F013","feed_slug":"kiyose-kiyobus","municipality":"清瀬市","service_name":"きよバス","license":"CC BY 4.0","source_stop_id":"100201-02","stop_code":null,"stop_name":"東星学園","stop_desc":null,"zone_id":"100201-02","location_type":0,"parent_station":null,"wheelchair_boarding":null}},{"type":"Feature","id":"F013:100202-01","geometry":{"type":"Point","coordinates":[139.50062,35.77171]},"properties":{"id":"F013:100202-01","feed_id":"F013","feed_slug":"kiyose-kiyobus","municipality":"清瀬市","service_name":"きよバス","license":"CC BY 4.0","source_stop_id":"100202-01","stop_code":null,"stop_name":"ベトレヘム","stop_desc":null,"zone_id":"100202-01","location_type":0,"parent_station":null,"wheelchair_boarding":null}},{"type":"Feature","id":"F013:100202-02","geometry":{"type":"Point","coordinates":[139.50047,35.772]},"properties":{"id":"F013:100202-02","feed_id":"F013","feed_slug":"kiyose-kiyobus","municipality":"清瀬市","service_name":"きよバス","license":"CC BY 4.0","source_stop_id":"100202-02","stop_code":null,"stop_name":"ベトレヘム","stop_desc":null,"zone_id":"100202-02","location_type":0,"parent_station":null,"wheelchair_boarding":null}},{"type":"Feature","id":"F013:100203-01","geometry":{"type":"Point","coordinates":[139.50125,35.77014]},"properties":{"id":"F013:100203-01","feed_id":"F013","feed_slug":"kiyose-kiyobus","municipality":"清瀬市","service_name":"きよバス","license":"CC BY 4.0","source_stop_id":"100203-01","stop_code":null,"stop_name":"梅園三丁目","stop_desc":null,"zone_id":"100203-01","location_type":0,"parent_station":null,"wheelchair_boarding":null}},{"type":"Feature","id":"F013:100203-02","geometry":{"type":"Point","coordinates":[139.50115,35.77021]},"properties":{"id":"F013:100203-02","feed_id":"F013","feed_slug":"kiyose-kiyobus","municipality":"清瀬市","service_name":"きよバス","license":"CC BY 4.0","source_stop_id":"100203-02","stop_code":null,"stop_name":"梅園三丁目","stop_desc":null,"zone_id":"100203-02","location_type":0,"parent_station":null,"wheelchair_boarding":null}},{"type":"Feature","id":"F013:100204-01","geometry":{"type":"Point","coordinates":[139.50233,35.76741]},"properties":{"id":"F013:100204-01","feed_id":"F013","feed_slug":"kiyose-kiyobus","municipality":"清瀬市","service_name":"きよバス","license":"CC BY 4.0","source_stop_id":"100204-01","stop_code":null,"stop_name":"上宮病院","stop_desc":null,"zone_id":"100204-01","location_type":0,"parent_station":null,"wheelchair_boarding":null}},{"type":"Feature","id":"F013:100204-02","geometry":{"type":"Point","coordinates":[139.50218,35.76764]},"properties":{"id":"F013:100204-02","feed_id":"F013","feed_slug":"kiyose-kiyobus","municipality":"清瀬市","service_name":"きよバス","license":"CC BY 4.0","source_stop_id":"100204-02","stop_code":null,"stop_name":"上宮病院","stop_desc":null,"zone_id":"100204-02","location_type":0,"parent_station":null,"wheelchair_boarding":null}},{"type":"Feature","id":"F013:100205-01","geometry":{"type":"Point","coordinates":[139.50459,35.76418]},"properties":{"id":"F013:100205-01","feed_id":"F013","feed_slug":"kiyose-kiyobus","municipality":"清瀬市","service_name":"きよバス","license":"CC BY 4.0","source_stop_id":"100205-01","stop_code":null,"stop_name":"喜望園・療護園","stop_desc":null,"zone_id":"100205-01","location_type":0,"parent_station":null,"wheelchair_boarding":null}},{"type":"Feature","id":"F013:100205-02","geometry":{"type":"Point","coordinates":[139.50434,35.764]},"properties":{"id":"F013:100205-02","feed_id":"F013","feed_slug":"kiyose-kiyobus","municipality":"清瀬市","service_name":"きよバス","license":"CC BY 4.0","source_stop_id":"100205-02","stop_code":null,"stop_name":"喜望園・療護園","stop_desc":null,"zone_id":"100205-02","location_type":0,"parent_station":null,"wheelchair_boarding":null}},{"type":"Feature","id":"F013:100206-01","geometry":{"type":"Point","coordinates":[139.51141,35.76733]},"properties":{"id":"F013:100206-01","feed_id":"F013","feed_slug":"kiyose-kiyobus","municipality":"清瀬市","service_name":"きよバス","license":"CC BY 4.0","source_stop_id":"100206-01","stop_code":null,"stop_name":"第七小学校西","stop_desc":null,"zone_id":"100206-01","location_type":0,"parent_station":null,"wheelchair_boarding":null}},{"type":"Feature","id":"F013:100206-02","geometry":{"type":"Point","coordinates":[139.51121,35.7674]},"properties":{"id":"F013:100206-02","feed_id":"F013","feed_slug":"kiyose-kiyobus","municipality":"清瀬市","service_name":"きよバス","license":"CC BY 4.0","source_stop_id":"100206-02","stop_code":null,"stop_name":"第七小学校西","stop_desc":null,"zone_id":"100206-02","location_type":0,"parent_station":null,"wheelchair_boarding":null}},{"type":"Feature","id":"F013:100207-01","geometry":{"type":"Point","coordinates":[139.5092,35.77003]},"properties":{"id":"F013:100207-01","feed_id":"F013","feed_slug":"kiyose-kiyobus","municipality":"清瀬市","service_name":"きよバス","license":"CC BY 4.0","source_stop_id":"100207-01","stop_code":null,"stop_name":"第三小学校北","stop_desc":null,"zone_id":"100207-01","location_type":0,"parent_station":null,"wheelchair_boarding":null}},{"type":"Feature","id":"F013:100207-02","geometry":{"type":"Point","coordinates":[139.5096,35.76988]},"properties":{"id":"F013:100207-02","feed_id":"F013","feed_slug":"kiyose-kiyobus","municipality":"清瀬市","service_name":"きよバス","license":"CC BY 4.0","source_stop_id":"100207-02","stop_code":null,"stop_name":"第三小学校北","stop_desc":null,"zone_id":"100207-02","location_type":0,"parent_station":null,"wheelchair_boarding":null}},{"type":"Feature","id":"F013:100208-01","geometry":{"type":"Point","coordinates":[139.51428,35.7713]},"properties":{"id":"F013:100208-01","feed_id":"F013","feed_slug":"kiyose-kiyobus","municipality":"清瀬市","service_name":"きよバス","license":"CC BY 4.0","source_stop_id":"100208-01","stop_code":null,"stop_name":"清瀬高校北","stop_desc":null,"zone_id":"100208-01","location_type":0,"parent_station":null,"wheelchair_boarding":null}},{"type":"Feature","id":"F013:100208-02","geometry":{"type":"Point","coordinates":[139.51424,35.77122]},"properties":{"id":"F013:100208-02","feed_id":"F013","feed_slug":"kiyose-kiyobus","municipality":"清瀬市","service_name":"きよバス","license":"CC BY 4.0","source_stop_id":"100208-02","stop_code":null,"stop_name":"清瀬高校北","stop_desc":null,"zone_id":"100208-02","location_type":0,"parent_station":null,"wheelchair_boarding":null}},{"type":"Feature","id":"F013:100209-01","geometry":{"type":"Point","coordinates":[139.49705,35.77879]},"properties":{"id":"F013:100209-01","feed_id":"F013","feed_slug":"kiyose-kiyobus","municipality":"清瀬市","service_name":"きよバス","license":"CC BY 4.0","source_stop_id":"100209-01","stop_code":null,"stop_name":"秋津駅北口","stop_desc":null,"zone_id":"100209-01","location_type":0,"parent_station":null,"wheelchair_boarding":null}},{"type":"Feature","id":"F013:100210-01","geometry":{"type":"Point","coordinates":[139.50303,35.77443]},"properties":{"id":"F013:100210-01","feed_id":"F013","feed_slug":"kiyose-kiyobus","municipality":"清瀬市","service_name":"きよバス","license":"CC BY 4.0","source_stop_id":"100210-01","stop_code":null,"stop_name":"信愛病院","stop_desc":null,"zone_id":"100210-01","location_type":0,"parent_station":null,"wheelchair_boarding":null}},{"type":"Feature","id":"F013:100210-02","geometry":{"type":"Point","coordinates":[139.50312,35.77433]},"properties":{"id":"F013:100210-02","feed_id":"F013","feed_slug":"kiyose-kiyobus","municipality":"清瀬市","service_name":"きよバス","license":"CC BY 4.0","source_stop_id":"100210-02","stop_code":null,"stop_name":"信愛病院","stop_desc":null,"zone_id":"100210-02","location_type":0,"parent_station":null,"wheelchair_boarding":null}},{"type":"Feature","id":"F013:100211-01","geometry":{"type":"Point","coordinates":[139.50574,35.7742]},"properties":{"id":"F013:100211-01","feed_id":"F013","feed_slug":"kiyose-kiyobus","municipality":"清瀬市","service_name":"きよバス","license":"CC BY 4.0","source_stop_id":"100211-01","stop_code":null,"stop_name":"第二中学校北","stop_desc":null,"zone_id":"100211-01","location_type":0,"parent_station":null,"wheelchair_boarding":null}},{"type":"Feature","id":"F013:100211-02","geometry":{"type":"Point","coordinates":[139.50512,35.77411]},"properties":{"id":"F013:100211-02","feed_id":"F013","feed_slug":"kiyose-kiyobus","municipality":"清瀬市","service_name":"きよバス","license":"CC BY 4.0","source_stop_id":"100211-02","stop_code":null,"stop_name":"第二中学校北","stop_desc":null,"zone_id":"100211-02","location_type":0,"parent_station":null,"wheelchair_boarding":null}},{"type":"Feature","id":"F013:100212-01","geometry":{"type":"Point","coordinates":[139.51081,35.77422]},"properties":{"id":"F013:100212-01","feed_id":"F013","feed_slug":"kiyose-kiyobus","municipality":"清瀬市","service_name":"きよバス","license":"CC BY 4.0","source_stop_id":"100212-01","stop_code":null,"stop_name":"中央公園","stop_desc":null,"zone_id":"100212-01","location_type":0,"parent_station":null,"wheelchair_boarding":null}},{"type":"Feature","id":"F013:100212-02","geometry":{"type":"Point","coordinates":[139.51107,35.77387]},"properties":{"id":"F013:100212-02","feed_id":"F013","feed_slug":"kiyose-kiyobus","municipality":"清瀬市","service_name":"きよバス","license":"CC BY 4.0","source_stop_id":"100212-02","stop_code":null,"stop_name":"中央公園","stop_desc":null,"zone_id":"100212-02","location_type":0,"parent_station":null,"wheelchair_boarding":null}},{"type":"Feature","id":"F013:100213-01","geometry":{"type":"Point","coordinates":[139.51939,35.77452]},"properties":{"id":"F013:100213-01","feed_id":"F013","feed_slug":"kiyose-kiyobus","municipality":"清瀬市","service_name":"きよバス","license":"CC BY 4.0","source_stop_id":"100213-01","stop_code":null,"stop_name":"けやきホール","stop_desc":null,"zone_id":"100213-01","location_type":0,"parent_station":null,"wheelchair_boarding":null}},{"type":"Feature","id":"F013:105150-01","geometry":{"type":"Point","coordinates":[139.52046,35.77223]},"properties":{"id":"F013:105150-01","feed_id":"F013","feed_slug":"kiyose-kiyobus","municipality":"清瀬市","service_name":"きよバス","license":"CC BY 4.0","source_stop_id":"105150-01","stop_code":null,"stop_name":"清瀬駅北口","stop_desc":null,"zone_id":"105150-01","location_type":0,"parent_station":null,"wheelchair_boarding":null}},{"type":"Feature","id":"F013:105150-15","geometry":{"type":"Point","coordinates":[139.52046,35.77223]},"properties":{"id":"F013:105150-15","feed_id":"F013","feed_slug":"kiyose-kiyobus","municipality":"清瀬市","service_name":"きよバス","license":"CC BY 4.0","source_stop_id":"105150-15","stop_code":null,"stop_name":"清瀬駅北口","stop_desc":null,"zone_id":"105150-15","location_type":0,"parent_station":null,"wheelchair_boarding":null}},{"type":"Feature","id":"F013:105151-01","geometry":{"type":"Point","coordinates":[139.51808,35.77599]},"properties":{"id":"F013:105151-01","feed_id":"F013","feed_slug":"kiyose-kiyobus","municipality":"清瀬市","service_name":"きよバス","license":"CC BY 4.0","source_stop_id":"105151-01","stop_code":null,"stop_name":"清瀬郵便局","stop_desc":null,"zone_id":"105151-01","location_type":0,"parent_station":null,"wheelchair_boarding":null}},{"type":"Feature","id":"F013:105151-02","geometry":{"type":"Point","coordinates":[139.5182,35.776]},"properties":{"id":"F013:105151-02","feed_id":"F013","feed_slug":"kiyose-kiyobus","municipality":"清瀬市","service_name":"きよバス","license":"CC BY 4.0","source_stop_id":"105151-02","stop_code":null,"stop_name":"清瀬郵便局","stop_desc":null,"zone_id":"105151-02","location_type":0,"parent_station":null,"wheelchair_boarding":null}},{"type":"Feature","id":"F013:105152-01","geometry":{"type":"Point","coordinates":[139.51848,35.77233]},"properties":{"id":"F013:105152-01","feed_id":"F013","feed_slug":"kiyose-kiyobus","municipality":"清瀬市","service_name":"きよバス","license":"CC BY 4.0","source_stop_id":"105152-01","stop_code":null,"stop_name":"松山二丁目","stop_desc":null,"zone_id":"105152-01","location_type":0,"parent_station":null,"wheelchair_boarding":null}},{"type":"Feature","id":"F013:105152-02","geometry":{"type":"Point","coordinates":[139.51764,35.77258]},"properties":{"id":"F013:105152-02","feed_id":"F013","feed_slug":"kiyose-kiyobus","municipality":"清瀬市","service_name":"きよバス","license":"CC BY 4.0","source_stop_id":"105152-02","stop_code":null,"stop_name":"松山二丁目","stop_desc":null,"zone_id":"105152-02","location_type":0,"parent_station":null,"wheelchair_boarding":null}},{"type":"Feature","id":"F013:105153-01","geometry":{"type":"Point","coordinates":[139.50759,35.76626]},"properties":{"id":"F013:105153-01","feed_id":"F013","feed_slug":"kiyose-kiyobus","municipality":"清瀬市","service_name":"きよバス","license":"CC BY 4.0","source_stop_id":"105153-01","stop_code":null,"stop_name":"社会事業大学","stop_desc":null,"zone_id":"105153-01","location_type":0,"parent_station":null,"wheelchair_boarding":null}},{"type":"Feature","id":"F013:105153-02","geometry":{"type":"Point","coordinates":[139.50746,35.76595]},"properties":{"id":"F013:105153-02","feed_id":"F013","feed_slug":"kiyose-kiyobus","municipality":"清瀬市","service_name":"きよバス","license":"CC BY 4.0","source_stop_id":"105153-02","stop_code":null,"stop_name":"社会事業大学","stop_desc":null,"zone_id":"105153-02","location_type":0,"parent_station":null,"wheelchair_boarding":null}},{"type":"Feature","id":"F013:105154-01","geometry":{"type":"Point","coordinates":[139.50873,35.77102]},"properties":{"id":"F013:105154-01","feed_id":"F013","feed_slug":"kiyose-kiyobus","municipality":"清瀬市","service_name":"きよバス","license":"CC BY 4.0","source_stop_id":"105154-01","stop_code":null,"stop_name":"梅園","stop_desc":null,"zone_id":"105154-01","location_type":0,"parent_station":null,"wheelchair_boarding":null}},{"type":"Feature","id":"F013:105154-02","geometry":{"type":"Point","coordinates":[139.50943,35.77112]},"properties":{"id":"F013:105154-02","feed_id":"F013","feed_slug":"kiyose-kiyobus","municipality":"清瀬市","service_name":"きよバス","license":"CC BY 4.0","source_stop_id":"105154-02","stop_code":null,"stop_name":"梅園","stop_desc":null,"zone_id":"105154-02","location_type":0,"parent_station":null,"wheelchair_boarding":null}},{"type":"Feature","id":"F013:105155-01","geometry":{"type":"Point","coordinates":[139.5115,35.77223]},"properties":{"id":"F013:105155-01","feed_id":"F013","feed_slug":"kiyose-kiyobus","municipality":"清瀬市","service_name":"きよバス","license":"CC BY 4.0","source_stop_id":"105155-01","stop_code":null,"stop_name":"複十字病院","stop_desc":null,"zone_id":"105155-01","location_type":0,"parent_station":null,"wheelchair_boarding":null}},{"type":"Feature","id":"F013:105155-02","geometry":{"type":"Point","coordinates":[139.51179,35.77229]},"properties":{"id":"F013:105155-02","feed_id":"F013","feed_slug":"kiyose-kiyobus","municipality":"清瀬市","service_name":"きよバス","license":"CC BY 4.0","source_stop_id":"105155-02","stop_code":null,"stop_name":"複十字病院","stop_desc":null,"zone_id":"105155-02","location_type":0,"parent_station":null,"wheelchair_boarding":null}},{"type":"Feature","id":"F013:105156-01","geometry":{"type":"Point","coordinates":[139.51988,35.77157]},"properties":{"id":"F013:105156-01","feed_id":"F013","feed_slug":"kiyose-kiyobus","municipality":"清瀬市","service_name":"きよバス","license":"CC BY 4.0","source_stop_id":"105156-01","stop_code":null,"stop_name":"清瀬駅南口","stop_desc":null,"zone_id":"105156-01","location_type":0,"parent_station":null,"wheelchair_boarding":null}},{"type":"Feature","id":"F013:105156-15","geometry":{"type":"Point","coordinates":[139.51988,35.77157]},"properties":{"id":"F013:105156-15","feed_id":"F013","feed_slug":"kiyose-kiyobus","municipality":"清瀬市","service_name":"きよバス","license":"CC BY 4.0","source_stop_id":"105156-15","stop_code":null,"stop_name":"清瀬駅南口","stop_desc":null,"zone_id":"105156-15","location_type":0,"parent_station":null,"wheelchair_boarding":null}}]}
