{"type":"FeatureCollection","name":"miyake-village-bus_routes","features":[{"type":"Feature","id":"F020:11:fallback-0","geometry":{"type":"LineString","coordinates":[[139.560115,34.083714],[139.559461,34.079773],[139.557647,34.076921],[139.558288,34.072697],[139.556425,34.066986],[139.552479,34.063895],[139.550093,34.063498],[139.547391,34.061154],[139.545066,34.060007],[139.541896,34.058213],[139.538008,34.057658],[139.53466,34.056419],[139.528451,34.05159],[139.523307,34.050164],[139.510966,34.049499],[139.503364,34.048599],[139.496091,34.052327],[139.492684,34.054133],[139.489469,34.055608],[139.486395,34.059121],[139.483881,34.063314],[139.483099,34.064529],[139.482375,34.067804],[139.480892,34.071059],[139.479694,34.0731],[139.48077,34.075871],[139.483997,34.078834],[139.482327,34.082637],[139.484886,34.079323],[139.492491,34.098375],[139.492209,34.100018],[139.488733,34.099757],[139.49249,34.10045],[139.49548,34.10739],[139.495284,34.109457],[139.499047,34.112931],[139.500396,34.115023],[139.501565,34.116085],[139.5036,34.118125],[139.505151,34.119752],[139.510036,34.119563],[139.505252,34.119674],[139.507369,34.118843],[139.508866,34.118147],[139.513523,34.11792],[139.516746,34.119184],[139.518118,34.11983],[139.521398,34.120048],[139.522611,34.120419],[139.526715,34.121395],[139.531119,34.12216],[139.530323,34.121514],[139.535198,34.120413],[139.54175,34.118374],[139.546535,34.116966],[139.550282,34.115336],[139.554691,34.11233],[139.558297,34.108144],[139.559635,34.101112],[139.558738,34.09767],[139.560432,34.092337],[139.560866,34.086175],[139.560415,34.083625],[139.564161,34.079706],[139.559675,34.079675],[139.557893,34.076903],[139.558566,34.072616],[139.556725,34.066852],[139.55254,34.063617],[139.550355,34.063146],[139.547703,34.060917],[139.545247,34.059719],[139.542037,34.058007],[139.537975,34.057513]]},"properties":{"id":"F020:11:fallback-0","feed_id":"F020","feed_slug":"miyake-village-bus","municipality":"三宅村","service_name":"村営バス","license":"CC BY 4.0","source_route_id":"11","route_short_name":"M10","route_long_name":"三宅村営バス","route_desc":null,"route_type":3,"route_url":null,"route_color":null,"route_text_color":null,"directions":["0"],"geometry_source":"stop_times.txt fallback"}},{"type":"Feature","id":"F020:11B:fallback-0","geometry":{"type":"LineString","coordinates":[[139.560115,34.083714],[139.559461,34.079773],[139.557647,34.076921],[139.558288,34.072697],[139.556425,34.066986],[139.552479,34.063895],[139.550093,34.063498],[139.547391,34.061154],[139.545066,34.060007],[139.541896,34.058213],[139.538008,34.057658],[139.53466,34.056419],[139.528451,34.05159],[139.523307,34.050164],[139.510966,34.049499],[139.503364,34.048599],[139.496091,34.052327],[139.492684,34.054133],[139.489469,34.055608],[139.486395,34.059121],[139.483881,34.063314],[139.483099,34.064529],[139.482375,34.067804],[139.480892,34.071059],[139.479694,34.0731],[139.48077,34.075871],[139.483997,34.078834],[139.482327,34.082637],[139.484886,34.079323],[139.492491,34.098375],[139.492209,34.100018],[139.488733,34.099757],[139.49249,34.10045],[139.49548,34.10739],[139.495284,34.109457],[139.499047,34.112931],[139.500396,34.115023],[139.501565,34.116085],[139.5036,34.118125],[139.505151,34.119752],[139.510036,34.119563],[139.505252,34.119674],[139.507369,34.118843],[139.508866,34.118147],[139.513523,34.11792],[139.516746,34.119184],[139.518118,34.11983],[139.521398,34.120048],[139.522611,34.120419],[139.526715,34.121395],[139.530323,34.121514],[139.535198,34.120413],[139.54175,34.118374],[139.546535,34.116966],[139.550282,34.115336],[139.554691,34.11233],[139.558297,34.108144],[139.559635,34.101112],[139.558738,34.09767],[139.560432,34.092337],[139.560866,34.086175],[139.560415,34.083625],[139.564161,34.079706],[139.559675,34.079675],[139.557893,34.076903],[139.558566,34.072616],[139.556725,34.066852],[139.55254,34.063617],[139.550355,34.063146],[139.547703,34.060917],[139.545247,34.059719],[139.542037,34.058007],[139.537975,34.057513]]},"properties":{"id":"F020:11B:fallback-0","feed_id":"F020","feed_slug":"miyake-village-bus","municipality":"三宅村","service_name":"村営バス","license":"CC BY 4.0","source_route_id":"11B","route_short_name":"M11","route_long_name":"三宅村営バス","route_desc":null,"route_type":3,"route_url":null,"route_color":null,"route_text_color":null,"directions":["0"],"geometry_source":"stop_times.txt fallback"}},{"type":"Feature","id":"F020:11C:fallback-0","geometry":{"type":"LineString","coordinates":[[139.560115,34.083714],[139.559461,34.079773],[139.557647,34.076921],[139.558288,34.072697],[139.556425,34.066986],[139.552479,34.063895],[139.550093,34.063498],[139.547391,34.061154],[139.545066,34.060007],[139.541896,34.058213],[139.538008,34.057658],[139.53466,34.056419],[139.528451,34.05159],[139.523307,34.050164],[139.510966,34.049499],[139.503364,34.048599],[139.496091,34.052327],[139.492684,34.054133],[139.489469,34.055608],[139.486395,34.059121],[139.483881,34.063314],[139.483099,34.064529],[139.482375,34.067804],[139.480963,34.068616],[139.480892,34.071059],[139.479694,34.0731],[139.48077,34.075871],[139.483997,34.078834],[139.482327,34.082637],[139.484886,34.079323],[139.492491,34.098375],[139.492209,34.100018],[139.488733,34.099757],[139.49249,34.10045],[139.49548,34.10739],[139.495284,34.109457],[139.499047,34.112931],[139.500396,34.115023],[139.501565,34.116085],[139.5036,34.118125],[139.505151,34.119752],[139.510036,34.119563],[139.505252,34.119674],[139.507369,34.118843],[139.508866,34.118147],[139.513523,34.11792],[139.516746,34.119184],[139.518118,34.11983],[139.521398,34.120048],[139.522611,34.120419],[139.526715,34.121395],[139.531119,34.12216],[139.530323,34.121514],[139.535198,34.120413],[139.54175,34.118374],[139.546535,34.116966],[139.550282,34.115336],[139.554691,34.11233],[139.558297,34.108144],[139.559635,34.101112],[139.558738,34.09767],[139.560432,34.092337],[139.560866,34.086175],[139.560415,34.083625],[139.559675,34.079675],[139.557893,34.076903],[139.558566,34.072616],[139.556725,34.066852],[139.55254,34.063617],[139.550355,34.063146],[139.547703,34.060917],[139.545247,34.059719],[139.542037,34.058007],[139.537975,34.057513]]},"properties":{"id":"F020:11C:fallback-0","feed_id":"F020","feed_slug":"miyake-village-bus","municipality":"三宅村","service_name":"村営バス","license":"CC BY 4.0","source_route_id":"11C","route_short_name":"M12","route_long_name":"三宅村営バス","route_desc":null,"route_type":3,"route_url":null,"route_color":null,"route_text_color":null,"directions":["0"],"geometry_source":"stop_times.txt fallback"}},{"type":"Feature","id":"F020:11D:fallback-0","geometry":{"type":"LineString","coordinates":[[139.560115,34.083714],[139.559461,34.079773],[139.557647,34.076921],[139.558288,34.072697],[139.556425,34.066986],[139.552479,34.063895],[139.550093,34.063498],[139.547391,34.061154],[139.545066,34.060007],[139.541896,34.058213],[139.538008,34.057658],[139.53466,34.056419],[139.528451,34.05159],[139.523307,34.050164],[139.510966,34.049499],[139.503364,34.048599],[139.496091,34.052327],[139.492684,34.054133],[139.489469,34.055608],[139.486395,34.059121],[139.483881,34.063314],[139.483099,34.064529],[139.482375,34.067804],[139.480963,34.068616],[139.480892,34.071059],[139.479694,34.0731],[139.48077,34.075871],[139.483997,34.078834],[139.482327,34.082637],[139.484886,34.079323],[139.492491,34.098375],[139.492209,34.100018],[139.488733,34.099757],[139.49249,34.10045],[139.49548,34.10739],[139.495284,34.109457],[139.499047,34.112931],[139.500396,34.115023],[139.501565,34.116085],[139.5036,34.118125],[139.505151,34.119752],[139.510036,34.119563],[139.505252,34.119674],[139.507369,34.118843],[139.508866,34.118147],[139.513523,34.11792],[139.516746,34.119184],[139.518118,34.11983],[139.521398,34.120048],[139.522611,34.120419],[139.526715,34.121395],[139.530323,34.121514],[139.535198,34.120413],[139.54175,34.118374],[139.546535,34.116966],[139.550282,34.115336],[139.554691,34.11233],[139.558297,34.108144],[139.559635,34.101112],[139.558738,34.09767],[139.560432,34.092337],[139.560866,34.086175],[139.560415,34.083625],[139.559675,34.079675],[139.557893,34.076903],[139.558566,34.072616],[139.556725,34.066852],[139.55254,34.063617],[139.550355,34.063146],[139.547703,34.060917],[139.545247,34.059719],[139.542037,34.058007],[139.537975,34.057513]]},"properties":{"id":"F020:11D:fallback-0","feed_id":"F020","feed_slug":"miyake-village-bus","municipality":"三宅村","service_name":"村営バス","license":"CC BY 4.0","source_route_id":"11D","route_short_name":"M13","route_long_name":"三宅村営バス","route_desc":null,"route_type":3,"route_url":null,"route_color":null,"route_text_color":null,"directions":["0"],"geometry_source":"stop_times.txt fallback"}},{"type":"Feature","id":"F020:11E:fallback-0","geometry":{"type":"LineString","coordinates":[[139.560115,34.083714],[139.559461,34.079773],[139.557647,34.076921],[139.558288,34.072697],[139.556425,34.066986],[139.552479,34.063895],[139.550093,34.063498],[139.547391,34.061154],[139.545066,34.060007],[139.541896,34.058213],[139.538008,34.057658],[139.53466,34.056419],[139.528451,34.05159],[139.523307,34.050164],[139.510966,34.049499],[139.503364,34.048599],[139.496091,34.052327],[139.492684,34.054133],[139.489469,34.055608],[139.486395,34.059121],[139.483881,34.063314],[139.483099,34.064529],[139.482375,34.067804],[139.480892,34.071059],[139.479694,34.0731],[139.48077,34.075871],[139.483997,34.078834],[139.482327,34.082637],[139.484886,34.079323],[139.492491,34.098375],[139.492209,34.100018],[139.488733,34.099757],[139.49249,34.10045],[139.49548,34.10739],[139.495284,34.109457],[139.499047,34.112931],[139.500396,34.115023],[139.501565,34.116085],[139.5036,34.118125],[139.505151,34.119752],[139.510036,34.119563],[139.505252,34.119674],[139.507369,34.118843],[139.508866,34.118147],[139.513523,34.11792],[139.516746,34.119184],[139.518118,34.11983],[139.521398,34.120048],[139.522611,34.120419],[139.526715,34.121395],[139.530323,34.121514],[139.535198,34.120413],[139.54175,34.118374],[139.546535,34.116966],[139.550282,34.115336],[139.554691,34.11233],[139.558297,34.108144],[139.559635,34.101112],[139.558738,34.09767],[139.560432,34.092337],[139.560866,34.086175],[139.560415,34.083625],[139.559675,34.079675],[139.557893,34.076903],[139.558566,34.072616],[139.556725,34.066852],[139.55254,34.063617],[139.550355,34.063146],[139.547703,34.060917],[139.545247,34.059719],[139.542037,34.058007],[139.537975,34.057513]]},"properties":{"id":"F020:11E:fallback-0","feed_id":"F020","feed_slug":"miyake-village-bus","municipality":"三宅村","service_name":"村営バス","license":"CC BY 4.0","source_route_id":"11E","route_short_name":"M8","route_long_name":"三宅村営バス","route_desc":null,"route_type":3,"route_url":null,"route_color":null,"route_text_color":null,"directions":["0"],"geometry_source":"stop_times.txt fallback"}},{"type":"Feature","id":"F020:11F:fallback-0","geometry":{"type":"LineString","coordinates":[[139.560115,34.083714],[139.559461,34.079773],[139.557647,34.076921],[139.558288,34.072697],[139.556425,34.066986],[139.552479,34.063895],[139.550093,34.063498],[139.547391,34.061154],[139.545066,34.060007],[139.541896,34.058213],[139.538008,34.057658],[139.53466,34.056419],[139.528451,34.05159],[139.523307,34.050164],[139.510966,34.049499],[139.503364,34.048599],[139.496091,34.052327],[139.492684,34.054133],[139.489469,34.055608],[139.486395,34.059121],[139.483881,34.063314],[139.483099,34.064529],[139.482375,34.067804],[139.480892,34.071059],[139.479694,34.0731],[139.48077,34.075871],[139.483997,34.078834],[139.482327,34.082637],[139.484886,34.079323],[139.492491,34.098375],[139.492209,34.100018],[139.488733,34.099757],[139.49249,34.10045],[139.49548,34.10739],[139.495284,34.109457],[139.499047,34.112931],[139.500396,34.115023],[139.501565,34.116085],[139.5036,34.118125],[139.505151,34.119752],[139.510036,34.119563],[139.505252,34.119674],[139.507369,34.118843],[139.508866,34.118147],[139.513523,34.11792],[139.516746,34.119184],[139.518118,34.11983],[139.521398,34.120048],[139.522611,34.120419],[139.526715,34.121395],[139.531119,34.12216],[139.530323,34.121514],[139.535198,34.120413],[139.54175,34.118374],[139.546535,34.116966],[139.550282,34.115336],[139.554691,34.11233],[139.558297,34.108144],[139.559635,34.101112],[139.558738,34.09767],[139.560432,34.092337],[139.560866,34.086175],[139.560415,34.083625],[139.559675,34.079675],[139.557893,34.076903],[139.558566,34.072616],[139.556725,34.066852],[139.55254,34.063617],[139.550355,34.063146],[139.547703,34.060917],[139.545247,34.059719],[139.542037,34.058007],[139.537975,34.057513]]},"properties":{"id":"F020:11F:fallback-0","feed_id":"F020","feed_slug":"miyake-village-bus","municipality":"三宅村","service_name":"村営バス","license":"CC BY 4.0","source_route_id":"11F","route_short_name":"M9","route_long_name":"三宅村営バス","route_desc":null,"route_type":3,"route_url":null,"route_color":null,"route_text_color":null,"directions":["0"],"geometry_source":"stop_times.txt fallback"}},{"type":"Feature","id":"F020:12:fallback-0","geometry":{"type":"LineString","coordinates":[[139.479552,34.068485],[139.480892,34.071059],[139.479694,34.0731],[139.48077,34.075871],[139.483997,34.078834],[139.482327,34.082637],[139.492491,34.098375],[139.492209,34.100018],[139.488733,34.099757],[139.49548,34.10739],[139.495284,34.109457],[139.499047,34.112931],[139.500396,34.115023],[139.501565,34.116085],[139.5036,34.118125],[139.505151,34.119752],[139.510036,34.119563],[139.507369,34.118843],[139.508866,34.118147],[139.513523,34.11792],[139.516746,34.119184],[139.518118,34.11983],[139.521398,34.120048],[139.522611,34.120419],[139.526715,34.121395],[139.530323,34.121514],[139.535198,34.120413],[139.54175,34.118374],[139.546535,34.116966],[139.550282,34.115336],[139.554691,34.11233],[139.558297,34.108144],[139.559635,34.101112],[139.558738,34.09767]]},"properties":{"id":"F020:12:fallback-0","feed_id":"F020","feed_slug":"miyake-village-bus","municipality":"三宅村","service_name":"村営バス","license":"CC BY 4.0","source_route_id":"12","route_short_name":"S3","route_long_name":"三宅村営バス　錆ヶ浜港船連絡バス","route_desc":null,"route_type":3,"route_url":null,"route_color":null,"route_text_color":null,"directions":["0"],"geometry_source":"stop_times.txt fallback"}},{"type":"Feature","id":"F020:13:fallback-0","geometry":{"type":"LineString","coordinates":[[139.564161,34.079706],[139.559461,34.079773],[139.557647,34.076921],[139.558288,34.072697],[139.556425,34.066986],[139.552479,34.063895],[139.550093,34.063498],[139.547391,34.061154],[139.545066,34.060007],[139.541896,34.058213],[139.538008,34.057658],[139.53466,34.056419],[139.528451,34.05159],[139.523307,34.050164],[139.510966,34.049499],[139.503364,34.048599],[139.496091,34.052327],[139.492684,34.054133],[139.489469,34.055608],[139.486395,34.059121],[139.483881,34.063314],[139.483099,34.064529],[139.482375,34.067804],[139.480892,34.071059],[139.479694,34.0731],[139.48077,34.075871],[139.483997,34.078834],[139.482327,34.082637]]},"properties":{"id":"F020:13:fallback-0","feed_id":"F020","feed_slug":"miyake-village-bus","municipality":"三宅村","service_name":"村営バス","license":"CC BY 4.0","source_route_id":"13","route_short_name":"M4","route_long_name":"三宅村営バス　三池港船連絡バス","route_desc":null,"route_type":3,"route_url":null,"route_color":null,"route_text_color":null,"directions":["0"],"geometry_source":"stop_times.txt fallback"}},{"type":"Feature","id":"F020:14:fallback-0","geometry":{"type":"LineString","coordinates":[[139.488149,34.101021],[139.49249,34.10045],[139.49548,34.10739],[139.495284,34.109457],[139.499047,34.112931],[139.500396,34.115023],[139.501565,34.116085],[139.5036,34.118125],[139.505151,34.119752],[139.510036,34.119563],[139.507369,34.118843],[139.508866,34.118147],[139.513523,34.11792],[139.516746,34.119184],[139.518118,34.11983],[139.521398,34.120048],[139.522611,34.120419],[139.526715,34.121395],[139.530323,34.121514],[139.535198,34.120413],[139.54175,34.118374],[139.546535,34.116966],[139.550282,34.115336],[139.554691,34.11233],[139.558297,34.108144],[139.559635,34.101112],[139.558738,34.09767],[139.560432,34.092337],[139.560866,34.086175],[139.560115,34.083714],[139.559461,34.079773],[139.557647,34.076921],[139.558288,34.072697]]},"properties":{"id":"F020:14:fallback-0","feed_id":"F020","feed_slug":"miyake-village-bus","municipality":"三宅村","service_name":"村営バス","license":"CC BY 4.0","source_route_id":"14","route_short_name":"I14","route_long_name":"三宅村営バス　伊ヶ谷港船連絡バス","route_desc":null,"route_type":3,"route_url":null,"route_color":null,"route_text_color":null,"directions":["0"],"geometry_source":"stop_times.txt fallback"}},{"type":"Feature","id":"F020:21:fallback-0","geometry":{"type":"LineString","coordinates":[[139.538249,34.057667],[139.542025,34.058404],[139.544891,34.060095],[139.547349,34.061264],[139.550356,34.063821],[139.553212,34.064151],[139.556305,34.066981],[139.558167,34.073153],[139.557541,34.076985],[139.559237,34.079621],[139.559905,34.083503],[139.560744,34.086099],[139.560434,34.092188],[139.5586,34.097574],[139.559518,34.101161],[139.558161,34.108129],[139.554297,34.112384],[139.549594,34.115651],[139.546291,34.117021],[139.541894,34.118201],[139.53501,34.120361],[139.530533,34.121362],[139.531119,34.12216],[139.52658,34.121326],[139.522616,34.120341],[139.521351,34.119921],[139.518052,34.119691],[139.516397,34.118815],[139.51294,34.117735],[139.509288,34.117826],[139.507424,34.118721],[139.505027,34.119825],[139.510036,34.119563],[139.50534,34.119662],[139.503575,34.118033],[139.501921,34.116247],[139.500131,34.114572],[139.499786,34.11289],[139.495374,34.109309],[139.495546,34.107548],[139.492601,34.100408],[139.488733,34.099757],[139.492407,34.09876],[139.484699,34.078955],[139.482327,34.082637],[139.48403,34.078635],[139.480857,34.075809],[139.479814,34.073092],[139.481049,34.07101],[139.482462,34.067668],[139.483186,34.064769],[139.484029,34.063294],[139.486529,34.059069],[139.489362,34.055803],[139.492807,34.054232],[139.496078,34.052481],[139.503418,34.048732],[139.511046,34.049572],[139.523473,34.050279],[139.529011,34.051771],[139.534707,34.056581],[139.538252,34.057882],[139.541756,34.058757],[139.54482,34.060276],[139.547148,34.061485],[139.5502,34.064094],[139.553136,34.064462],[139.555886,34.06714],[139.55777,34.073206],[139.557401,34.076991],[139.559,34.0797],[139.564799,34.079759],[139.559628,34.083547]]},"properties":{"id":"F020:21:fallback-0","feed_id":"F020","feed_slug":"miyake-village-bus","municipality":"三宅村","service_name":"村営バス","license":"CC BY 4.0","source_route_id":"21","route_short_name":"K10","route_long_name":"三宅村営バス","route_desc":null,"route_type":3,"route_url":null,"route_color":null,"route_text_color":null,"directions":["0"],"geometry_source":"stop_times.txt fallback"}},{"type":"Feature","id":"F020:21B:fallback-0","geometry":{"type":"LineString","coordinates":[[139.538249,34.057667],[139.542025,34.058404],[139.544891,34.060095],[139.547349,34.061264],[139.550356,34.063821],[139.553212,34.064151],[139.556305,34.066981],[139.558167,34.073153],[139.557541,34.076985],[139.559237,34.079621],[139.559905,34.083503],[139.560744,34.086099],[139.560434,34.092188],[139.5586,34.097574],[139.559518,34.101161],[139.558161,34.108129],[139.554297,34.112384],[139.549594,34.115651],[139.546291,34.117021],[139.541894,34.118201],[139.53501,34.120361],[139.530533,34.121362],[139.52658,34.121326],[139.522616,34.120341],[139.521351,34.119921],[139.518052,34.119691],[139.516397,34.118815],[139.51294,34.117735],[139.509288,34.117826],[139.507424,34.118721],[139.505027,34.119825],[139.510036,34.119563],[139.50534,34.119662],[139.503575,34.118033],[139.501921,34.116247],[139.500131,34.114572],[139.499786,34.11289],[139.495374,34.109309],[139.495546,34.107548],[139.492601,34.100408],[139.488733,34.099757],[139.492407,34.09876],[139.484699,34.078955],[139.482327,34.082637],[139.48403,34.078635],[139.480857,34.075809],[139.479814,34.073092],[139.481049,34.07101],[139.482462,34.067668],[139.483186,34.064769],[139.484029,34.063294],[139.486529,34.059069],[139.489362,34.055803],[139.492807,34.054232],[139.496078,34.052481],[139.503418,34.048732],[139.511046,34.049572],[139.523473,34.050279],[139.529011,34.051771],[139.534707,34.056581],[139.538252,34.057882],[139.541756,34.058757],[139.54482,34.060276],[139.547148,34.061485],[139.5502,34.064094],[139.553136,34.064462],[139.555886,34.06714],[139.55777,34.073206],[139.557401,34.076991],[139.559,34.0797],[139.564799,34.079759],[139.559628,34.083547]]},"properties":{"id":"F020:21B:fallback-0","feed_id":"F020","feed_slug":"miyake-village-bus","municipality":"三宅村","service_name":"村営バス","license":"CC BY 4.0","source_route_id":"21B","route_short_name":"K11","route_long_name":"三宅村営バス","route_desc":null,"route_type":3,"route_url":null,"route_color":null,"route_text_color":null,"directions":["0"],"geometry_source":"stop_times.txt fallback"}},{"type":"Feature","id":"F020:21C:fallback-0","geometry":{"type":"LineString","coordinates":[[139.538249,34.057667],[139.542025,34.058404],[139.544891,34.060095],[139.547349,34.061264],[139.550356,34.063821],[139.553212,34.064151],[139.556305,34.066981],[139.558167,34.073153],[139.557541,34.076985],[139.559237,34.079621],[139.559905,34.083503],[139.560744,34.086099],[139.560434,34.092188],[139.5586,34.097574],[139.559518,34.101161],[139.558161,34.108129],[139.554297,34.112384],[139.549594,34.115651],[139.546291,34.117021],[139.541894,34.118201],[139.53501,34.120361],[139.530533,34.121362],[139.531119,34.12216],[139.52658,34.121326],[139.522616,34.120341],[139.521351,34.119921],[139.518052,34.119691],[139.516397,34.118815],[139.51294,34.117735],[139.509288,34.117826],[139.507424,34.118721],[139.505027,34.119825],[139.510036,34.119563],[139.50534,34.119662],[139.503575,34.118033],[139.501921,34.116247],[139.500131,34.114572],[139.499786,34.11289],[139.495374,34.109309],[139.495546,34.107548],[139.492601,34.100408],[139.488733,34.099757],[139.492407,34.09876],[139.484699,34.078955],[139.482327,34.082637],[139.48403,34.078635],[139.480857,34.075809],[139.479814,34.073092],[139.481049,34.07101],[139.481078,34.068691],[139.482462,34.067668],[139.483186,34.064769],[139.484029,34.063294],[139.486529,34.059069],[139.489362,34.055803],[139.492807,34.054232],[139.496078,34.052481],[139.503418,34.048732],[139.511046,34.049572],[139.523473,34.050279],[139.529011,34.051771],[139.534707,34.056581],[139.538252,34.057882],[139.541756,34.058757],[139.54482,34.060276],[139.547148,34.061485],[139.5502,34.064094],[139.553136,34.064462],[139.555886,34.06714],[139.55777,34.073206],[139.557401,34.076991],[139.559,34.0797],[139.559628,34.083547]]},"properties":{"id":"F020:21C:fallback-0","feed_id":"F020","feed_slug":"miyake-village-bus","municipality":"三宅村","service_name":"村営バス","license":"CC BY 4.0","source_route_id":"21C","route_short_name":"K12","route_long_name":"三宅村営バス","route_desc":null,"route_type":3,"route_url":null,"route_color":null,"route_text_color":null,"directions":["0"],"geometry_source":"stop_times.txt fallback"}},{"type":"Feature","id":"F020:21D:fallback-0","geometry":{"type":"LineString","coordinates":[[139.538249,34.057667],[139.542025,34.058404],[139.544891,34.060095],[139.547349,34.061264],[139.550356,34.063821],[139.553212,34.064151],[139.556305,34.066981],[139.558167,34.073153],[139.557541,34.076985],[139.559237,34.079621],[139.559905,34.083503],[139.560744,34.086099],[139.560434,34.092188],[139.5586,34.097574],[139.559518,34.101161],[139.558161,34.108129],[139.554297,34.112384],[139.549594,34.115651],[139.546291,34.117021],[139.541894,34.118201],[139.53501,34.120361],[139.530533,34.121362],[139.52658,34.121326],[139.522616,34.120341],[139.521351,34.119921],[139.518052,34.119691],[139.516397,34.118815],[139.51294,34.117735],[139.509288,34.117826],[139.507424,34.118721],[139.505027,34.119825],[139.510036,34.119563],[139.50534,34.119662],[139.503575,34.118033],[139.501921,34.116247],[139.500131,34.114572],[139.499786,34.11289],[139.495374,34.109309],[139.495546,34.107548],[139.492601,34.100408],[139.488733,34.099757],[139.492407,34.09876],[139.484699,34.078955],[139.482327,34.082637],[139.48403,34.078635],[139.480857,34.075809],[139.479814,34.073092],[139.481049,34.07101],[139.481078,34.068691],[139.482462,34.067668],[139.483186,34.064769],[139.484029,34.063294],[139.486529,34.059069],[139.489362,34.055803],[139.492807,34.054232],[139.496078,34.052481],[139.503418,34.048732],[139.511046,34.049572],[139.523473,34.050279],[139.529011,34.051771],[139.534707,34.056581],[139.538252,34.057882],[139.541756,34.058757],[139.54482,34.060276],[139.547148,34.061485],[139.5502,34.064094],[139.553136,34.064462],[139.555886,34.06714],[139.55777,34.073206],[139.557401,34.076991],[139.559,34.0797],[139.559628,34.083547]]},"properties":{"id":"F020:21D:fallback-0","feed_id":"F020","feed_slug":"miyake-village-bus","municipality":"三宅村","service_name":"村営バス","license":"CC BY 4.0","source_route_id":"21D","route_short_name":"K13","route_long_name":"三宅村営バス","route_desc":null,"route_type":3,"route_url":null,"route_color":null,"route_text_color":null,"directions":["0"],"geometry_source":"stop_times.txt fallback"}},{"type":"Feature","id":"F020:21E:fallback-0","geometry":{"type":"LineString","coordinates":[[139.538249,34.057667],[139.542025,34.058404],[139.544891,34.060095],[139.547349,34.061264],[139.550356,34.063821],[139.553212,34.064151],[139.556305,34.066981],[139.558167,34.073153],[139.557541,34.076985],[139.559237,34.079621],[139.559905,34.083503],[139.560744,34.086099],[139.560434,34.092188],[139.5586,34.097574],[139.559518,34.101161],[139.558161,34.108129],[139.554297,34.112384],[139.549594,34.115651],[139.546291,34.117021],[139.541894,34.118201],[139.53501,34.120361],[139.530533,34.121362],[139.52658,34.121326],[139.522616,34.120341],[139.521351,34.119921],[139.518052,34.119691],[139.516397,34.118815],[139.51294,34.117735],[139.509288,34.117826],[139.507424,34.118721],[139.505027,34.119825],[139.510036,34.119563],[139.50534,34.119662],[139.503575,34.118033],[139.501921,34.116247],[139.500131,34.114572],[139.499786,34.11289],[139.495374,34.109309],[139.495546,34.107548],[139.492601,34.100408],[139.488733,34.099757],[139.492407,34.09876],[139.484699,34.078955],[139.482327,34.082637],[139.48403,34.078635],[139.480857,34.075809],[139.479814,34.073092],[139.481049,34.07101],[139.482462,34.067668],[139.483186,34.064769],[139.484029,34.063294],[139.486529,34.059069],[139.489362,34.055803],[139.492807,34.054232],[139.496078,34.052481],[139.503418,34.048732],[139.511046,34.049572],[139.523473,34.050279],[139.529011,34.051771],[139.534707,34.056581],[139.538252,34.057882],[139.541756,34.058757],[139.54482,34.060276],[139.547148,34.061485],[139.5502,34.064094],[139.553136,34.064462],[139.555886,34.06714],[139.55777,34.073206],[139.557401,34.076991],[139.559,34.0797],[139.559628,34.083547]]},"properties":{"id":"F020:21E:fallback-0","feed_id":"F020","feed_slug":"miyake-village-bus","municipality":"三宅村","service_name":"村営バス","license":"CC BY 4.0","source_route_id":"21E","route_short_name":"K8","route_long_name":"三宅村営バス","route_desc":null,"route_type":3,"route_url":null,"route_color":null,"route_text_color":null,"directions":["0"],"geometry_source":"stop_times.txt fallback"}},{"type":"Feature","id":"F020:21F:fallback-0","geometry":{"type":"LineString","coordinates":[[139.538249,34.057667],[139.542025,34.058404],[139.544891,34.060095],[139.547349,34.061264],[139.550356,34.063821],[139.553212,34.064151],[139.556305,34.066981],[139.558167,34.073153],[139.557541,34.076985],[139.559237,34.079621],[139.559905,34.083503],[139.560744,34.086099],[139.560434,34.092188],[139.5586,34.097574],[139.559518,34.101161],[139.558161,34.108129],[139.554297,34.112384],[139.549594,34.115651],[139.546291,34.117021],[139.541894,34.118201],[139.53501,34.120361],[139.530533,34.121362],[139.531119,34.12216],[139.52658,34.121326],[139.522616,34.120341],[139.521351,34.119921],[139.518052,34.119691],[139.516397,34.118815],[139.51294,34.117735],[139.509288,34.117826],[139.507424,34.118721],[139.505027,34.119825],[139.510036,34.119563],[139.50534,34.119662],[139.503575,34.118033],[139.501921,34.116247],[139.500131,34.114572],[139.499786,34.11289],[139.495374,34.109309],[139.495546,34.107548],[139.492601,34.100408],[139.488733,34.099757],[139.492407,34.09876],[139.484699,34.078955],[139.482327,34.082637],[139.48403,34.078635],[139.480857,34.075809],[139.479814,34.073092],[139.481049,34.07101],[139.482462,34.067668],[139.483186,34.064769],[139.484029,34.063294],[139.486529,34.059069],[139.489362,34.055803],[139.492807,34.054232],[139.496078,34.052481],[139.503418,34.048732],[139.511046,34.049572],[139.523473,34.050279],[139.529011,34.051771],[139.534707,34.056581],[139.538252,34.057882],[139.541756,34.058757],[139.54482,34.060276],[139.547148,34.061485],[139.5502,34.064094],[139.553136,34.064462],[139.555886,34.06714],[139.55777,34.073206],[139.557401,34.076991],[139.559,34.0797],[139.559628,34.083547]]},"properties":{"id":"F020:21F:fallback-0","feed_id":"F020","feed_slug":"miyake-village-bus","municipality":"三宅村","service_name":"村営バス","license":"CC BY 4.0","source_route_id":"21F","route_short_name":"K9","route_long_name":"三宅村営バス","route_desc":null,"route_type":3,"route_url":null,"route_color":null,"route_text_color":null,"directions":["0"],"geometry_source":"stop_times.txt fallback"}},{"type":"Feature","id":"F020:22:fallback-0","geometry":{"type":"LineString","coordinates":[[139.479552,34.068485],[139.482462,34.067668],[139.483186,34.064769],[139.484029,34.063294],[139.486529,34.059069],[139.489362,34.055803],[139.492807,34.054232],[139.496078,34.052481],[139.503418,34.048732],[139.511046,34.049572],[139.523473,34.050279],[139.529011,34.051771],[139.534707,34.056581],[139.538249,34.057667],[139.542025,34.058404],[139.544891,34.060095],[139.547349,34.061264],[139.550356,34.063821],[139.553212,34.064151],[139.556305,34.066981],[139.558167,34.073153],[139.557541,34.076985],[139.559237,34.079621],[139.559905,34.083503],[139.560744,34.086099],[139.560434,34.092188]]},"properties":{"id":"F020:22:fallback-0","feed_id":"F020","feed_slug":"miyake-village-bus","municipality":"三宅村","service_name":"村営バス","license":"CC BY 4.0","source_route_id":"22","route_short_name":"S2","route_long_name":"三宅村営バス　錆ヶ浜港船連絡バス","route_desc":null,"route_type":3,"route_url":null,"route_color":null,"route_text_color":null,"directions":["0"],"geometry_source":"stop_times.txt fallback"}},{"type":"Feature","id":"F020:23:fallback-0","geometry":{"type":"LineString","coordinates":[[139.564161,34.079706],[139.559905,34.083503],[139.560744,34.086099],[139.560434,34.092188],[139.5586,34.097574],[139.559518,34.101161],[139.558161,34.108129],[139.554297,34.112384],[139.549594,34.115651],[139.546291,34.117021],[139.541894,34.118201],[139.53501,34.120361],[139.530533,34.121362],[139.52658,34.121326],[139.522616,34.120341],[139.521351,34.119921],[139.518052,34.119691],[139.516397,34.118815],[139.51294,34.117735],[139.509288,34.117826],[139.507424,34.118721],[139.505151,34.119752],[139.510036,34.119563],[139.503575,34.118033],[139.501921,34.116247],[139.500131,34.114572],[139.499786,34.11289],[139.495374,34.109309],[139.495546,34.107548],[139.492601,34.100408],[139.488733,34.099757],[139.492407,34.09876]]},"properties":{"id":"F020:23:fallback-0","feed_id":"F020","feed_slug":"miyake-village-bus","municipality":"三宅村","service_name":"村営バス","license":"CC BY 4.0","source_route_id":"23","route_short_name":"M3","route_long_name":"三宅村営バス　三池港船連絡バス","route_desc":null,"route_type":3,"route_url":null,"route_color":null,"route_text_color":null,"directions":["0"],"geometry_source":"stop_times.txt fallback"}},{"type":"Feature","id":"F020:24:fallback-0","geometry":{"type":"LineString","coordinates":[[139.488149,34.101021],[139.492407,34.09876],[139.484699,34.078955],[139.482327,34.082637],[139.480857,34.075809],[139.479814,34.073092],[139.481049,34.07101],[139.482462,34.067668],[139.483186,34.064769],[139.484029,34.063294],[139.486529,34.059069],[139.489362,34.055803],[139.492807,34.054232],[139.496078,34.052481],[139.503418,34.048732],[139.511046,34.049572],[139.523473,34.050279],[139.529011,34.051771],[139.534707,34.056581],[139.538249,34.057667],[139.542025,34.058404],[139.544891,34.060095],[139.547349,34.061264],[139.550356,34.063821],[139.553212,34.064151],[139.556305,34.066981]]},"properties":{"id":"F020:24:fallback-0","feed_id":"F020","feed_slug":"miyake-village-bus","municipality":"三宅村","service_name":"村営バス","license":"CC BY 4.0","source_route_id":"24","route_short_name":"I15","route_long_name":"三宅村営バス　伊ヶ谷港船連絡バス","route_desc":null,"route_type":3,"route_url":null,"route_color":null,"route_text_color":null,"directions":["0"],"geometry_source":"stop_times.txt fallback"}}]}
