{"type":"FeatureCollection","name":"miyake-village-bus_stops","features":[{"type":"Feature","id":"F020:1_01","geometry":{"type":"Point","coordinates":[139.560115,34.083714]},"properties":{"id":"F020:1_01","feed_id":"F020","feed_slug":"miyake-village-bus","municipality":"三宅村","service_name":"村営バス","license":"CC BY 4.0","source_stop_id":"1_01","stop_code":null,"stop_name":"三池","stop_desc":null,"zone_id":"1_01","location_type":0,"parent_station":null,"wheelchair_boarding":null}},{"type":"Feature","id":"F020:1_02","geometry":{"type":"Point","coordinates":[139.559905,34.083503]},"properties":{"id":"F020:1_02","feed_id":"F020","feed_slug":"miyake-village-bus","municipality":"三宅村","service_name":"村営バス","license":"CC BY 4.0","source_stop_id":"1_02","stop_code":null,"stop_name":"三池","stop_desc":null,"zone_id":"1_02","location_type":0,"parent_station":null,"wheelchair_boarding":null}},{"type":"Feature","id":"F020:10_01","geometry":{"type":"Point","coordinates":[139.541896,34.058213]},"properties":{"id":"F020:10_01","feed_id":"F020","feed_slug":"miyake-village-bus","municipality":"三宅村","service_name":"村営バス","license":"CC BY 4.0","source_stop_id":"10_01","stop_code":null,"stop_name":"郷野","stop_desc":null,"zone_id":"10_01","location_type":0,"parent_station":null,"wheelchair_boarding":null}},{"type":"Feature","id":"F020:10_02","geometry":{"type":"Point","coordinates":[139.542025,34.058404]},"properties":{"id":"F020:10_02","feed_id":"F020","feed_slug":"miyake-village-bus","municipality":"三宅村","service_name":"村営バス","license":"CC BY 4.0","source_stop_id":"10_02","stop_code":null,"stop_name":"郷野","stop_desc":null,"zone_id":"10_02","location_type":0,"parent_station":null,"wheelchair_boarding":null}},{"type":"Feature","id":"F020:11_01","geometry":{"type":"Point","coordinates":[139.538008,34.057658]},"properties":{"id":"F020:11_01","feed_id":"F020","feed_slug":"miyake-village-bus","municipality":"三宅村","service_name":"村営バス","license":"CC BY 4.0","source_stop_id":"11_01","stop_code":null,"stop_name":"高校前","stop_desc":null,"zone_id":"11_01","location_type":0,"parent_station":null,"wheelchair_boarding":null}},{"type":"Feature","id":"F020:11_02","geometry":{"type":"Point","coordinates":[139.538249,34.057667]},"properties":{"id":"F020:11_02","feed_id":"F020","feed_slug":"miyake-village-bus","municipality":"三宅村","service_name":"村営バス","license":"CC BY 4.0","source_stop_id":"11_02","stop_code":null,"stop_name":"高校前","stop_desc":null,"zone_id":"11_02","location_type":0,"parent_station":null,"wheelchair_boarding":null}},{"type":"Feature","id":"F020:12_01","geometry":{"type":"Point","coordinates":[139.53466,34.056419]},"properties":{"id":"F020:12_01","feed_id":"F020","feed_slug":"miyake-village-bus","municipality":"三宅村","service_name":"村営バス","license":"CC BY 4.0","source_stop_id":"12_01","stop_code":null,"stop_name":"農林合同庁舎前","stop_desc":null,"zone_id":"12_01","location_type":0,"parent_station":null,"wheelchair_boarding":null}},{"type":"Feature","id":"F020:12_02","geometry":{"type":"Point","coordinates":[139.534707,34.056581]},"properties":{"id":"F020:12_02","feed_id":"F020","feed_slug":"miyake-village-bus","municipality":"三宅村","service_name":"村営バス","license":"CC BY 4.0","source_stop_id":"12_02","stop_code":null,"stop_name":"農林合同庁舎前","stop_desc":null,"zone_id":"12_02","location_type":0,"parent_station":null,"wheelchair_boarding":null}},{"type":"Feature","id":"F020:13_01","geometry":{"type":"Point","coordinates":[139.528451,34.05159]},"properties":{"id":"F020:13_01","feed_id":"F020","feed_slug":"miyake-village-bus","municipality":"三宅村","service_name":"村営バス","license":"CC BY 4.0","source_stop_id":"13_01","stop_code":null,"stop_name":"大路池","stop_desc":null,"zone_id":"13_01","location_type":0,"parent_station":null,"wheelchair_boarding":null}},{"type":"Feature","id":"F020:13_02","geometry":{"type":"Point","coordinates":[139.529011,34.051771]},"properties":{"id":"F020:13_02","feed_id":"F020","feed_slug":"miyake-village-bus","municipality":"三宅村","service_name":"村営バス","license":"CC BY 4.0","source_stop_id":"13_02","stop_code":null,"stop_name":"大路池","stop_desc":null,"zone_id":"13_02","location_type":0,"parent_station":null,"wheelchair_boarding":null}},{"type":"Feature","id":"F020:14_01","geometry":{"type":"Point","coordinates":[139.523307,34.050164]},"properties":{"id":"F020:14_01","feed_id":"F020","feed_slug":"miyake-village-bus","municipality":"三宅村","service_name":"村営バス","license":"CC BY 4.0","source_stop_id":"14_01","stop_code":null,"stop_name":"東山","stop_desc":null,"zone_id":"14_01","location_type":0,"parent_station":null,"wheelchair_boarding":null}},{"type":"Feature","id":"F020:14_02","geometry":{"type":"Point","coordinates":[139.523473,34.050279]},"properties":{"id":"F020:14_02","feed_id":"F020","feed_slug":"miyake-village-bus","municipality":"三宅村","service_name":"村営バス","license":"CC BY 4.0","source_stop_id":"14_02","stop_code":null,"stop_name":"東山","stop_desc":null,"zone_id":"14_02","location_type":0,"parent_station":null,"wheelchair_boarding":null}},{"type":"Feature","id":"F020:15_01","geometry":{"type":"Point","coordinates":[139.510966,34.049499]},"properties":{"id":"F020:15_01","feed_id":"F020","feed_slug":"miyake-village-bus","municipality":"三宅村","service_name":"村営バス","license":"CC BY 4.0","source_stop_id":"15_01","stop_code":null,"stop_name":"角屋敷","stop_desc":null,"zone_id":"15_01","location_type":0,"parent_station":null,"wheelchair_boarding":null}},{"type":"Feature","id":"F020:15_02","geometry":{"type":"Point","coordinates":[139.511046,34.049572]},"properties":{"id":"F020:15_02","feed_id":"F020","feed_slug":"miyake-village-bus","municipality":"三宅村","service_name":"村営バス","license":"CC BY 4.0","source_stop_id":"15_02","stop_code":null,"stop_name":"角屋敷","stop_desc":null,"zone_id":"15_02","location_type":0,"parent_station":null,"wheelchair_boarding":null}},{"type":"Feature","id":"F020:16_01","geometry":{"type":"Point","coordinates":[139.503364,34.048599]},"properties":{"id":"F020:16_01","feed_id":"F020","feed_slug":"miyake-village-bus","municipality":"三宅村","service_name":"村営バス","license":"CC BY 4.0","source_stop_id":"16_01","stop_code":null,"stop_name":"新澪池","stop_desc":null,"zone_id":"16_01","location_type":0,"parent_station":null,"wheelchair_boarding":null}},{"type":"Feature","id":"F020:16_02","geometry":{"type":"Point","coordinates":[139.503418,34.048732]},"properties":{"id":"F020:16_02","feed_id":"F020","feed_slug":"miyake-village-bus","municipality":"三宅村","service_name":"村営バス","license":"CC BY 4.0","source_stop_id":"16_02","stop_code":null,"stop_name":"新澪池","stop_desc":null,"zone_id":"16_02","location_type":0,"parent_station":null,"wheelchair_boarding":null}},{"type":"Feature","id":"F020:17_01","geometry":{"type":"Point","coordinates":[139.496091,34.052327]},"properties":{"id":"F020:17_01","feed_id":"F020","feed_slug":"miyake-village-bus","municipality":"三宅村","service_name":"村営バス","license":"CC BY 4.0","source_stop_id":"17_01","stop_code":null,"stop_name":"粟辺","stop_desc":null,"zone_id":"17_01","location_type":0,"parent_station":null,"wheelchair_boarding":null}},{"type":"Feature","id":"F020:17_02","geometry":{"type":"Point","coordinates":[139.496078,34.052481]},"properties":{"id":"F020:17_02","feed_id":"F020","feed_slug":"miyake-village-bus","municipality":"三宅村","service_name":"村営バス","license":"CC BY 4.0","source_stop_id":"17_02","stop_code":null,"stop_name":"粟辺","stop_desc":null,"zone_id":"17_02","location_type":0,"parent_station":null,"wheelchair_boarding":null}},{"type":"Feature","id":"F020:18_01","geometry":{"type":"Point","coordinates":[139.492684,34.054133]},"properties":{"id":"F020:18_01","feed_id":"F020","feed_slug":"miyake-village-bus","municipality":"三宅村","service_name":"村営バス","license":"CC BY 4.0","source_stop_id":"18_01","stop_code":null,"stop_name":"粟辺坂上","stop_desc":null,"zone_id":"18_01","location_type":0,"parent_station":null,"wheelchair_boarding":null}},{"type":"Feature","id":"F020:18_02","geometry":{"type":"Point","coordinates":[139.492807,34.054232]},"properties":{"id":"F020:18_02","feed_id":"F020","feed_slug":"miyake-village-bus","municipality":"三宅村","service_name":"村営バス","license":"CC BY 4.0","source_stop_id":"18_02","stop_code":null,"stop_name":"粟辺坂上","stop_desc":null,"zone_id":"18_02","location_type":0,"parent_station":null,"wheelchair_boarding":null}},{"type":"Feature","id":"F020:19_01","geometry":{"type":"Point","coordinates":[139.489469,34.055608]},"properties":{"id":"F020:19_01","feed_id":"F020","feed_slug":"miyake-village-bus","municipality":"三宅村","service_name":"村営バス","license":"CC BY 4.0","source_stop_id":"19_01","stop_code":null,"stop_name":"薄木","stop_desc":null,"zone_id":"19_01","location_type":0,"parent_station":null,"wheelchair_boarding":null}},{"type":"Feature","id":"F020:19_02","geometry":{"type":"Point","coordinates":[139.489362,34.055803]},"properties":{"id":"F020:19_02","feed_id":"F020","feed_slug":"miyake-village-bus","municipality":"三宅村","service_name":"村営バス","license":"CC BY 4.0","source_stop_id":"19_02","stop_code":null,"stop_name":"薄木","stop_desc":null,"zone_id":"19_02","location_type":0,"parent_station":null,"wheelchair_boarding":null}},{"type":"Feature","id":"F020:2_01","geometry":{"type":"Point","coordinates":[139.559461,34.079773]},"properties":{"id":"F020:2_01","feed_id":"F020","feed_slug":"miyake-village-bus","municipality":"三宅村","service_name":"村営バス","license":"CC BY 4.0","source_stop_id":"2_01","stop_code":null,"stop_name":"沖ヶ平","stop_desc":null,"zone_id":"2_01","location_type":0,"parent_station":null,"wheelchair_boarding":null}},{"type":"Feature","id":"F020:2_02","geometry":{"type":"Point","coordinates":[139.559237,34.079621]},"properties":{"id":"F020:2_02","feed_id":"F020","feed_slug":"miyake-village-bus","municipality":"三宅村","service_name":"村営バス","license":"CC BY 4.0","source_stop_id":"2_02","stop_code":null,"stop_name":"沖ヶ平","stop_desc":null,"zone_id":"2_02","location_type":0,"parent_station":null,"wheelchair_boarding":null}},{"type":"Feature","id":"F020:20_01","geometry":{"type":"Point","coordinates":[139.486395,34.059121]},"properties":{"id":"F020:20_01","feed_id":"F020","feed_slug":"miyake-village-bus","municipality":"三宅村","service_name":"村営バス","license":"CC BY 4.0","source_stop_id":"20_01","stop_code":null,"stop_name":"富賀神社前","stop_desc":null,"zone_id":"20_01","location_type":0,"parent_station":null,"wheelchair_boarding":null}},{"type":"Feature","id":"F020:20_02","geometry":{"type":"Point","coordinates":[139.486529,34.059069]},"properties":{"id":"F020:20_02","feed_id":"F020","feed_slug":"miyake-village-bus","municipality":"三宅村","service_name":"村営バス","license":"CC BY 4.0","source_stop_id":"20_02","stop_code":null,"stop_name":"富賀神社前","stop_desc":null,"zone_id":"20_02","location_type":0,"parent_station":null,"wheelchair_boarding":null}},{"type":"Feature","id":"F020:21_01","geometry":{"type":"Point","coordinates":[139.483881,34.063314]},"properties":{"id":"F020:21_01","feed_id":"F020","feed_slug":"miyake-village-bus","municipality":"三宅村","service_name":"村営バス","license":"CC BY 4.0","source_stop_id":"21_01","stop_code":null,"stop_name":"釜根","stop_desc":null,"zone_id":"21_01","location_type":0,"parent_station":null,"wheelchair_boarding":null}},{"type":"Feature","id":"F020:21_02","geometry":{"type":"Point","coordinates":[139.484029,34.063294]},"properties":{"id":"F020:21_02","feed_id":"F020","feed_slug":"miyake-village-bus","municipality":"三宅村","service_name":"村営バス","license":"CC BY 4.0","source_stop_id":"21_02","stop_code":null,"stop_name":"釜根","stop_desc":null,"zone_id":"21_02","location_type":0,"parent_station":null,"wheelchair_boarding":null}},{"type":"Feature","id":"F020:22_01","geometry":{"type":"Point","coordinates":[139.483099,34.064529]},"properties":{"id":"F020:22_01","feed_id":"F020","feed_slug":"miyake-village-bus","municipality":"三宅村","service_name":"村営バス","license":"CC BY 4.0","source_stop_id":"22_01","stop_code":null,"stop_name":"阿古郵便局前","stop_desc":null,"zone_id":"22_01","location_type":0,"parent_station":null,"wheelchair_boarding":null}},{"type":"Feature","id":"F020:22_02","geometry":{"type":"Point","coordinates":[139.483186,34.064769]},"properties":{"id":"F020:22_02","feed_id":"F020","feed_slug":"miyake-village-bus","municipality":"三宅村","service_name":"村営バス","license":"CC BY 4.0","source_stop_id":"22_02","stop_code":null,"stop_name":"阿古郵便局前","stop_desc":null,"zone_id":"22_02","location_type":0,"parent_station":null,"wheelchair_boarding":null}},{"type":"Feature","id":"F020:23_01","geometry":{"type":"Point","coordinates":[139.482375,34.067804]},"properties":{"id":"F020:23_01","feed_id":"F020","feed_slug":"miyake-village-bus","municipality":"三宅村","service_name":"村営バス","license":"CC BY 4.0","source_stop_id":"23_01","stop_code":null,"stop_name":"錆ヶ浜港入口","stop_desc":null,"zone_id":"23_01","location_type":0,"parent_station":null,"wheelchair_boarding":null}},{"type":"Feature","id":"F020:23_02","geometry":{"type":"Point","coordinates":[139.482462,34.067668]},"properties":{"id":"F020:23_02","feed_id":"F020","feed_slug":"miyake-village-bus","municipality":"三宅村","service_name":"村営バス","license":"CC BY 4.0","source_stop_id":"23_02","stop_code":null,"stop_name":"錆ヶ浜港入口","stop_desc":null,"zone_id":"23_02","location_type":0,"parent_station":null,"wheelchair_boarding":null}},{"type":"Feature","id":"F020:24_01","geometry":{"type":"Point","coordinates":[139.480892,34.071059]},"properties":{"id":"F020:24_01","feed_id":"F020","feed_slug":"miyake-village-bus","municipality":"三宅村","service_name":"村営バス","license":"CC BY 4.0","source_stop_id":"24_01","stop_code":null,"stop_name":"錆ヶ浜","stop_desc":null,"zone_id":"24_01","location_type":0,"parent_station":null,"wheelchair_boarding":null}},{"type":"Feature","id":"F020:24_02","geometry":{"type":"Point","coordinates":[139.481049,34.07101]},"properties":{"id":"F020:24_02","feed_id":"F020","feed_slug":"miyake-village-bus","municipality":"三宅村","service_name":"村営バス","license":"CC BY 4.0","source_stop_id":"24_02","stop_code":null,"stop_name":"錆ヶ浜","stop_desc":null,"zone_id":"24_02","location_type":0,"parent_station":null,"wheelchair_boarding":null}},{"type":"Feature","id":"F020:25_01","geometry":{"type":"Point","coordinates":[139.479694,34.0731]},"properties":{"id":"F020:25_01","feed_id":"F020","feed_slug":"miyake-village-bus","municipality":"三宅村","service_name":"村営バス","license":"CC BY 4.0","source_stop_id":"25_01","stop_code":null,"stop_name":"二島","stop_desc":null,"zone_id":"25_01","location_type":0,"parent_station":null,"wheelchair_boarding":null}},{"type":"Feature","id":"F020:25_02","geometry":{"type":"Point","coordinates":[139.479814,34.073092]},"properties":{"id":"F020:25_02","feed_id":"F020","feed_slug":"miyake-village-bus","municipality":"三宅村","service_name":"村営バス","license":"CC BY 4.0","source_stop_id":"25_02","stop_code":null,"stop_name":"二島","stop_desc":null,"zone_id":"25_02","location_type":0,"parent_station":null,"wheelchair_boarding":null}},{"type":"Feature","id":"F020:26_01","geometry":{"type":"Point","coordinates":[139.48077,34.075871]},"properties":{"id":"F020:26_01","feed_id":"F020","feed_slug":"miyake-village-bus","municipality":"三宅村","service_name":"村営バス","license":"CC BY 4.0","source_stop_id":"26_01","stop_code":null,"stop_name":"阿古","stop_desc":null,"zone_id":"26_01","location_type":0,"parent_station":null,"wheelchair_boarding":null}},{"type":"Feature","id":"F020:26_02","geometry":{"type":"Point","coordinates":[139.480857,34.075809]},"properties":{"id":"F020:26_02","feed_id":"F020","feed_slug":"miyake-village-bus","municipality":"三宅村","service_name":"村営バス","license":"CC BY 4.0","source_stop_id":"26_02","stop_code":null,"stop_name":"阿古","stop_desc":null,"zone_id":"26_02","location_type":0,"parent_station":null,"wheelchair_boarding":null}},{"type":"Feature","id":"F020:27_01","geometry":{"type":"Point","coordinates":[139.483997,34.078834]},"properties":{"id":"F020:27_01","feed_id":"F020","feed_slug":"miyake-village-bus","municipality":"三宅村","service_name":"村営バス","license":"CC BY 4.0","source_stop_id":"27_01","stop_code":null,"stop_name":"鉄砲場","stop_desc":null,"zone_id":"27_01","location_type":0,"parent_station":null,"wheelchair_boarding":null}},{"type":"Feature","id":"F020:27_02","geometry":{"type":"Point","coordinates":[139.48403,34.078635]},"properties":{"id":"F020:27_02","feed_id":"F020","feed_slug":"miyake-village-bus","municipality":"三宅村","service_name":"村営バス","license":"CC BY 4.0","source_stop_id":"27_02","stop_code":null,"stop_name":"鉄砲場","stop_desc":null,"zone_id":"27_02","location_type":0,"parent_station":null,"wheelchair_boarding":null}},{"type":"Feature","id":"F020:27_03","geometry":{"type":"Point","coordinates":[139.484886,34.079323]},"properties":{"id":"F020:27_03","feed_id":"F020","feed_slug":"miyake-village-bus","municipality":"三宅村","service_name":"村営バス","license":"CC BY 4.0","source_stop_id":"27_03","stop_code":null,"stop_name":"鉄砲場","stop_desc":null,"zone_id":"27_03","location_type":0,"parent_station":null,"wheelchair_boarding":null}},{"type":"Feature","id":"F020:27_04","geometry":{"type":"Point","coordinates":[139.484699,34.078955]},"properties":{"id":"F020:27_04","feed_id":"F020","feed_slug":"miyake-village-bus","municipality":"三宅村","service_name":"村営バス","license":"CC BY 4.0","source_stop_id":"27_04","stop_code":null,"stop_name":"鉄砲場","stop_desc":null,"zone_id":"27_04","location_type":0,"parent_station":null,"wheelchair_boarding":null}},{"type":"Feature","id":"F020:28_01","geometry":{"type":"Point","coordinates":[139.482327,34.082637]},"properties":{"id":"F020:28_01","feed_id":"F020","feed_slug":"miyake-village-bus","municipality":"三宅村","service_name":"村営バス","license":"CC BY 4.0","source_stop_id":"28_01","stop_code":null,"stop_name":"夕景浜","stop_desc":null,"zone_id":"28_01","location_type":0,"parent_station":null,"wheelchair_boarding":null}},{"type":"Feature","id":"F020:29_01","geometry":{"type":"Point","coordinates":[139.492491,34.098375]},"properties":{"id":"F020:29_01","feed_id":"F020","feed_slug":"miyake-village-bus","municipality":"三宅村","service_name":"村営バス","license":"CC BY 4.0","source_stop_id":"29_01","stop_code":null,"stop_name":"岡庭","stop_desc":null,"zone_id":"29_01","location_type":0,"parent_station":null,"wheelchair_boarding":null}},{"type":"Feature","id":"F020:29_02","geometry":{"type":"Point","coordinates":[139.492407,34.09876]},"properties":{"id":"F020:29_02","feed_id":"F020","feed_slug":"miyake-village-bus","municipality":"三宅村","service_name":"村営バス","license":"CC BY 4.0","source_stop_id":"29_02","stop_code":null,"stop_name":"岡庭","stop_desc":null,"zone_id":"29_02","location_type":0,"parent_station":null,"wheelchair_boarding":null}},{"type":"Feature","id":"F020:3_01","geometry":{"type":"Point","coordinates":[139.557647,34.076921]},"properties":{"id":"F020:3_01","feed_id":"F020","feed_slug":"miyake-village-bus","municipality":"三宅村","service_name":"村営バス","license":"CC BY 4.0","source_stop_id":"3_01","stop_code":null,"stop_name":"企業課前","stop_desc":null,"zone_id":"3_01","location_type":0,"parent_station":null,"wheelchair_boarding":null}},{"type":"Feature","id":"F020:3_02","geometry":{"type":"Point","coordinates":[139.557541,34.076985]},"properties":{"id":"F020:3_02","feed_id":"F020","feed_slug":"miyake-village-bus","municipality":"三宅村","service_name":"村営バス","license":"CC BY 4.0","source_stop_id":"3_02","stop_code":null,"stop_name":"企業課前","stop_desc":null,"zone_id":"3_02","location_type":0,"parent_station":null,"wheelchair_boarding":null}},{"type":"Feature","id":"F020:30_01","geometry":{"type":"Point","coordinates":[139.492209,34.100018]},"properties":{"id":"F020:30_01","feed_id":"F020","feed_slug":"miyake-village-bus","municipality":"三宅村","service_name":"村営バス","license":"CC BY 4.0","source_stop_id":"30_01","stop_code":null,"stop_name":"伊ヶ谷","stop_desc":null,"zone_id":"30_01","location_type":0,"parent_station":null,"wheelchair_boarding":null}},{"type":"Feature","id":"F020:30_02","geometry":{"type":"Point","coordinates":[139.492601,34.100408]},"properties":{"id":"F020:30_02","feed_id":"F020","feed_slug":"miyake-village-bus","municipality":"三宅村","service_name":"村営バス","license":"CC BY 4.0","source_stop_id":"30_02","stop_code":null,"stop_name":"伊ヶ谷","stop_desc":null,"zone_id":"30_02","location_type":0,"parent_station":null,"wheelchair_boarding":null}},{"type":"Feature","id":"F020:30_03","geometry":{"type":"Point","coordinates":[139.49249,34.10045]},"properties":{"id":"F020:30_03","feed_id":"F020","feed_slug":"miyake-village-bus","municipality":"三宅村","service_name":"村営バス","license":"CC BY 4.0","source_stop_id":"30_03","stop_code":null,"stop_name":"伊ヶ谷","stop_desc":null,"zone_id":"30_03","location_type":0,"parent_station":null,"wheelchair_boarding":null}},{"type":"Feature","id":"F020:31_01","geometry":{"type":"Point","coordinates":[139.488733,34.099757]},"properties":{"id":"F020:31_01","feed_id":"F020","feed_slug":"miyake-village-bus","municipality":"三宅村","service_name":"村営バス","license":"CC BY 4.0","source_stop_id":"31_01","stop_code":null,"stop_name":"伊ヶ谷港","stop_desc":null,"zone_id":"31_01","location_type":0,"parent_station":null,"wheelchair_boarding":null}},{"type":"Feature","id":"F020:32_01","geometry":{"type":"Point","coordinates":[139.49548,34.10739]},"properties":{"id":"F020:32_01","feed_id":"F020","feed_slug":"miyake-village-bus","municipality":"三宅村","service_name":"村営バス","license":"CC BY 4.0","source_stop_id":"32_01","stop_code":null,"stop_name":"西原","stop_desc":null,"zone_id":"32_01","location_type":0,"parent_station":null,"wheelchair_boarding":null}},{"type":"Feature","id":"F020:32_02","geometry":{"type":"Point","coordinates":[139.495546,34.107548]},"properties":{"id":"F020:32_02","feed_id":"F020","feed_slug":"miyake-village-bus","municipality":"三宅村","service_name":"村営バス","license":"CC BY 4.0","source_stop_id":"32_02","stop_code":null,"stop_name":"西原","stop_desc":null,"zone_id":"32_02","location_type":0,"parent_station":null,"wheelchair_boarding":null}},{"type":"Feature","id":"F020:33_01","geometry":{"type":"Point","coordinates":[139.495284,34.109457]},"properties":{"id":"F020:33_01","feed_id":"F020","feed_slug":"miyake-village-bus","municipality":"三宅村","service_name":"村営バス","license":"CC BY 4.0","source_stop_id":"33_01","stop_code":null,"stop_name":"伊豆岬入口","stop_desc":null,"zone_id":"33_01","location_type":0,"parent_station":null,"wheelchair_boarding":null}},{"type":"Feature","id":"F020:33_02","geometry":{"type":"Point","coordinates":[139.495374,34.109309]},"properties":{"id":"F020:33_02","feed_id":"F020","feed_slug":"miyake-village-bus","municipality":"三宅村","service_name":"村営バス","license":"CC BY 4.0","source_stop_id":"33_02","stop_code":null,"stop_name":"伊豆岬入口","stop_desc":null,"zone_id":"33_02","location_type":0,"parent_station":null,"wheelchair_boarding":null}},{"type":"Feature","id":"F020:34_01","geometry":{"type":"Point","coordinates":[139.499047,34.112931]},"properties":{"id":"F020:34_01","feed_id":"F020","feed_slug":"miyake-village-bus","municipality":"三宅村","service_name":"村営バス","license":"CC BY 4.0","source_stop_id":"34_01","stop_code":null,"stop_name":"薬師前","stop_desc":null,"zone_id":"34_01","location_type":0,"parent_station":null,"wheelchair_boarding":null}},{"type":"Feature","id":"F020:34_02","geometry":{"type":"Point","coordinates":[139.499786,34.11289]},"properties":{"id":"F020:34_02","feed_id":"F020","feed_slug":"miyake-village-bus","municipality":"三宅村","service_name":"村営バス","license":"CC BY 4.0","source_stop_id":"34_02","stop_code":null,"stop_name":"薬師前","stop_desc":null,"zone_id":"34_02","location_type":0,"parent_station":null,"wheelchair_boarding":null}},{"type":"Feature","id":"F020:35_01","geometry":{"type":"Point","coordinates":[139.500396,34.115023]},"properties":{"id":"F020:35_01","feed_id":"F020","feed_slug":"miyake-village-bus","municipality":"三宅村","service_name":"村営バス","license":"CC BY 4.0","source_stop_id":"35_01","stop_code":null,"stop_name":"伊豆","stop_desc":null,"zone_id":"35_01","location_type":0,"parent_station":null,"wheelchair_boarding":null}},{"type":"Feature","id":"F020:35_02","geometry":{"type":"Point","coordinates":[139.500131,34.114572]},"properties":{"id":"F020:35_02","feed_id":"F020","feed_slug":"miyake-village-bus","municipality":"三宅村","service_name":"村営バス","license":"CC BY 4.0","source_stop_id":"35_02","stop_code":null,"stop_name":"伊豆","stop_desc":null,"zone_id":"35_02","location_type":0,"parent_station":null,"wheelchair_boarding":null}},{"type":"Feature","id":"F020:36_01","geometry":{"type":"Point","coordinates":[139.501565,34.116085]},"properties":{"id":"F020:36_01","feed_id":"F020","feed_slug":"miyake-village-bus","municipality":"三宅村","service_name":"村営バス","license":"CC BY 4.0","source_stop_id":"36_01","stop_code":null,"stop_name":"阿知原","stop_desc":null,"zone_id":"36_01","location_type":0,"parent_station":null,"wheelchair_boarding":null}},{"type":"Feature","id":"F020:36_02","geometry":{"type":"Point","coordinates":[139.501921,34.116247]},"properties":{"id":"F020:36_02","feed_id":"F020","feed_slug":"miyake-village-bus","municipality":"三宅村","service_name":"村営バス","license":"CC BY 4.0","source_stop_id":"36_02","stop_code":null,"stop_name":"阿知原","stop_desc":null,"zone_id":"36_02","location_type":0,"parent_station":null,"wheelchair_boarding":null}},{"type":"Feature","id":"F020:37_01","geometry":{"type":"Point","coordinates":[139.5036,34.118125]},"properties":{"id":"F020:37_01","feed_id":"F020","feed_slug":"miyake-village-bus","municipality":"三宅村","service_name":"村営バス","license":"CC BY 4.0","source_stop_id":"37_01","stop_code":null,"stop_name":"保健所前","stop_desc":null,"zone_id":"37_01","location_type":0,"parent_station":null,"wheelchair_boarding":null}},{"type":"Feature","id":"F020:37_02","geometry":{"type":"Point","coordinates":[139.503575,34.118033]},"properties":{"id":"F020:37_02","feed_id":"F020","feed_slug":"miyake-village-bus","municipality":"三宅村","service_name":"村営バス","license":"CC BY 4.0","source_stop_id":"37_02","stop_code":null,"stop_name":"保健所前","stop_desc":null,"zone_id":"37_02","location_type":0,"parent_station":null,"wheelchair_boarding":null}},{"type":"Feature","id":"F020:38_01","geometry":{"type":"Point","coordinates":[139.505151,34.119752]},"properties":{"id":"F020:38_01","feed_id":"F020","feed_slug":"miyake-village-bus","municipality":"三宅村","service_name":"村営バス","license":"CC BY 4.0","source_stop_id":"38_01","stop_code":null,"stop_name":"三宅小中学校前","stop_desc":null,"zone_id":"38_01","location_type":0,"parent_station":null,"wheelchair_boarding":null}},{"type":"Feature","id":"F020:38_02","geometry":{"type":"Point","coordinates":[139.505252,34.119674]},"properties":{"id":"F020:38_02","feed_id":"F020","feed_slug":"miyake-village-bus","municipality":"三宅村","service_name":"村営バス","license":"CC BY 4.0","source_stop_id":"38_02","stop_code":null,"stop_name":"三宅小中学校前","stop_desc":null,"zone_id":"38_02","location_type":0,"parent_station":null,"wheelchair_boarding":null}},{"type":"Feature","id":"F020:39_01","geometry":{"type":"Point","coordinates":[139.510036,34.119563]},"properties":{"id":"F020:39_01","feed_id":"F020","feed_slug":"miyake-village-bus","municipality":"三宅村","service_name":"村営バス","license":"CC BY 4.0","source_stop_id":"39_01","stop_code":null,"stop_name":"大久保浜","stop_desc":null,"zone_id":"39_01","location_type":0,"parent_station":null,"wheelchair_boarding":null}},{"type":"Feature","id":"F020:4_01","geometry":{"type":"Point","coordinates":[139.558288,34.072697]},"properties":{"id":"F020:4_01","feed_id":"F020","feed_slug":"miyake-village-bus","municipality":"三宅村","service_name":"村営バス","license":"CC BY 4.0","source_stop_id":"4_01","stop_code":null,"stop_name":"空港前","stop_desc":null,"zone_id":"4_01","location_type":0,"parent_station":null,"wheelchair_boarding":null}},{"type":"Feature","id":"F020:4_02","geometry":{"type":"Point","coordinates":[139.558167,34.073153]},"properties":{"id":"F020:4_02","feed_id":"F020","feed_slug":"miyake-village-bus","municipality":"三宅村","service_name":"村営バス","license":"CC BY 4.0","source_stop_id":"4_02","stop_code":null,"stop_name":"空港前","stop_desc":null,"zone_id":"4_02","location_type":0,"parent_station":null,"wheelchair_boarding":null}},{"type":"Feature","id":"F020:40_01","geometry":{"type":"Point","coordinates":[139.507369,34.118843]},"properties":{"id":"F020:40_01","feed_id":"F020","feed_slug":"miyake-village-bus","municipality":"三宅村","service_name":"村営バス","license":"CC BY 4.0","source_stop_id":"40_01","stop_code":null,"stop_name":"姉川神社前","stop_desc":null,"zone_id":"40_01","location_type":0,"parent_station":null,"wheelchair_boarding":null}},{"type":"Feature","id":"F020:40_02","geometry":{"type":"Point","coordinates":[139.507424,34.118721]},"properties":{"id":"F020:40_02","feed_id":"F020","feed_slug":"miyake-village-bus","municipality":"三宅村","service_name":"村営バス","license":"CC BY 4.0","source_stop_id":"40_02","stop_code":null,"stop_name":"姉川神社前","stop_desc":null,"zone_id":"40_02","location_type":0,"parent_station":null,"wheelchair_boarding":null}},{"type":"Feature","id":"F020:41_01","geometry":{"type":"Point","coordinates":[139.508866,34.118147]},"properties":{"id":"F020:41_01","feed_id":"F020","feed_slug":"miyake-village-bus","municipality":"三宅村","service_name":"村営バス","license":"CC BY 4.0","source_stop_id":"41_01","stop_code":null,"stop_name":"みやけ保育園前","stop_desc":null,"zone_id":"41_01","location_type":0,"parent_station":null,"wheelchair_boarding":null}},{"type":"Feature","id":"F020:41_02","geometry":{"type":"Point","coordinates":[139.509288,34.117826]},"properties":{"id":"F020:41_02","feed_id":"F020","feed_slug":"miyake-village-bus","municipality":"三宅村","service_name":"村営バス","license":"CC BY 4.0","source_stop_id":"41_02","stop_code":null,"stop_name":"みやけ保育園前","stop_desc":null,"zone_id":"41_02","location_type":0,"parent_station":null,"wheelchair_boarding":null}},{"type":"Feature","id":"F020:42_01","geometry":{"type":"Point","coordinates":[139.513523,34.11792]},"properties":{"id":"F020:42_01","feed_id":"F020","feed_slug":"miyake-village-bus","municipality":"三宅村","service_name":"村営バス","license":"CC BY 4.0","source_stop_id":"42_01","stop_code":null,"stop_name":"友地","stop_desc":null,"zone_id":"42_01","location_type":0,"parent_station":null,"wheelchair_boarding":null}},{"type":"Feature","id":"F020:42_02","geometry":{"type":"Point","coordinates":[139.51294,34.117735]},"properties":{"id":"F020:42_02","feed_id":"F020","feed_slug":"miyake-village-bus","municipality":"三宅村","service_name":"村営バス","license":"CC BY 4.0","source_stop_id":"42_02","stop_code":null,"stop_name":"友地","stop_desc":null,"zone_id":"42_02","location_type":0,"parent_station":null,"wheelchair_boarding":null}},{"type":"Feature","id":"F020:43_01","geometry":{"type":"Point","coordinates":[139.516746,34.119184]},"properties":{"id":"F020:43_01","feed_id":"F020","feed_slug":"miyake-village-bus","municipality":"三宅村","service_name":"村営バス","license":"CC BY 4.0","source_stop_id":"43_01","stop_code":null,"stop_name":"支庁前","stop_desc":null,"zone_id":"43_01","location_type":0,"parent_station":null,"wheelchair_boarding":null}},{"type":"Feature","id":"F020:43_02","geometry":{"type":"Point","coordinates":[139.516397,34.118815]},"properties":{"id":"F020:43_02","feed_id":"F020","feed_slug":"miyake-village-bus","municipality":"三宅村","service_name":"村営バス","license":"CC BY 4.0","source_stop_id":"43_02","stop_code":null,"stop_name":"支庁前","stop_desc":null,"zone_id":"43_02","location_type":0,"parent_station":null,"wheelchair_boarding":null}},{"type":"Feature","id":"F020:44_01","geometry":{"type":"Point","coordinates":[139.518118,34.11983]},"properties":{"id":"F020:44_01","feed_id":"F020","feed_slug":"miyake-village-bus","municipality":"三宅村","service_name":"村営バス","license":"CC BY 4.0","source_stop_id":"44_01","stop_code":null,"stop_name":"警察署前","stop_desc":null,"zone_id":"44_01","location_type":0,"parent_station":null,"wheelchair_boarding":null}},{"type":"Feature","id":"F020:44_02","geometry":{"type":"Point","coordinates":[139.518052,34.119691]},"properties":{"id":"F020:44_02","feed_id":"F020","feed_slug":"miyake-village-bus","municipality":"三宅村","service_name":"村営バス","license":"CC BY 4.0","source_stop_id":"44_02","stop_code":null,"stop_name":"警察署前","stop_desc":null,"zone_id":"44_02","location_type":0,"parent_station":null,"wheelchair_boarding":null}},{"type":"Feature","id":"F020:45_01","geometry":{"type":"Point","coordinates":[139.521398,34.120048]},"properties":{"id":"F020:45_01","feed_id":"F020","feed_slug":"miyake-village-bus","municipality":"三宅村","service_name":"村営バス","license":"CC BY 4.0","source_stop_id":"45_01","stop_code":null,"stop_name":"門の原","stop_desc":null,"zone_id":"45_01","location_type":0,"parent_station":null,"wheelchair_boarding":null}},{"type":"Feature","id":"F020:45_02","geometry":{"type":"Point","coordinates":[139.521351,34.119921]},"properties":{"id":"F020:45_02","feed_id":"F020","feed_slug":"miyake-village-bus","municipality":"三宅村","service_name":"村営バス","license":"CC BY 4.0","source_stop_id":"45_02","stop_code":null,"stop_name":"門の原","stop_desc":null,"zone_id":"45_02","location_type":0,"parent_station":null,"wheelchair_boarding":null}},{"type":"Feature","id":"F020:46_01","geometry":{"type":"Point","coordinates":[139.522611,34.120419]},"properties":{"id":"F020:46_01","feed_id":"F020","feed_slug":"miyake-village-bus","municipality":"三宅村","service_name":"村営バス","license":"CC BY 4.0","source_stop_id":"46_01","stop_code":null,"stop_name":"神着","stop_desc":null,"zone_id":"46_01","location_type":0,"parent_station":null,"wheelchair_boarding":null}},{"type":"Feature","id":"F020:46_02","geometry":{"type":"Point","coordinates":[139.522616,34.120341]},"properties":{"id":"F020:46_02","feed_id":"F020","feed_slug":"miyake-village-bus","municipality":"三宅村","service_name":"村営バス","license":"CC BY 4.0","source_stop_id":"46_02","stop_code":null,"stop_name":"神着","stop_desc":null,"zone_id":"46_02","location_type":0,"parent_station":null,"wheelchair_boarding":null}},{"type":"Feature","id":"F020:47_01","geometry":{"type":"Point","coordinates":[139.526715,34.121395]},"properties":{"id":"F020:47_01","feed_id":"F020","feed_slug":"miyake-village-bus","municipality":"三宅村","service_name":"村営バス","license":"CC BY 4.0","source_stop_id":"47_01","stop_code":null,"stop_name":"焼場","stop_desc":null,"zone_id":"47_01","location_type":0,"parent_station":null,"wheelchair_boarding":null}},{"type":"Feature","id":"F020:47_02","geometry":{"type":"Point","coordinates":[139.52658,34.121326]},"properties":{"id":"F020:47_02","feed_id":"F020","feed_slug":"miyake-village-bus","municipality":"三宅村","service_name":"村営バス","license":"CC BY 4.0","source_stop_id":"47_02","stop_code":null,"stop_name":"焼場","stop_desc":null,"zone_id":"47_02","location_type":0,"parent_station":null,"wheelchair_boarding":null}},{"type":"Feature","id":"F020:48_01","geometry":{"type":"Point","coordinates":[139.531119,34.12216]},"properties":{"id":"F020:48_01","feed_id":"F020","feed_slug":"miyake-village-bus","municipality":"三宅村","service_name":"村営バス","license":"CC BY 4.0","source_stop_id":"48_01","stop_code":null,"stop_name":"中央診療所","stop_desc":null,"zone_id":"48_01","location_type":0,"parent_station":null,"wheelchair_boarding":null}},{"type":"Feature","id":"F020:49_01","geometry":{"type":"Point","coordinates":[139.530323,34.121514]},"properties":{"id":"F020:49_01","feed_id":"F020","feed_slug":"miyake-village-bus","municipality":"三宅村","service_name":"村営バス","license":"CC BY 4.0","source_stop_id":"49_01","stop_code":null,"stop_name":"湯舟グラウンド前","stop_desc":null,"zone_id":"49_01","location_type":0,"parent_station":null,"wheelchair_boarding":null}},{"type":"Feature","id":"F020:49_02","geometry":{"type":"Point","coordinates":[139.530533,34.121362]},"properties":{"id":"F020:49_02","feed_id":"F020","feed_slug":"miyake-village-bus","municipality":"三宅村","service_name":"村営バス","license":"CC BY 4.0","source_stop_id":"49_02","stop_code":null,"stop_name":"湯舟グラウンド前","stop_desc":null,"zone_id":"49_02","location_type":0,"parent_station":null,"wheelchair_boarding":null}},{"type":"Feature","id":"F020:5_01","geometry":{"type":"Point","coordinates":[139.556425,34.066986]},"properties":{"id":"F020:5_01","feed_id":"F020","feed_slug":"miyake-village-bus","municipality":"三宅村","service_name":"村営バス","license":"CC BY 4.0","source_stop_id":"5_01","stop_code":null,"stop_name":"釜方","stop_desc":null,"zone_id":"5_01","location_type":0,"parent_station":null,"wheelchair_boarding":null}},{"type":"Feature","id":"F020:5_02","geometry":{"type":"Point","coordinates":[139.556305,34.066981]},"properties":{"id":"F020:5_02","feed_id":"F020","feed_slug":"miyake-village-bus","municipality":"三宅村","service_name":"村営バス","license":"CC BY 4.0","source_stop_id":"5_02","stop_code":null,"stop_name":"釜方","stop_desc":null,"zone_id":"5_02","location_type":0,"parent_station":null,"wheelchair_boarding":null}},{"type":"Feature","id":"F020:50_01","geometry":{"type":"Point","coordinates":[139.535198,34.120413]},"properties":{"id":"F020:50_01","feed_id":"F020","feed_slug":"miyake-village-bus","municipality":"三宅村","service_name":"村営バス","license":"CC BY 4.0","source_stop_id":"50_01","stop_code":null,"stop_name":"土佐","stop_desc":null,"zone_id":"50_01","location_type":0,"parent_station":null,"wheelchair_boarding":null}},{"type":"Feature","id":"F020:50_02","geometry":{"type":"Point","coordinates":[139.53501,34.120361]},"properties":{"id":"F020:50_02","feed_id":"F020","feed_slug":"miyake-village-bus","municipality":"三宅村","service_name":"村営バス","license":"CC BY 4.0","source_stop_id":"50_02","stop_code":null,"stop_name":"土佐","stop_desc":null,"zone_id":"50_02","location_type":0,"parent_station":null,"wheelchair_boarding":null}},{"type":"Feature","id":"F020:51_01","geometry":{"type":"Point","coordinates":[139.54175,34.118374]},"properties":{"id":"F020:51_01","feed_id":"F020","feed_slug":"miyake-village-bus","municipality":"三宅村","service_name":"村営バス","license":"CC BY 4.0","source_stop_id":"51_01","stop_code":null,"stop_name":"ナダード","stop_desc":null,"zone_id":"51_01","location_type":0,"parent_station":null,"wheelchair_boarding":null}},{"type":"Feature","id":"F020:51_02","geometry":{"type":"Point","coordinates":[139.541894,34.118201]},"properties":{"id":"F020:51_02","feed_id":"F020","feed_slug":"miyake-village-bus","municipality":"三宅村","service_name":"村営バス","license":"CC BY 4.0","source_stop_id":"51_02","stop_code":null,"stop_name":"ナダード","stop_desc":null,"zone_id":"51_02","location_type":0,"parent_station":null,"wheelchair_boarding":null}},{"type":"Feature","id":"F020:52_01","geometry":{"type":"Point","coordinates":[139.546535,34.116966]},"properties":{"id":"F020:52_01","feed_id":"F020","feed_slug":"miyake-village-bus","municipality":"三宅村","service_name":"村営バス","license":"CC BY 4.0","source_stop_id":"52_01","stop_code":null,"stop_name":"三ノ輪","stop_desc":null,"zone_id":"52_01","location_type":0,"parent_station":null,"wheelchair_boarding":null}},{"type":"Feature","id":"F020:52_02","geometry":{"type":"Point","coordinates":[139.546291,34.117021]},"properties":{"id":"F020:52_02","feed_id":"F020","feed_slug":"miyake-village-bus","municipality":"三宅村","service_name":"村営バス","license":"CC BY 4.0","source_stop_id":"52_02","stop_code":null,"stop_name":"三ノ輪","stop_desc":null,"zone_id":"52_02","location_type":0,"parent_station":null,"wheelchair_boarding":null}},{"type":"Feature","id":"F020:53_01","geometry":{"type":"Point","coordinates":[139.550282,34.115336]},"properties":{"id":"F020:53_01","feed_id":"F020","feed_slug":"miyake-village-bus","municipality":"三宅村","service_name":"村営バス","license":"CC BY 4.0","source_stop_id":"53_01","stop_code":null,"stop_name":"美茂井","stop_desc":null,"zone_id":"53_01","location_type":0,"parent_station":null,"wheelchair_boarding":null}},{"type":"Feature","id":"F020:53_02","geometry":{"type":"Point","coordinates":[139.549594,34.115651]},"properties":{"id":"F020:53_02","feed_id":"F020","feed_slug":"miyake-village-bus","municipality":"三宅村","service_name":"村営バス","license":"CC BY 4.0","source_stop_id":"53_02","stop_code":null,"stop_name":"美茂井","stop_desc":null,"zone_id":"53_02","location_type":0,"parent_station":null,"wheelchair_boarding":null}},{"type":"Feature","id":"F020:54_01","geometry":{"type":"Point","coordinates":[139.554691,34.11233]},"properties":{"id":"F020:54_01","feed_id":"F020","feed_slug":"miyake-village-bus","municipality":"三宅村","service_name":"村営バス","license":"CC BY 4.0","source_stop_id":"54_01","stop_code":null,"stop_name":"釜の尻","stop_desc":null,"zone_id":"54_01","location_type":0,"parent_station":null,"wheelchair_boarding":null}},{"type":"Feature","id":"F020:54_02","geometry":{"type":"Point","coordinates":[139.554297,34.112384]},"properties":{"id":"F020:54_02","feed_id":"F020","feed_slug":"miyake-village-bus","municipality":"三宅村","service_name":"村営バス","license":"CC BY 4.0","source_stop_id":"54_02","stop_code":null,"stop_name":"釜の尻","stop_desc":null,"zone_id":"54_02","location_type":0,"parent_station":null,"wheelchair_boarding":null}},{"type":"Feature","id":"F020:55_01","geometry":{"type":"Point","coordinates":[139.558297,34.108144]},"properties":{"id":"F020:55_01","feed_id":"F020","feed_slug":"miyake-village-bus","municipality":"三宅村","service_name":"村営バス","license":"CC BY 4.0","source_stop_id":"55_01","stop_code":null,"stop_name":"椎取神社前","stop_desc":null,"zone_id":"55_01","location_type":0,"parent_station":null,"wheelchair_boarding":null}},{"type":"Feature","id":"F020:55_02","geometry":{"type":"Point","coordinates":[139.558161,34.108129]},"properties":{"id":"F020:55_02","feed_id":"F020","feed_slug":"miyake-village-bus","municipality":"三宅村","service_name":"村営バス","license":"CC BY 4.0","source_stop_id":"55_02","stop_code":null,"stop_name":"椎取神社前","stop_desc":null,"zone_id":"55_02","location_type":0,"parent_station":null,"wheelchair_boarding":null}},{"type":"Feature","id":"F020:56_01","geometry":{"type":"Point","coordinates":[139.559635,34.101112]},"properties":{"id":"F020:56_01","feed_id":"F020","feed_slug":"miyake-village-bus","municipality":"三宅村","service_name":"村営バス","license":"CC BY 4.0","source_stop_id":"56_01","stop_code":null,"stop_name":"赤場暁","stop_desc":null,"zone_id":"56_01","location_type":0,"parent_station":null,"wheelchair_boarding":null}},{"type":"Feature","id":"F020:56_02","geometry":{"type":"Point","coordinates":[139.559518,34.101161]},"properties":{"id":"F020:56_02","feed_id":"F020","feed_slug":"miyake-village-bus","municipality":"三宅村","service_name":"村営バス","license":"CC BY 4.0","source_stop_id":"56_02","stop_code":null,"stop_name":"赤場暁","stop_desc":null,"zone_id":"56_02","location_type":0,"parent_station":null,"wheelchair_boarding":null}},{"type":"Feature","id":"F020:57_01","geometry":{"type":"Point","coordinates":[139.558738,34.09767]},"properties":{"id":"F020:57_01","feed_id":"F020","feed_slug":"miyake-village-bus","municipality":"三宅村","service_name":"村営バス","license":"CC BY 4.0","source_stop_id":"57_01","stop_code":null,"stop_name":"三七山","stop_desc":null,"zone_id":"57_01","location_type":0,"parent_station":null,"wheelchair_boarding":null}},{"type":"Feature","id":"F020:57_02","geometry":{"type":"Point","coordinates":[139.5586,34.097574]},"properties":{"id":"F020:57_02","feed_id":"F020","feed_slug":"miyake-village-bus","municipality":"三宅村","service_name":"村営バス","license":"CC BY 4.0","source_stop_id":"57_02","stop_code":null,"stop_name":"三七山","stop_desc":null,"zone_id":"57_02","location_type":0,"parent_station":null,"wheelchair_boarding":null}},{"type":"Feature","id":"F020:58_01","geometry":{"type":"Point","coordinates":[139.560432,34.092337]},"properties":{"id":"F020:58_01","feed_id":"F020","feed_slug":"miyake-village-bus","municipality":"三宅村","service_name":"村営バス","license":"CC BY 4.0","source_stop_id":"58_01","stop_code":null,"stop_name":"御子敷","stop_desc":null,"zone_id":"58_01","location_type":0,"parent_station":null,"wheelchair_boarding":null}},{"type":"Feature","id":"F020:58_02","geometry":{"type":"Point","coordinates":[139.560434,34.092188]},"properties":{"id":"F020:58_02","feed_id":"F020","feed_slug":"miyake-village-bus","municipality":"三宅村","service_name":"村営バス","license":"CC BY 4.0","source_stop_id":"58_02","stop_code":null,"stop_name":"御子敷","stop_desc":null,"zone_id":"58_02","location_type":0,"parent_station":null,"wheelchair_boarding":null}},{"type":"Feature","id":"F020:59_01","geometry":{"type":"Point","coordinates":[139.560866,34.086175]},"properties":{"id":"F020:59_01","feed_id":"F020","feed_slug":"miyake-village-bus","municipality":"三宅村","service_name":"村営バス","license":"CC BY 4.0","source_stop_id":"59_01","stop_code":null,"stop_name":"三池園地","stop_desc":null,"zone_id":"59_01","location_type":0,"parent_station":null,"wheelchair_boarding":null}},{"type":"Feature","id":"F020:59_02","geometry":{"type":"Point","coordinates":[139.560744,34.086099]},"properties":{"id":"F020:59_02","feed_id":"F020","feed_slug":"miyake-village-bus","municipality":"三宅村","service_name":"村営バス","license":"CC BY 4.0","source_stop_id":"59_02","stop_code":null,"stop_name":"三池園地","stop_desc":null,"zone_id":"59_02","location_type":0,"parent_station":null,"wheelchair_boarding":null}},{"type":"Feature","id":"F020:6_01","geometry":{"type":"Point","coordinates":[139.552479,34.063895]},"properties":{"id":"F020:6_01","feed_id":"F020","feed_slug":"miyake-village-bus","municipality":"三宅村","service_name":"村営バス","license":"CC BY 4.0","source_stop_id":"6_01","stop_code":null,"stop_name":"御嶽神社前","stop_desc":null,"zone_id":"6_01","location_type":0,"parent_station":null,"wheelchair_boarding":null}},{"type":"Feature","id":"F020:6_02","geometry":{"type":"Point","coordinates":[139.553212,34.064151]},"properties":{"id":"F020:6_02","feed_id":"F020","feed_slug":"miyake-village-bus","municipality":"三宅村","service_name":"村営バス","license":"CC BY 4.0","source_stop_id":"6_02","stop_code":null,"stop_name":"御嶽神社前","stop_desc":null,"zone_id":"6_02","location_type":0,"parent_station":null,"wheelchair_boarding":null}},{"type":"Feature","id":"F020:60_01","geometry":{"type":"Point","coordinates":[139.564161,34.079706]},"properties":{"id":"F020:60_01","feed_id":"F020","feed_slug":"miyake-village-bus","municipality":"三宅村","service_name":"村営バス","license":"CC BY 4.0","source_stop_id":"60_01","stop_code":null,"stop_name":"三池港","stop_desc":null,"zone_id":"60_01","location_type":0,"parent_station":null,"wheelchair_boarding":null}},{"type":"Feature","id":"F020:61_01","geometry":{"type":"Point","coordinates":[139.480963,34.068616]},"properties":{"id":"F020:61_01","feed_id":"F020","feed_slug":"miyake-village-bus","municipality":"三宅村","service_name":"村営バス","license":"CC BY 4.0","source_stop_id":"61_01","stop_code":null,"stop_name":"錆ヶ浜港","stop_desc":null,"zone_id":"61_01","location_type":0,"parent_station":null,"wheelchair_boarding":null}},{"type":"Feature","id":"F020:61_02","geometry":{"type":"Point","coordinates":[139.481078,34.068691]},"properties":{"id":"F020:61_02","feed_id":"F020","feed_slug":"miyake-village-bus","municipality":"三宅村","service_name":"村営バス","license":"CC BY 4.0","source_stop_id":"61_02","stop_code":null,"stop_name":"錆ヶ浜港","stop_desc":null,"zone_id":"61_02","location_type":0,"parent_station":null,"wheelchair_boarding":null}},{"type":"Feature","id":"F020:62_01","geometry":{"type":"Point","coordinates":[139.560415,34.083625]},"properties":{"id":"F020:62_01","feed_id":"F020","feed_slug":"miyake-village-bus","municipality":"三宅村","service_name":"村営バス","license":"CC BY 4.0","source_stop_id":"62_01","stop_code":null,"stop_name":"三池１","stop_desc":"三池","zone_id":"62_01","location_type":0,"parent_station":null,"wheelchair_boarding":null}},{"type":"Feature","id":"F020:62_02","geometry":{"type":"Point","coordinates":[139.559628,34.083547]},"properties":{"id":"F020:62_02","feed_id":"F020","feed_slug":"miyake-village-bus","municipality":"三宅村","service_name":"村営バス","license":"CC BY 4.0","source_stop_id":"62_02","stop_code":null,"stop_name":"三池１","stop_desc":"三池","zone_id":"62_02","location_type":0,"parent_station":null,"wheelchair_boarding":null}},{"type":"Feature","id":"F020:63_01","geometry":{"type":"Point","coordinates":[139.559675,34.079675]},"properties":{"id":"F020:63_01","feed_id":"F020","feed_slug":"miyake-village-bus","municipality":"三宅村","service_name":"村営バス","license":"CC BY 4.0","source_stop_id":"63_01","stop_code":null,"stop_name":"沖ヶ平１","stop_desc":"沖ヶ平","zone_id":"63_01","location_type":0,"parent_station":null,"wheelchair_boarding":null}},{"type":"Feature","id":"F020:63_02","geometry":{"type":"Point","coordinates":[139.559,34.0797]},"properties":{"id":"F020:63_02","feed_id":"F020","feed_slug":"miyake-village-bus","municipality":"三宅村","service_name":"村営バス","license":"CC BY 4.0","source_stop_id":"63_02","stop_code":null,"stop_name":"沖ヶ平１","stop_desc":"沖ヶ平","zone_id":"63_02","location_type":0,"parent_station":null,"wheelchair_boarding":null}},{"type":"Feature","id":"F020:64_01","geometry":{"type":"Point","coordinates":[139.557893,34.076903]},"properties":{"id":"F020:64_01","feed_id":"F020","feed_slug":"miyake-village-bus","municipality":"三宅村","service_name":"村営バス","license":"CC BY 4.0","source_stop_id":"64_01","stop_code":null,"stop_name":"企業課前１","stop_desc":"企業課前","zone_id":"64_01","location_type":0,"parent_station":null,"wheelchair_boarding":null}},{"type":"Feature","id":"F020:64_02","geometry":{"type":"Point","coordinates":[139.557401,34.076991]},"properties":{"id":"F020:64_02","feed_id":"F020","feed_slug":"miyake-village-bus","municipality":"三宅村","service_name":"村営バス","license":"CC BY 4.0","source_stop_id":"64_02","stop_code":null,"stop_name":"企業課前１","stop_desc":"企業課前","zone_id":"64_02","location_type":0,"parent_station":null,"wheelchair_boarding":null}},{"type":"Feature","id":"F020:65_01","geometry":{"type":"Point","coordinates":[139.558566,34.072616]},"properties":{"id":"F020:65_01","feed_id":"F020","feed_slug":"miyake-village-bus","municipality":"三宅村","service_name":"村営バス","license":"CC BY 4.0","source_stop_id":"65_01","stop_code":null,"stop_name":"空港前１","stop_desc":"空港前","zone_id":"65_01","location_type":0,"parent_station":null,"wheelchair_boarding":null}},{"type":"Feature","id":"F020:65_02","geometry":{"type":"Point","coordinates":[139.55777,34.073206]},"properties":{"id":"F020:65_02","feed_id":"F020","feed_slug":"miyake-village-bus","municipality":"三宅村","service_name":"村営バス","license":"CC BY 4.0","source_stop_id":"65_02","stop_code":null,"stop_name":"空港前１","stop_desc":"空港前","zone_id":"65_02","location_type":0,"parent_station":null,"wheelchair_boarding":null}},{"type":"Feature","id":"F020:66_01","geometry":{"type":"Point","coordinates":[139.556725,34.066852]},"properties":{"id":"F020:66_01","feed_id":"F020","feed_slug":"miyake-village-bus","municipality":"三宅村","service_name":"村営バス","license":"CC BY 4.0","source_stop_id":"66_01","stop_code":null,"stop_name":"釜方１","stop_desc":"釜方","zone_id":"66_01","location_type":0,"parent_station":null,"wheelchair_boarding":null}},{"type":"Feature","id":"F020:66_02","geometry":{"type":"Point","coordinates":[139.555886,34.06714]},"properties":{"id":"F020:66_02","feed_id":"F020","feed_slug":"miyake-village-bus","municipality":"三宅村","service_name":"村営バス","license":"CC BY 4.0","source_stop_id":"66_02","stop_code":null,"stop_name":"釜方１","stop_desc":"釜方","zone_id":"66_02","location_type":0,"parent_station":null,"wheelchair_boarding":null}},{"type":"Feature","id":"F020:67_01","geometry":{"type":"Point","coordinates":[139.55254,34.063617]},"properties":{"id":"F020:67_01","feed_id":"F020","feed_slug":"miyake-village-bus","municipality":"三宅村","service_name":"村営バス","license":"CC BY 4.0","source_stop_id":"67_01","stop_code":null,"stop_name":"御嶽神社前１","stop_desc":"御嶽神社前","zone_id":"67_01","location_type":0,"parent_station":null,"wheelchair_boarding":null}},{"type":"Feature","id":"F020:67_02","geometry":{"type":"Point","coordinates":[139.553136,34.064462]},"properties":{"id":"F020:67_02","feed_id":"F020","feed_slug":"miyake-village-bus","municipality":"三宅村","service_name":"村営バス","license":"CC BY 4.0","source_stop_id":"67_02","stop_code":null,"stop_name":"御嶽神社前１","stop_desc":"御嶽神社前","zone_id":"67_02","location_type":0,"parent_station":null,"wheelchair_boarding":null}},{"type":"Feature","id":"F020:68_01","geometry":{"type":"Point","coordinates":[139.550355,34.063146]},"properties":{"id":"F020:68_01","feed_id":"F020","feed_slug":"miyake-village-bus","municipality":"三宅村","service_name":"村営バス","license":"CC BY 4.0","source_stop_id":"68_01","stop_code":null,"stop_name":"大永井１","stop_desc":"大永井","zone_id":"68_01","location_type":0,"parent_station":null,"wheelchair_boarding":null}},{"type":"Feature","id":"F020:68_02","geometry":{"type":"Point","coordinates":[139.5502,34.064094]},"properties":{"id":"F020:68_02","feed_id":"F020","feed_slug":"miyake-village-bus","municipality":"三宅村","service_name":"村営バス","license":"CC BY 4.0","source_stop_id":"68_02","stop_code":null,"stop_name":"大永井１","stop_desc":"大永井","zone_id":"68_02","location_type":0,"parent_station":null,"wheelchair_boarding":null}},{"type":"Feature","id":"F020:69_01","geometry":{"type":"Point","coordinates":[139.547703,34.060917]},"properties":{"id":"F020:69_01","feed_id":"F020","feed_slug":"miyake-village-bus","municipality":"三宅村","service_name":"村営バス","license":"CC BY 4.0","source_stop_id":"69_01","stop_code":null,"stop_name":"旧坪田小学校前１","stop_desc":"旧坪田小学校前","zone_id":"69_01","location_type":0,"parent_station":null,"wheelchair_boarding":null}},{"type":"Feature","id":"F020:69_02","geometry":{"type":"Point","coordinates":[139.547148,34.061485]},"properties":{"id":"F020:69_02","feed_id":"F020","feed_slug":"miyake-village-bus","municipality":"三宅村","service_name":"村営バス","license":"CC BY 4.0","source_stop_id":"69_02","stop_code":null,"stop_name":"旧坪田小学校前１","stop_desc":"旧坪田小学校前","zone_id":"69_02","location_type":0,"parent_station":null,"wheelchair_boarding":null}},{"type":"Feature","id":"F020:7_01","geometry":{"type":"Point","coordinates":[139.550093,34.063498]},"properties":{"id":"F020:7_01","feed_id":"F020","feed_slug":"miyake-village-bus","municipality":"三宅村","service_name":"村営バス","license":"CC BY 4.0","source_stop_id":"7_01","stop_code":null,"stop_name":"大永井","stop_desc":null,"zone_id":"7_01","location_type":0,"parent_station":null,"wheelchair_boarding":null}},{"type":"Feature","id":"F020:7_02","geometry":{"type":"Point","coordinates":[139.550356,34.063821]},"properties":{"id":"F020:7_02","feed_id":"F020","feed_slug":"miyake-village-bus","municipality":"三宅村","service_name":"村営バス","license":"CC BY 4.0","source_stop_id":"7_02","stop_code":null,"stop_name":"大永井","stop_desc":null,"zone_id":"7_02","location_type":0,"parent_station":null,"wheelchair_boarding":null}},{"type":"Feature","id":"F020:70_01","geometry":{"type":"Point","coordinates":[139.545247,34.059719]},"properties":{"id":"F020:70_01","feed_id":"F020","feed_slug":"miyake-village-bus","municipality":"三宅村","service_name":"村営バス","license":"CC BY 4.0","source_stop_id":"70_01","stop_code":null,"stop_name":"坪田１","stop_desc":"坪田","zone_id":"70_01","location_type":0,"parent_station":null,"wheelchair_boarding":null}},{"type":"Feature","id":"F020:70_02","geometry":{"type":"Point","coordinates":[139.54482,34.060276]},"properties":{"id":"F020:70_02","feed_id":"F020","feed_slug":"miyake-village-bus","municipality":"三宅村","service_name":"村営バス","license":"CC BY 4.0","source_stop_id":"70_02","stop_code":null,"stop_name":"坪田１","stop_desc":"坪田","zone_id":"70_02","location_type":0,"parent_station":null,"wheelchair_boarding":null}},{"type":"Feature","id":"F020:71_01","geometry":{"type":"Point","coordinates":[139.542037,34.058007]},"properties":{"id":"F020:71_01","feed_id":"F020","feed_slug":"miyake-village-bus","municipality":"三宅村","service_name":"村営バス","license":"CC BY 4.0","source_stop_id":"71_01","stop_code":null,"stop_name":"郷野１","stop_desc":"郷野","zone_id":"71_01","location_type":0,"parent_station":null,"wheelchair_boarding":null}},{"type":"Feature","id":"F020:71_02","geometry":{"type":"Point","coordinates":[139.541756,34.058757]},"properties":{"id":"F020:71_02","feed_id":"F020","feed_slug":"miyake-village-bus","municipality":"三宅村","service_name":"村営バス","license":"CC BY 4.0","source_stop_id":"71_02","stop_code":null,"stop_name":"郷野１","stop_desc":"郷野","zone_id":"71_02","location_type":0,"parent_station":null,"wheelchair_boarding":null}},{"type":"Feature","id":"F020:72_01","geometry":{"type":"Point","coordinates":[139.537975,34.057513]},"properties":{"id":"F020:72_01","feed_id":"F020","feed_slug":"miyake-village-bus","municipality":"三宅村","service_name":"村営バス","license":"CC BY 4.0","source_stop_id":"72_01","stop_code":null,"stop_name":"高校前１","stop_desc":"高校前","zone_id":"72_01","location_type":0,"parent_station":null,"wheelchair_boarding":null}},{"type":"Feature","id":"F020:72_02","geometry":{"type":"Point","coordinates":[139.538252,34.057882]},"properties":{"id":"F020:72_02","feed_id":"F020","feed_slug":"miyake-village-bus","municipality":"三宅村","service_name":"村営バス","license":"CC BY 4.0","source_stop_id":"72_02","stop_code":null,"stop_name":"高校前１","stop_desc":"高校前","zone_id":"72_02","location_type":0,"parent_station":null,"wheelchair_boarding":null}},{"type":"Feature","id":"F020:73_01","geometry":{"type":"Point","coordinates":[139.505027,34.119825]},"properties":{"id":"F020:73_01","feed_id":"F020","feed_slug":"miyake-village-bus","municipality":"三宅村","service_name":"村営バス","license":"CC BY 4.0","source_stop_id":"73_01","stop_code":null,"stop_name":"三宅小中学校前１","stop_desc":"三宅小中学校前","zone_id":"73_01","location_type":0,"parent_station":null,"wheelchair_boarding":null}},{"type":"Feature","id":"F020:73_02","geometry":{"type":"Point","coordinates":[139.50534,34.119662]},"properties":{"id":"F020:73_02","feed_id":"F020","feed_slug":"miyake-village-bus","municipality":"三宅村","service_name":"村営バス","license":"CC BY 4.0","source_stop_id":"73_02","stop_code":null,"stop_name":"三宅小中学校前１","stop_desc":"三宅小中学校前","zone_id":"73_02","location_type":0,"parent_station":null,"wheelchair_boarding":null}},{"type":"Feature","id":"F020:74_01","geometry":{"type":"Point","coordinates":[139.564799,34.079759]},"properties":{"id":"F020:74_01","feed_id":"F020","feed_slug":"miyake-village-bus","municipality":"三宅村","service_name":"村営バス","license":"CC BY 4.0","source_stop_id":"74_01","stop_code":null,"stop_name":"三池港１","stop_desc":"三池港","zone_id":"74_01","location_type":0,"parent_station":null,"wheelchair_boarding":null}},{"type":"Feature","id":"F020:75_01","geometry":{"type":"Point","coordinates":[139.479552,34.068485]},"properties":{"id":"F020:75_01","feed_id":"F020","feed_slug":"miyake-village-bus","municipality":"三宅村","service_name":"村営バス","license":"CC BY 4.0","source_stop_id":"75_01","stop_code":null,"stop_name":"錆ヶ浜港船連絡バス","stop_desc":"錆ヶ浜港","zone_id":"75_01","location_type":0,"parent_station":null,"wheelchair_boarding":null}},{"type":"Feature","id":"F020:76_01","geometry":{"type":"Point","coordinates":[139.488149,34.101021]},"properties":{"id":"F020:76_01","feed_id":"F020","feed_slug":"miyake-village-bus","municipality":"三宅村","service_name":"村営バス","license":"CC BY 4.0","source_stop_id":"76_01","stop_code":null,"stop_name":"伊ヶ谷港船連絡バス","stop_desc":"伊ヶ谷港","zone_id":"76_01","location_type":0,"parent_station":null,"wheelchair_boarding":null}},{"type":"Feature","id":"F020:8_01","geometry":{"type":"Point","coordinates":[139.547391,34.061154]},"properties":{"id":"F020:8_01","feed_id":"F020","feed_slug":"miyake-village-bus","municipality":"三宅村","service_name":"村営バス","license":"CC BY 4.0","source_stop_id":"8_01","stop_code":null,"stop_name":"旧坪田小学校前","stop_desc":null,"zone_id":"8_01","location_type":0,"parent_station":null,"wheelchair_boarding":null}},{"type":"Feature","id":"F020:8_02","geometry":{"type":"Point","coordinates":[139.547349,34.061264]},"properties":{"id":"F020:8_02","feed_id":"F020","feed_slug":"miyake-village-bus","municipality":"三宅村","service_name":"村営バス","license":"CC BY 4.0","source_stop_id":"8_02","stop_code":null,"stop_name":"旧坪田小学校前","stop_desc":null,"zone_id":"8_02","location_type":0,"parent_station":null,"wheelchair_boarding":null}},{"type":"Feature","id":"F020:9_01","geometry":{"type":"Point","coordinates":[139.545066,34.060007]},"properties":{"id":"F020:9_01","feed_id":"F020","feed_slug":"miyake-village-bus","municipality":"三宅村","service_name":"村営バス","license":"CC BY 4.0","source_stop_id":"9_01","stop_code":null,"stop_name":"坪田","stop_desc":null,"zone_id":"9_01","location_type":0,"parent_station":null,"wheelchair_boarding":null}},{"type":"Feature","id":"F020:9_02","geometry":{"type":"Point","coordinates":[139.544891,34.060095]},"properties":{"id":"F020:9_02","feed_id":"F020","feed_slug":"miyake-village-bus","municipality":"三宅村","service_name":"村営バス","license":"CC BY 4.0","source_stop_id":"9_02","stop_code":null,"stop_name":"坪田","stop_desc":null,"zone_id":"9_02","location_type":0,"parent_station":null,"wheelchair_boarding":null}}]}
