{"type":"FeatureCollection","name":"nishitokyo-hanabus_routes","features":[{"type":"Feature","id":"F030:1:fallback-0","geometry":{"type":"LineString","coordinates":[[139.567461579503,35.7485646199508],[139.565973,35.751223],[139.564197,35.751214],[139.563117447618,35.7530554732475],[139.563234168606,35.7544660516736],[139.565252151606,35.7556131568098],[139.565211207514,35.7569085805034],[139.563988931446,35.7596947430316],[139.562853052987,35.7600080690924],[139.559730962978,35.7593902954047],[139.558840645421,35.7568623949384],[139.559461667205,35.7547258137778],[139.557994846905,35.7525114599957],[139.557267101969,35.7515132228498],[139.558825327877,35.7512580292085],[139.562075396559,35.7512896050056],[139.564417,35.751314],[139.566337,35.751358],[139.567461579503,35.7485646199508]]},"properties":{"id":"F030:1:fallback-0","feed_id":"F030","feed_slug":"nishitokyo-hanabus","municipality":"西東京市","service_name":"はなバス","license":"CC BY 4.0","source_route_id":"1","route_short_name":null,"route_long_name":"はなバス　第１ルート","route_desc":null,"route_type":3,"route_url":null,"route_color":"538DD5","route_text_color":"000000","directions":["0"],"geometry_source":"stop_times.txt fallback"}},{"type":"Feature","id":"F030:2:fallback-0","geometry":{"type":"LineString","coordinates":[[139.544668230562,35.7516237716033],[139.543458,35.749159],[139.544638,35.748354],[139.548721,35.746908],[139.549778,35.744775],[139.551006,35.74343],[139.552186,35.74218],[139.552588,35.739772],[139.553227,35.737752],[139.553951,35.737922],[139.556049,35.740034],[139.558548,35.742028],[139.561252,35.742481],[139.564063,35.74016],[139.565908,35.737112],[139.565903,35.735283],[139.566386,35.732644],[139.566096,35.731011],[139.564626628435,35.7288987142975]]},"properties":{"id":"F030:2:fallback-0","feed_id":"F030","feed_slug":"nishitokyo-hanabus","municipality":"西東京市","service_name":"はなバス","license":"CC BY 4.0","source_route_id":"2","route_short_name":null,"route_long_name":"はなバス　第２ルート（駅間）","route_desc":null,"route_type":3,"route_url":null,"route_color":"F79646","route_text_color":"000000","directions":["0"],"geometry_source":"stop_times.txt fallback"}},{"type":"Feature","id":"F030:2:fallback-1","geometry":{"type":"LineString","coordinates":[[139.564626628435,35.7288987142975],[139.565608,35.730092],[139.566257,35.732818],[139.565758,35.73571],[139.565769,35.73766],[139.563639,35.740517],[139.561515,35.742407],[139.558548,35.742028],[139.555614,35.739476],[139.553828,35.73766],[139.553034,35.737856],[139.552476,35.740251],[139.552277,35.741801],[139.550797,35.743525],[139.549692,35.744727],[139.548646,35.746817],[139.544274,35.748363],[139.543324,35.749168],[139.544668230562,35.7516237716033]]},"properties":{"id":"F030:2:fallback-1","feed_id":"F030","feed_slug":"nishitokyo-hanabus","municipality":"西東京市","service_name":"はなバス","license":"CC BY 4.0","source_route_id":"2","route_short_name":null,"route_long_name":"はなバス　第２ルート（駅間）","route_desc":null,"route_type":3,"route_url":null,"route_color":"F79646","route_text_color":"000000","directions":["1"],"geometry_source":"stop_times.txt fallback"}},{"type":"Feature","id":"F030:2F:fallback-0","geometry":{"type":"LineString","coordinates":[[139.544668230562,35.7516237716033],[139.543458,35.749159],[139.544638,35.748354],[139.548721,35.746908],[139.549778,35.744775],[139.551006,35.74343],[139.551763253121,35.7432487620476],[139.553193794552,35.7441930153194],[139.555848805559,35.7457319263923],[139.557357714994,35.7462899050064],[139.558059709111,35.7467115337809],[139.559690733165,35.7456888759096],[139.559833947775,35.7436665477298],[139.558548,35.742028],[139.555614,35.739476],[139.553828,35.73766],[139.553034,35.737856],[139.552476,35.740251],[139.552277,35.741801],[139.550797,35.743525],[139.549692,35.744727],[139.548646,35.746817],[139.544274,35.748363],[139.543324,35.749168],[139.544668230562,35.7516237716033]]},"properties":{"id":"F030:2F:fallback-0","feed_id":"F030","feed_slug":"nishitokyo-hanabus","municipality":"西東京市","service_name":"はなバス","license":"CC BY 4.0","source_route_id":"2F","route_short_name":null,"route_long_name":"はなバス　第２ルート（循環）","route_desc":null,"route_type":3,"route_url":null,"route_color":"FFCC00","route_text_color":"000000","directions":["0"],"geometry_source":"stop_times.txt fallback"}},{"type":"Feature","id":"F030:3:fallback-0","geometry":{"type":"LineString","coordinates":[[139.54021556822,35.727880414683],[139.538067,35.726386],[139.533679,35.723469],[139.531657,35.721509],[139.530991,35.719958],[139.527716314053,35.7206899466647],[139.531232735908,35.7167495926991],[139.532536245323,35.7151122390861],[139.532311,35.713364],[139.535267,35.711491],[139.540679,35.712872],[139.544906,35.714663],[139.546446,35.715376],[139.548935,35.716544],[139.551505,35.718011],[139.554766,35.720494],[139.556805,35.721252],[139.557486,35.723046],[139.55924,35.724557],[139.561547,35.724035],[139.564481496998,35.7284857094619]]},"properties":{"id":"F030:3:fallback-0","feed_id":"F030","feed_slug":"nishitokyo-hanabus","municipality":"西東京市","service_name":"はなバス","license":"CC BY 4.0","source_route_id":"3","route_short_name":null,"route_long_name":"はなバス　第３ルート（駅間）","route_desc":null,"route_type":3,"route_url":null,"route_color":"FF66CC","route_text_color":"000000","directions":["0"],"geometry_source":"stop_times.txt fallback"}},{"type":"Feature","id":"F030:3:fallback-1","geometry":{"type":"LineString","coordinates":[[139.564481496998,35.7284857094619],[139.560469,35.724078],[139.559015,35.7243],[139.557688,35.723373],[139.5568,35.721143],[139.555137,35.720564],[139.552014,35.718268],[139.549048,35.716239],[139.546006,35.714806],[139.540937,35.712615],[139.536206,35.711147],[139.531978,35.712262],[139.52870721105,35.7154557688489],[139.531232735908,35.7167495926991],[139.5333006,35.7168708],[139.5352993,35.7173799],[139.534049248415,35.7186335224476],[139.53164447325,35.7193653794141],[139.530905,35.719897],[139.53127,35.72113],[139.533754,35.723617],[139.5387,35.726617],[139.54021556822,35.727880414683]]},"properties":{"id":"F030:3:fallback-1","feed_id":"F030","feed_slug":"nishitokyo-hanabus","municipality":"西東京市","service_name":"はなバス","license":"CC BY 4.0","source_route_id":"3","route_short_name":null,"route_long_name":"はなバス　第３ルート（駅間）","route_desc":null,"route_type":3,"route_url":null,"route_color":"FF66CC","route_text_color":"000000","directions":["1"],"geometry_source":"stop_times.txt fallback"}},{"type":"Feature","id":"F030:3C:fallback-0","geometry":{"type":"LineString","coordinates":[[139.54021556822,35.727880414683],[139.538067,35.726386],[139.533679,35.723469],[139.531657,35.721509],[139.530991,35.719958],[139.527716314053,35.7206899466647],[139.531232735908,35.7167495926991],[139.5333006,35.7168708],[139.5352993,35.7173799],[139.534049248415,35.7186335224476],[139.53164447325,35.7193653794141],[139.530905,35.719897],[139.53127,35.72113],[139.533754,35.723617],[139.5387,35.726617],[139.54021556822,35.727880414683]]},"properties":{"id":"F030:3C:fallback-0","feed_id":"F030","feed_slug":"nishitokyo-hanabus","municipality":"西東京市","service_name":"はなバス","license":"CC BY 4.0","source_route_id":"3C","route_short_name":null,"route_long_name":"はなバス　第３ルート（循環）","route_desc":null,"route_type":3,"route_url":null,"route_color":"FFCCFF","route_text_color":"000000","directions":["0"],"geometry_source":"stop_times.txt fallback"}},{"type":"Feature","id":"F030:4:fallback-0","geometry":{"type":"LineString","coordinates":[[139.54021556822,35.727880414683],[139.540867,35.729274],[139.538641,35.729805],[139.53656,35.730293],[139.530283,35.732884],[139.529194,35.731164],[139.526432,35.731329],[139.524817,35.733903],[139.522394,35.734611],[139.523057,35.733062],[139.518133,35.731586],[139.514791,35.729748],[139.513488282961,35.7266792364206]]},"properties":{"id":"F030:4:fallback-0","feed_id":"F030","feed_slug":"nishitokyo-hanabus","municipality":"西東京市","service_name":"はなバス","license":"CC BY 4.0","source_route_id":"4","route_short_name":null,"route_long_name":"はなバス　第４北ルート","route_desc":null,"route_type":3,"route_url":null,"route_color":"339933","route_text_color":"000000","directions":["0"],"geometry_source":"stop_times.txt fallback"}},{"type":"Feature","id":"F030:4:fallback-1","geometry":{"type":"LineString","coordinates":[[139.513488282961,35.7266792364206],[139.514716,35.730118],[139.518288,35.731804],[139.52177,35.732858],[139.522394,35.734611],[139.523057,35.733062],[139.524221,35.732431],[139.52611,35.731682],[139.52903680185,35.7309795012102],[139.530101,35.732801],[139.535975186566,35.7317519267056],[139.536313,35.730423],[139.538818,35.729827],[139.541017,35.729308],[139.54021556822,35.727880414683]]},"properties":{"id":"F030:4:fallback-1","feed_id":"F030","feed_slug":"nishitokyo-hanabus","municipality":"西東京市","service_name":"はなバス","license":"CC BY 4.0","source_route_id":"4","route_short_name":null,"route_long_name":"はなバス　第４北ルート","route_desc":null,"route_type":3,"route_url":null,"route_color":"339933","route_text_color":"000000","directions":["1"],"geometry_source":"stop_times.txt fallback"}},{"type":"Feature","id":"F030:5:fallback-0","geometry":{"type":"LineString","coordinates":[[139.54021556822,35.727880414683],[139.538067,35.726386],[139.534602,35.725067],[139.532129,35.725685],[139.530026,35.724383],[139.528122479576,35.7251580251113],[139.526812,35.725415],[139.5253,35.723303],[139.523776,35.725171],[139.522714,35.727027],[139.520477,35.726352],[139.519581,35.728372],[139.518401,35.730327],[139.514791,35.729748],[139.513488282961,35.7266792364206]]},"properties":{"id":"F030:5:fallback-0","feed_id":"F030","feed_slug":"nishitokyo-hanabus","municipality":"西東京市","service_name":"はなバス","license":"CC BY 4.0","source_route_id":"5","route_short_name":null,"route_long_name":"はなバス　第４南ルート","route_desc":null,"route_type":3,"route_url":null,"route_color":"92D050","route_text_color":"000000","directions":["0"],"geometry_source":"stop_times.txt fallback"}},{"type":"Feature","id":"F030:5:fallback-1","geometry":{"type":"LineString","coordinates":[[139.513488282961,35.7266792364206],[139.514716,35.730118],[139.518465,35.73041],[139.519592,35.728995],[139.520268,35.727632],[139.52251,35.727035],[139.523916,35.724993],[139.525605,35.723281],[139.527848,35.725219],[139.529441,35.724461],[139.532456,35.725733],[139.534419,35.725289],[139.5387,35.726617],[139.54021556822,35.727880414683]]},"properties":{"id":"F030:5:fallback-1","feed_id":"F030","feed_slug":"nishitokyo-hanabus","municipality":"西東京市","service_name":"はなバス","license":"CC BY 4.0","source_route_id":"5","route_short_name":null,"route_long_name":"はなバス　第４南ルート","route_desc":null,"route_type":3,"route_url":null,"route_color":"92D050","route_text_color":"000000","directions":["1"],"geometry_source":"stop_times.txt fallback"}}]}
