{"type":"FeatureCollection","name":"nishitokyo-hanabus_stops","features":[{"type":"Feature","id":"F030:1_01","geometry":{"type":"Point","coordinates":[139.567461579503,35.7485646199508]},"properties":{"id":"F030:1_01","feed_id":"F030","feed_slug":"nishitokyo-hanabus","municipality":"西東京市","service_name":"はなバス","license":"CC BY 4.0","source_stop_id":"1_01","stop_code":null,"stop_name":"保谷駅北口","stop_desc":null,"zone_id":"1_01","location_type":0,"parent_station":null,"wheelchair_boarding":null}},{"type":"Feature","id":"F030:10_01","geometry":{"type":"Point","coordinates":[139.559730962978,35.7593902954047]},"properties":{"id":"F030:10_01","feed_id":"F030","feed_slug":"nishitokyo-hanabus","municipality":"西東京市","service_name":"はなバス","license":"CC BY 4.0","source_stop_id":"10_01","stop_code":null,"stop_name":"上後","stop_desc":null,"zone_id":"10_01","location_type":0,"parent_station":null,"wheelchair_boarding":null}},{"type":"Feature","id":"F030:11_01","geometry":{"type":"Point","coordinates":[139.558840645421,35.7568623949384]},"properties":{"id":"F030:11_01","feed_id":"F030","feed_slug":"nishitokyo-hanabus","municipality":"西東京市","service_name":"はなバス","license":"CC BY 4.0","source_stop_id":"11_01","stop_code":null,"stop_name":"青嵐台","stop_desc":null,"zone_id":"11_01","location_type":0,"parent_station":null,"wheelchair_boarding":null}},{"type":"Feature","id":"F030:12_01","geometry":{"type":"Point","coordinates":[139.559461667205,35.7547258137778]},"properties":{"id":"F030:12_01","feed_id":"F030","feed_slug":"nishitokyo-hanabus","municipality":"西東京市","service_name":"はなバス","license":"CC BY 4.0","source_stop_id":"12_01","stop_code":null,"stop_name":"上前","stop_desc":null,"zone_id":"12_01","location_type":0,"parent_station":null,"wheelchair_boarding":null}},{"type":"Feature","id":"F030:13_01","geometry":{"type":"Point","coordinates":[139.557994846905,35.7525114599957]},"properties":{"id":"F030:13_01","feed_id":"F030","feed_slug":"nishitokyo-hanabus","municipality":"西東京市","service_name":"はなバス","license":"CC BY 4.0","source_stop_id":"13_01","stop_code":null,"stop_name":"下保谷２丁目住宅北","stop_desc":null,"zone_id":"13_01","location_type":0,"parent_station":null,"wheelchair_boarding":null}},{"type":"Feature","id":"F030:14_01","geometry":{"type":"Point","coordinates":[139.557267101969,35.7515132228498]},"properties":{"id":"F030:14_01","feed_id":"F030","feed_slug":"nishitokyo-hanabus","municipality":"西東京市","service_name":"はなバス","license":"CC BY 4.0","source_stop_id":"14_01","stop_code":null,"stop_name":"下保谷２丁目住宅西","stop_desc":null,"zone_id":"14_01","location_type":0,"parent_station":null,"wheelchair_boarding":null}},{"type":"Feature","id":"F030:15_01","geometry":{"type":"Point","coordinates":[139.558825327877,35.7512580292085]},"properties":{"id":"F030:15_01","feed_id":"F030","feed_slug":"nishitokyo-hanabus","municipality":"西東京市","service_name":"はなバス","license":"CC BY 4.0","source_stop_id":"15_01","stop_code":null,"stop_name":"ポケットパーク","stop_desc":null,"zone_id":"15_01","location_type":0,"parent_station":null,"wheelchair_boarding":null}},{"type":"Feature","id":"F030:16_01","geometry":{"type":"Point","coordinates":[139.562075396559,35.7512896050056]},"properties":{"id":"F030:16_01","feed_id":"F030","feed_slug":"nishitokyo-hanabus","municipality":"西東京市","service_name":"はなバス","license":"CC BY 4.0","source_stop_id":"16_01","stop_code":null,"stop_name":"東松ノ木","stop_desc":null,"zone_id":"16_01","location_type":0,"parent_station":null,"wheelchair_boarding":null}},{"type":"Feature","id":"F030:17_01","geometry":{"type":"Point","coordinates":[139.544668230562,35.7516237716033]},"properties":{"id":"F030:17_01","feed_id":"F030","feed_slug":"nishitokyo-hanabus","municipality":"西東京市","service_name":"はなバス","license":"CC BY 4.0","source_stop_id":"17_01","stop_code":null,"stop_name":"ひばりヶ丘駅","stop_desc":null,"zone_id":"17_01","location_type":0,"parent_station":null,"wheelchair_boarding":null}},{"type":"Feature","id":"F030:18_01","geometry":{"type":"Point","coordinates":[139.543458,35.749159]},"properties":{"id":"F030:18_01","feed_id":"F030","feed_slug":"nishitokyo-hanabus","municipality":"西東京市","service_name":"はなバス","license":"CC BY 4.0","source_stop_id":"18_01","stop_code":null,"stop_name":"ひばりヶ丘駅入口","stop_desc":null,"zone_id":"18_01","location_type":0,"parent_station":null,"wheelchair_boarding":null}},{"type":"Feature","id":"F030:18_02","geometry":{"type":"Point","coordinates":[139.543324,35.749168]},"properties":{"id":"F030:18_02","feed_id":"F030","feed_slug":"nishitokyo-hanabus","municipality":"西東京市","service_name":"はなバス","license":"CC BY 4.0","source_stop_id":"18_02","stop_code":null,"stop_name":"ひばりヶ丘駅入口","stop_desc":null,"zone_id":"18_02","location_type":0,"parent_station":null,"wheelchair_boarding":null}},{"type":"Feature","id":"F030:19_01","geometry":{"type":"Point","coordinates":[139.544638,35.748354]},"properties":{"id":"F030:19_01","feed_id":"F030","feed_slug":"nishitokyo-hanabus","municipality":"西東京市","service_name":"はなバス","license":"CC BY 4.0","source_stop_id":"19_01","stop_code":null,"stop_name":"谷戸北","stop_desc":null,"zone_id":"19_01","location_type":0,"parent_station":null,"wheelchair_boarding":null}},{"type":"Feature","id":"F030:19_02","geometry":{"type":"Point","coordinates":[139.544274,35.748363]},"properties":{"id":"F030:19_02","feed_id":"F030","feed_slug":"nishitokyo-hanabus","municipality":"西東京市","service_name":"はなバス","license":"CC BY 4.0","source_stop_id":"19_02","stop_code":null,"stop_name":"谷戸北","stop_desc":null,"zone_id":"19_02","location_type":0,"parent_station":null,"wheelchair_boarding":null}},{"type":"Feature","id":"F030:2_01","geometry":{"type":"Point","coordinates":[139.565973,35.751223]},"properties":{"id":"F030:2_01","feed_id":"F030","feed_slug":"nishitokyo-hanabus","municipality":"西東京市","service_name":"はなバス","license":"CC BY 4.0","source_stop_id":"2_01","stop_code":null,"stop_name":"あらやしき公園北","stop_desc":null,"zone_id":"2_01","location_type":0,"parent_station":null,"wheelchair_boarding":null}},{"type":"Feature","id":"F030:2_02","geometry":{"type":"Point","coordinates":[139.566337,35.751358]},"properties":{"id":"F030:2_02","feed_id":"F030","feed_slug":"nishitokyo-hanabus","municipality":"西東京市","service_name":"はなバス","license":"CC BY 4.0","source_stop_id":"2_02","stop_code":null,"stop_name":"あらやしき公園北","stop_desc":null,"zone_id":"2_02","location_type":0,"parent_station":null,"wheelchair_boarding":null}},{"type":"Feature","id":"F030:20_01","geometry":{"type":"Point","coordinates":[139.548721,35.746908]},"properties":{"id":"F030:20_01","feed_id":"F030","feed_slug":"nishitokyo-hanabus","municipality":"西東京市","service_name":"はなバス","license":"CC BY 4.0","source_stop_id":"20_01","stop_code":null,"stop_name":"又六","stop_desc":null,"zone_id":"20_01","location_type":0,"parent_station":null,"wheelchair_boarding":null}},{"type":"Feature","id":"F030:20_02","geometry":{"type":"Point","coordinates":[139.548646,35.746817]},"properties":{"id":"F030:20_02","feed_id":"F030","feed_slug":"nishitokyo-hanabus","municipality":"西東京市","service_name":"はなバス","license":"CC BY 4.0","source_stop_id":"20_02","stop_code":null,"stop_name":"又六","stop_desc":null,"zone_id":"20_02","location_type":0,"parent_station":null,"wheelchair_boarding":null}},{"type":"Feature","id":"F030:21_01","geometry":{"type":"Point","coordinates":[139.549778,35.744775]},"properties":{"id":"F030:21_01","feed_id":"F030","feed_slug":"nishitokyo-hanabus","municipality":"西東京市","service_name":"はなバス","license":"CC BY 4.0","source_stop_id":"21_01","stop_code":null,"stop_name":"山合","stop_desc":null,"zone_id":"21_01","location_type":0,"parent_station":null,"wheelchair_boarding":null}},{"type":"Feature","id":"F030:21_02","geometry":{"type":"Point","coordinates":[139.549692,35.744727]},"properties":{"id":"F030:21_02","feed_id":"F030","feed_slug":"nishitokyo-hanabus","municipality":"西東京市","service_name":"はなバス","license":"CC BY 4.0","source_stop_id":"21_02","stop_code":null,"stop_name":"山合","stop_desc":null,"zone_id":"21_02","location_type":0,"parent_station":null,"wheelchair_boarding":null}},{"type":"Feature","id":"F030:22_01","geometry":{"type":"Point","coordinates":[139.551006,35.74343]},"properties":{"id":"F030:22_01","feed_id":"F030","feed_slug":"nishitokyo-hanabus","municipality":"西東京市","service_name":"はなバス","license":"CC BY 4.0","source_stop_id":"22_01","stop_code":null,"stop_name":"消費者センター分館","stop_desc":null,"zone_id":"22_01","location_type":0,"parent_station":null,"wheelchair_boarding":null}},{"type":"Feature","id":"F030:22_02","geometry":{"type":"Point","coordinates":[139.550797,35.743525]},"properties":{"id":"F030:22_02","feed_id":"F030","feed_slug":"nishitokyo-hanabus","municipality":"西東京市","service_name":"はなバス","license":"CC BY 4.0","source_stop_id":"22_02","stop_code":null,"stop_name":"消費者センター分館","stop_desc":null,"zone_id":"22_02","location_type":0,"parent_station":null,"wheelchair_boarding":null}},{"type":"Feature","id":"F030:23_01","geometry":{"type":"Point","coordinates":[139.551763253121,35.7432487620476]},"properties":{"id":"F030:23_01","feed_id":"F030","feed_slug":"nishitokyo-hanabus","municipality":"西東京市","service_name":"はなバス","license":"CC BY 4.0","source_stop_id":"23_01","stop_code":null,"stop_name":"住吉会館ルピナス","stop_desc":null,"zone_id":"23_01","location_type":0,"parent_station":null,"wheelchair_boarding":null}},{"type":"Feature","id":"F030:24_01","geometry":{"type":"Point","coordinates":[139.553193794552,35.7441930153194]},"properties":{"id":"F030:24_01","feed_id":"F030","feed_slug":"nishitokyo-hanabus","municipality":"西東京市","service_name":"はなバス","license":"CC BY 4.0","source_stop_id":"24_01","stop_code":null,"stop_name":"横山道","stop_desc":null,"zone_id":"24_01","location_type":0,"parent_station":null,"wheelchair_boarding":null}},{"type":"Feature","id":"F030:25_01","geometry":{"type":"Point","coordinates":[139.555848805559,35.7457319263923]},"properties":{"id":"F030:25_01","feed_id":"F030","feed_slug":"nishitokyo-hanabus","municipality":"西東京市","service_name":"はなバス","license":"CC BY 4.0","source_stop_id":"25_01","stop_code":null,"stop_name":"保谷高校","stop_desc":null,"zone_id":"25_01","location_type":0,"parent_station":null,"wheelchair_boarding":null}},{"type":"Feature","id":"F030:26_01","geometry":{"type":"Point","coordinates":[139.557357714994,35.7462899050064]},"properties":{"id":"F030:26_01","feed_id":"F030","feed_slug":"nishitokyo-hanabus","municipality":"西東京市","service_name":"はなバス","license":"CC BY 4.0","source_stop_id":"26_01","stop_code":null,"stop_name":"住吉町５丁目","stop_desc":null,"zone_id":"26_01","location_type":0,"parent_station":null,"wheelchair_boarding":null}},{"type":"Feature","id":"F030:27_01","geometry":{"type":"Point","coordinates":[139.558059709111,35.7467115337809]},"properties":{"id":"F030:27_01","feed_id":"F030","feed_slug":"nishitokyo-hanabus","municipality":"西東京市","service_name":"はなバス","license":"CC BY 4.0","source_stop_id":"27_01","stop_code":null,"stop_name":"泉町６丁目","stop_desc":null,"zone_id":"27_01","location_type":0,"parent_station":null,"wheelchair_boarding":null}},{"type":"Feature","id":"F030:28_01","geometry":{"type":"Point","coordinates":[139.559690733165,35.7456888759096]},"properties":{"id":"F030:28_01","feed_id":"F030","feed_slug":"nishitokyo-hanabus","municipality":"西東京市","service_name":"はなバス","license":"CC BY 4.0","source_stop_id":"28_01","stop_code":null,"stop_name":"中町交差点北","stop_desc":null,"zone_id":"28_01","location_type":0,"parent_station":null,"wheelchair_boarding":null}},{"type":"Feature","id":"F030:29_01","geometry":{"type":"Point","coordinates":[139.559833947775,35.7436665477298]},"properties":{"id":"F030:29_01","feed_id":"F030","feed_slug":"nishitokyo-hanabus","municipality":"西東京市","service_name":"はなバス","license":"CC BY 4.0","source_stop_id":"29_01","stop_code":null,"stop_name":"三軒家","stop_desc":null,"zone_id":"29_01","location_type":0,"parent_station":null,"wheelchair_boarding":null}},{"type":"Feature","id":"F030:3_01","geometry":{"type":"Point","coordinates":[139.564197,35.751214]},"properties":{"id":"F030:3_01","feed_id":"F030","feed_slug":"nishitokyo-hanabus","municipality":"西東京市","service_name":"はなバス","license":"CC BY 4.0","source_stop_id":"3_01","stop_code":null,"stop_name":"下保谷４丁目","stop_desc":null,"zone_id":"3_01","location_type":0,"parent_station":null,"wheelchair_boarding":null}},{"type":"Feature","id":"F030:3_02","geometry":{"type":"Point","coordinates":[139.564417,35.751314]},"properties":{"id":"F030:3_02","feed_id":"F030","feed_slug":"nishitokyo-hanabus","municipality":"西東京市","service_name":"はなバス","license":"CC BY 4.0","source_stop_id":"3_02","stop_code":null,"stop_name":"下保谷４丁目","stop_desc":null,"zone_id":"3_02","location_type":0,"parent_station":null,"wheelchair_boarding":null}},{"type":"Feature","id":"F030:30_01","geometry":{"type":"Point","coordinates":[139.558548,35.742028]},"properties":{"id":"F030:30_01","feed_id":"F030","feed_slug":"nishitokyo-hanabus","municipality":"西東京市","service_name":"はなバス","license":"CC BY 4.0","source_stop_id":"30_01","stop_code":null,"stop_name":"西東京市役所保谷庁舎","stop_desc":null,"zone_id":"30_01","location_type":0,"parent_station":null,"wheelchair_boarding":null}},{"type":"Feature","id":"F030:31_01","geometry":{"type":"Point","coordinates":[139.556049,35.740034]},"properties":{"id":"F030:31_01","feed_id":"F030","feed_slug":"nishitokyo-hanabus","municipality":"西東京市","service_name":"はなバス","license":"CC BY 4.0","source_stop_id":"31_01","stop_code":null,"stop_name":"荒井竹","stop_desc":null,"zone_id":"31_01","location_type":0,"parent_station":null,"wheelchair_boarding":null}},{"type":"Feature","id":"F030:31_02","geometry":{"type":"Point","coordinates":[139.555614,35.739476]},"properties":{"id":"F030:31_02","feed_id":"F030","feed_slug":"nishitokyo-hanabus","municipality":"西東京市","service_name":"はなバス","license":"CC BY 4.0","source_stop_id":"31_02","stop_code":null,"stop_name":"荒井竹","stop_desc":null,"zone_id":"31_02","location_type":0,"parent_station":null,"wheelchair_boarding":null}},{"type":"Feature","id":"F030:32_01","geometry":{"type":"Point","coordinates":[139.553951,35.737922]},"properties":{"id":"F030:32_01","feed_id":"F030","feed_slug":"nishitokyo-hanabus","municipality":"西東京市","service_name":"はなバス","license":"CC BY 4.0","source_stop_id":"32_01","stop_code":null,"stop_name":"保谷小学校","stop_desc":null,"zone_id":"32_01","location_type":0,"parent_station":null,"wheelchair_boarding":null}},{"type":"Feature","id":"F030:32_02","geometry":{"type":"Point","coordinates":[139.553828,35.73766]},"properties":{"id":"F030:32_02","feed_id":"F030","feed_slug":"nishitokyo-hanabus","municipality":"西東京市","service_name":"はなバス","license":"CC BY 4.0","source_stop_id":"32_02","stop_code":null,"stop_name":"保谷小学校","stop_desc":null,"zone_id":"32_02","location_type":0,"parent_station":null,"wheelchair_boarding":null}},{"type":"Feature","id":"F030:33_01","geometry":{"type":"Point","coordinates":[139.553227,35.737752]},"properties":{"id":"F030:33_01","feed_id":"F030","feed_slug":"nishitokyo-hanabus","municipality":"西東京市","service_name":"はなバス","license":"CC BY 4.0","source_stop_id":"33_01","stop_code":null,"stop_name":"泉町２丁目","stop_desc":null,"zone_id":"33_01","location_type":0,"parent_station":null,"wheelchair_boarding":null}},{"type":"Feature","id":"F030:33_02","geometry":{"type":"Point","coordinates":[139.553034,35.737856]},"properties":{"id":"F030:33_02","feed_id":"F030","feed_slug":"nishitokyo-hanabus","municipality":"西東京市","service_name":"はなバス","license":"CC BY 4.0","source_stop_id":"33_02","stop_code":null,"stop_name":"泉町２丁目","stop_desc":null,"zone_id":"33_02","location_type":0,"parent_station":null,"wheelchair_boarding":null}},{"type":"Feature","id":"F030:34_01","geometry":{"type":"Point","coordinates":[139.552588,35.739772]},"properties":{"id":"F030:34_01","feed_id":"F030","feed_slug":"nishitokyo-hanabus","municipality":"西東京市","service_name":"はなバス","license":"CC BY 4.0","source_stop_id":"34_01","stop_code":null,"stop_name":"大門","stop_desc":null,"zone_id":"34_01","location_type":0,"parent_station":null,"wheelchair_boarding":null}},{"type":"Feature","id":"F030:34_02","geometry":{"type":"Point","coordinates":[139.552476,35.740251]},"properties":{"id":"F030:34_02","feed_id":"F030","feed_slug":"nishitokyo-hanabus","municipality":"西東京市","service_name":"はなバス","license":"CC BY 4.0","source_stop_id":"34_02","stop_code":null,"stop_name":"大門","stop_desc":null,"zone_id":"34_02","location_type":0,"parent_station":null,"wheelchair_boarding":null}},{"type":"Feature","id":"F030:35_01","geometry":{"type":"Point","coordinates":[139.552186,35.74218]},"properties":{"id":"F030:35_01","feed_id":"F030","feed_slug":"nishitokyo-hanabus","municipality":"西東京市","service_name":"はなバス","license":"CC BY 4.0","source_stop_id":"35_01","stop_code":null,"stop_name":"如意輪寺","stop_desc":null,"zone_id":"35_01","location_type":0,"parent_station":null,"wheelchair_boarding":null}},{"type":"Feature","id":"F030:35_02","geometry":{"type":"Point","coordinates":[139.552277,35.741801]},"properties":{"id":"F030:35_02","feed_id":"F030","feed_slug":"nishitokyo-hanabus","municipality":"西東京市","service_name":"はなバス","license":"CC BY 4.0","source_stop_id":"35_02","stop_code":null,"stop_name":"如意輪寺","stop_desc":null,"zone_id":"35_02","location_type":0,"parent_station":null,"wheelchair_boarding":null}},{"type":"Feature","id":"F030:36_01","geometry":{"type":"Point","coordinates":[139.561252,35.742481]},"properties":{"id":"F030:36_01","feed_id":"F030","feed_slug":"nishitokyo-hanabus","municipality":"西東京市","service_name":"はなバス","license":"CC BY 4.0","source_stop_id":"36_01","stop_code":null,"stop_name":"中町２丁目","stop_desc":null,"zone_id":"36_01","location_type":0,"parent_station":null,"wheelchair_boarding":null}},{"type":"Feature","id":"F030:36_02","geometry":{"type":"Point","coordinates":[139.561515,35.742407]},"properties":{"id":"F030:36_02","feed_id":"F030","feed_slug":"nishitokyo-hanabus","municipality":"西東京市","service_name":"はなバス","license":"CC BY 4.0","source_stop_id":"36_02","stop_code":null,"stop_name":"中町２丁目","stop_desc":null,"zone_id":"36_02","location_type":0,"parent_station":null,"wheelchair_boarding":null}},{"type":"Feature","id":"F030:37_01","geometry":{"type":"Point","coordinates":[139.564063,35.74016]},"properties":{"id":"F030:37_01","feed_id":"F030","feed_slug":"nishitokyo-hanabus","municipality":"西東京市","service_name":"はなバス","license":"CC BY 4.0","source_stop_id":"37_01","stop_code":null,"stop_name":"碧山森入口","stop_desc":null,"zone_id":"37_01","location_type":0,"parent_station":null,"wheelchair_boarding":null}},{"type":"Feature","id":"F030:37_02","geometry":{"type":"Point","coordinates":[139.563639,35.740517]},"properties":{"id":"F030:37_02","feed_id":"F030","feed_slug":"nishitokyo-hanabus","municipality":"西東京市","service_name":"はなバス","license":"CC BY 4.0","source_stop_id":"37_02","stop_code":null,"stop_name":"碧山森入口","stop_desc":null,"zone_id":"37_02","location_type":0,"parent_station":null,"wheelchair_boarding":null}},{"type":"Feature","id":"F030:38_01","geometry":{"type":"Point","coordinates":[139.565908,35.737112]},"properties":{"id":"F030:38_01","feed_id":"F030","feed_slug":"nishitokyo-hanabus","municipality":"西東京市","service_name":"はなバス","license":"CC BY 4.0","source_stop_id":"38_01","stop_code":null,"stop_name":"天神山","stop_desc":null,"zone_id":"38_01","location_type":0,"parent_station":null,"wheelchair_boarding":null}},{"type":"Feature","id":"F030:38_02","geometry":{"type":"Point","coordinates":[139.565769,35.73766]},"properties":{"id":"F030:38_02","feed_id":"F030","feed_slug":"nishitokyo-hanabus","municipality":"西東京市","service_name":"はなバス","license":"CC BY 4.0","source_stop_id":"38_02","stop_code":null,"stop_name":"天神山","stop_desc":null,"zone_id":"38_02","location_type":0,"parent_station":null,"wheelchair_boarding":null}},{"type":"Feature","id":"F030:39_01","geometry":{"type":"Point","coordinates":[139.565903,35.735283]},"properties":{"id":"F030:39_01","feed_id":"F030","feed_slug":"nishitokyo-hanabus","municipality":"西東京市","service_name":"はなバス","license":"CC BY 4.0","source_stop_id":"39_01","stop_code":null,"stop_name":"鳥久保","stop_desc":null,"zone_id":"39_01","location_type":0,"parent_station":null,"wheelchair_boarding":null}},{"type":"Feature","id":"F030:39_02","geometry":{"type":"Point","coordinates":[139.565758,35.73571]},"properties":{"id":"F030:39_02","feed_id":"F030","feed_slug":"nishitokyo-hanabus","municipality":"西東京市","service_name":"はなバス","license":"CC BY 4.0","source_stop_id":"39_02","stop_code":null,"stop_name":"鳥久保","stop_desc":null,"zone_id":"39_02","location_type":0,"parent_station":null,"wheelchair_boarding":null}},{"type":"Feature","id":"F030:4_01","geometry":{"type":"Point","coordinates":[139.563117447618,35.7530554732475]},"properties":{"id":"F030:4_01","feed_id":"F030","feed_slug":"nishitokyo-hanabus","municipality":"西東京市","service_name":"はなバス","license":"CC BY 4.0","source_stop_id":"4_01","stop_code":null,"stop_name":"南宮ノ脇","stop_desc":null,"zone_id":"4_01","location_type":0,"parent_station":null,"wheelchair_boarding":null}},{"type":"Feature","id":"F030:40_01","geometry":{"type":"Point","coordinates":[139.566386,35.732644]},"properties":{"id":"F030:40_01","feed_id":"F030","feed_slug":"nishitokyo-hanabus","municipality":"西東京市","service_name":"はなバス","license":"CC BY 4.0","source_stop_id":"40_01","stop_code":null,"stop_name":"東伏見団地東","stop_desc":null,"zone_id":"40_01","location_type":0,"parent_station":null,"wheelchair_boarding":null}},{"type":"Feature","id":"F030:40_02","geometry":{"type":"Point","coordinates":[139.566257,35.732818]},"properties":{"id":"F030:40_02","feed_id":"F030","feed_slug":"nishitokyo-hanabus","municipality":"西東京市","service_name":"はなバス","license":"CC BY 4.0","source_stop_id":"40_02","stop_code":null,"stop_name":"東伏見団地東","stop_desc":null,"zone_id":"40_02","location_type":0,"parent_station":null,"wheelchair_boarding":null}},{"type":"Feature","id":"F030:41_01","geometry":{"type":"Point","coordinates":[139.566096,35.731011]},"properties":{"id":"F030:41_01","feed_id":"F030","feed_slug":"nishitokyo-hanabus","municipality":"西東京市","service_name":"はなバス","license":"CC BY 4.0","source_stop_id":"41_01","stop_code":null,"stop_name":"富士町４丁目","stop_desc":null,"zone_id":"41_01","location_type":0,"parent_station":null,"wheelchair_boarding":null}},{"type":"Feature","id":"F030:41_02","geometry":{"type":"Point","coordinates":[139.565608,35.730092]},"properties":{"id":"F030:41_02","feed_id":"F030","feed_slug":"nishitokyo-hanabus","municipality":"西東京市","service_name":"はなバス","license":"CC BY 4.0","source_stop_id":"41_02","stop_code":null,"stop_name":"富士町４丁目","stop_desc":null,"zone_id":"41_02","location_type":0,"parent_station":null,"wheelchair_boarding":null}},{"type":"Feature","id":"F030:42_01","geometry":{"type":"Point","coordinates":[139.564626628435,35.7288987142975]},"properties":{"id":"F030:42_01","feed_id":"F030","feed_slug":"nishitokyo-hanabus","municipality":"西東京市","service_name":"はなバス","license":"CC BY 4.0","source_stop_id":"42_01","stop_code":null,"stop_name":"東伏見駅北口","stop_desc":null,"zone_id":"42_01","location_type":0,"parent_station":null,"wheelchair_boarding":null}},{"type":"Feature","id":"F030:43_01","geometry":{"type":"Point","coordinates":[139.54021556822,35.727880414683]},"properties":{"id":"F030:43_01","feed_id":"F030","feed_slug":"nishitokyo-hanabus","municipality":"西東京市","service_name":"はなバス","license":"CC BY 4.0","source_stop_id":"43_01","stop_code":null,"stop_name":"田無駅","stop_desc":null,"zone_id":"43_01","location_type":0,"parent_station":null,"wheelchair_boarding":null}},{"type":"Feature","id":"F030:44_01","geometry":{"type":"Point","coordinates":[139.538067,35.726386]},"properties":{"id":"F030:44_01","feed_id":"F030","feed_slug":"nishitokyo-hanabus","municipality":"西東京市","service_name":"はなバス","license":"CC BY 4.0","source_stop_id":"44_01","stop_code":null,"stop_name":"田無庁舎前","stop_desc":null,"zone_id":"44_01","location_type":0,"parent_station":null,"wheelchair_boarding":null}},{"type":"Feature","id":"F030:44_02","geometry":{"type":"Point","coordinates":[139.5387,35.726617]},"properties":{"id":"F030:44_02","feed_id":"F030","feed_slug":"nishitokyo-hanabus","municipality":"西東京市","service_name":"はなバス","license":"CC BY 4.0","source_stop_id":"44_02","stop_code":null,"stop_name":"田無庁舎前","stop_desc":null,"zone_id":"44_02","location_type":0,"parent_station":null,"wheelchair_boarding":null}},{"type":"Feature","id":"F030:45_01","geometry":{"type":"Point","coordinates":[139.533679,35.723469]},"properties":{"id":"F030:45_01","feed_id":"F030","feed_slug":"nishitokyo-hanabus","municipality":"西東京市","service_name":"はなバス","license":"CC BY 4.0","source_stop_id":"45_01","stop_code":null,"stop_name":"田無特別支援学校","stop_desc":null,"zone_id":"45_01","location_type":0,"parent_station":null,"wheelchair_boarding":null}},{"type":"Feature","id":"F030:45_02","geometry":{"type":"Point","coordinates":[139.533754,35.723617]},"properties":{"id":"F030:45_02","feed_id":"F030","feed_slug":"nishitokyo-hanabus","municipality":"西東京市","service_name":"はなバス","license":"CC BY 4.0","source_stop_id":"45_02","stop_code":null,"stop_name":"田無特別支援学校","stop_desc":null,"zone_id":"45_02","location_type":0,"parent_station":null,"wheelchair_boarding":null}},{"type":"Feature","id":"F030:46_01","geometry":{"type":"Point","coordinates":[139.531657,35.721509]},"properties":{"id":"F030:46_01","feed_id":"F030","feed_slug":"nishitokyo-hanabus","municipality":"西東京市","service_name":"はなバス","license":"CC BY 4.0","source_stop_id":"46_01","stop_code":null,"stop_name":"向台グランド","stop_desc":null,"zone_id":"46_01","location_type":0,"parent_station":null,"wheelchair_boarding":null}},{"type":"Feature","id":"F030:46_02","geometry":{"type":"Point","coordinates":[139.53127,35.72113]},"properties":{"id":"F030:46_02","feed_id":"F030","feed_slug":"nishitokyo-hanabus","municipality":"西東京市","service_name":"はなバス","license":"CC BY 4.0","source_stop_id":"46_02","stop_code":null,"stop_name":"向台グランド","stop_desc":null,"zone_id":"46_02","location_type":0,"parent_station":null,"wheelchair_boarding":null}},{"type":"Feature","id":"F030:47_01","geometry":{"type":"Point","coordinates":[139.530991,35.719958]},"properties":{"id":"F030:47_01","feed_id":"F030","feed_slug":"nishitokyo-hanabus","municipality":"西東京市","service_name":"はなバス","license":"CC BY 4.0","source_stop_id":"47_01","stop_code":null,"stop_name":"市民公園前","stop_desc":null,"zone_id":"47_01","location_type":0,"parent_station":null,"wheelchair_boarding":null}},{"type":"Feature","id":"F030:47_02","geometry":{"type":"Point","coordinates":[139.530905,35.719897]},"properties":{"id":"F030:47_02","feed_id":"F030","feed_slug":"nishitokyo-hanabus","municipality":"西東京市","service_name":"はなバス","license":"CC BY 4.0","source_stop_id":"47_02","stop_code":null,"stop_name":"市民公園前","stop_desc":null,"zone_id":"47_02","location_type":0,"parent_station":null,"wheelchair_boarding":null}},{"type":"Feature","id":"F030:48_01","geometry":{"type":"Point","coordinates":[139.527716314053,35.7206899466647]},"properties":{"id":"F030:48_01","feed_id":"F030","feed_slug":"nishitokyo-hanabus","municipality":"西東京市","service_name":"はなバス","license":"CC BY 4.0","source_stop_id":"48_01","stop_code":null,"stop_name":"上向台市民集会所","stop_desc":null,"zone_id":"48_01","location_type":0,"parent_station":null,"wheelchair_boarding":null}},{"type":"Feature","id":"F030:49_01","geometry":{"type":"Point","coordinates":[139.531232735908,35.7167495926991]},"properties":{"id":"F030:49_01","feed_id":"F030","feed_slug":"nishitokyo-hanabus","municipality":"西東京市","service_name":"はなバス","license":"CC BY 4.0","source_stop_id":"49_01","stop_code":null,"stop_name":"鈴木街道","stop_desc":null,"zone_id":"49_01","location_type":0,"parent_station":null,"wheelchair_boarding":null}},{"type":"Feature","id":"F030:5_01","geometry":{"type":"Point","coordinates":[139.563234168606,35.7544660516736]},"properties":{"id":"F030:5_01","feed_id":"F030","feed_slug":"nishitokyo-hanabus","municipality":"西東京市","service_name":"はなバス","license":"CC BY 4.0","source_stop_id":"5_01","stop_code":null,"stop_name":"北宮ノ脇","stop_desc":null,"zone_id":"5_01","location_type":0,"parent_station":null,"wheelchair_boarding":null}},{"type":"Feature","id":"F030:50_01","geometry":{"type":"Point","coordinates":[139.5333006,35.7168708]},"properties":{"id":"F030:50_01","feed_id":"F030","feed_slug":"nishitokyo-hanabus","municipality":"西東京市","service_name":"はなバス","license":"CC BY 4.0","source_stop_id":"50_01","stop_code":null,"stop_name":"おおぞら公園西","stop_desc":null,"zone_id":"50_01","location_type":0,"parent_station":null,"wheelchair_boarding":null}},{"type":"Feature","id":"F030:51_01","geometry":{"type":"Point","coordinates":[139.5352993,35.7173799]},"properties":{"id":"F030:51_01","feed_id":"F030","feed_slug":"nishitokyo-hanabus","municipality":"西東京市","service_name":"はなバス","license":"CC BY 4.0","source_stop_id":"51_01","stop_code":null,"stop_name":"向台町３丁目","stop_desc":null,"zone_id":"51_01","location_type":0,"parent_station":null,"wheelchair_boarding":null}},{"type":"Feature","id":"F030:52_01","geometry":{"type":"Point","coordinates":[139.534049248415,35.7186335224476]},"properties":{"id":"F030:52_01","feed_id":"F030","feed_slug":"nishitokyo-hanabus","municipality":"西東京市","service_name":"はなバス","license":"CC BY 4.0","source_stop_id":"52_01","stop_code":null,"stop_name":"向台町４丁目","stop_desc":null,"zone_id":"52_01","location_type":0,"parent_station":null,"wheelchair_boarding":null}},{"type":"Feature","id":"F030:53_01","geometry":{"type":"Point","coordinates":[139.53164447325,35.7193653794141]},"properties":{"id":"F030:53_01","feed_id":"F030","feed_slug":"nishitokyo-hanabus","municipality":"西東京市","service_name":"はなバス","license":"CC BY 4.0","source_stop_id":"53_01","stop_code":null,"stop_name":"向台中央通り","stop_desc":null,"zone_id":"53_01","location_type":0,"parent_station":null,"wheelchair_boarding":null}},{"type":"Feature","id":"F030:54_01","geometry":{"type":"Point","coordinates":[139.532536245323,35.7151122390861]},"properties":{"id":"F030:54_01","feed_id":"F030","feed_slug":"nishitokyo-hanabus","municipality":"西東京市","service_name":"はなバス","license":"CC BY 4.0","source_stop_id":"54_01","stop_code":null,"stop_name":"新町５丁目","stop_desc":null,"zone_id":"54_01","location_type":0,"parent_station":null,"wheelchair_boarding":null}},{"type":"Feature","id":"F030:55_01","geometry":{"type":"Point","coordinates":[139.532311,35.713364]},"properties":{"id":"F030:55_01","feed_id":"F030","feed_slug":"nishitokyo-hanabus","municipality":"西東京市","service_name":"はなバス","license":"CC BY 4.0","source_stop_id":"55_01","stop_code":null,"stop_name":"新町６丁目","stop_desc":null,"zone_id":"55_01","location_type":0,"parent_station":null,"wheelchair_boarding":null}},{"type":"Feature","id":"F030:55_02","geometry":{"type":"Point","coordinates":[139.531978,35.712262]},"properties":{"id":"F030:55_02","feed_id":"F030","feed_slug":"nishitokyo-hanabus","municipality":"西東京市","service_name":"はなバス","license":"CC BY 4.0","source_stop_id":"55_02","stop_code":null,"stop_name":"新町６丁目","stop_desc":null,"zone_id":"55_02","location_type":0,"parent_station":null,"wheelchair_boarding":null}},{"type":"Feature","id":"F030:56_01","geometry":{"type":"Point","coordinates":[139.52870721105,35.7154557688489]},"properties":{"id":"F030:56_01","feed_id":"F030","feed_slug":"nishitokyo-hanabus","municipality":"西東京市","service_name":"はなバス","license":"CC BY 4.0","source_stop_id":"56_01","stop_code":null,"stop_name":"小金井公園東","stop_desc":null,"zone_id":"56_01","location_type":0,"parent_station":null,"wheelchair_boarding":null}},{"type":"Feature","id":"F030:57_01","geometry":{"type":"Point","coordinates":[139.535267,35.711491]},"properties":{"id":"F030:57_01","feed_id":"F030","feed_slug":"nishitokyo-hanabus","municipality":"西東京市","service_name":"はなバス","license":"CC BY 4.0","source_stop_id":"57_01","stop_code":null,"stop_name":"境橋","stop_desc":null,"zone_id":"57_01","location_type":0,"parent_station":null,"wheelchair_boarding":null}},{"type":"Feature","id":"F030:57_02","geometry":{"type":"Point","coordinates":[139.536206,35.711147]},"properties":{"id":"F030:57_02","feed_id":"F030","feed_slug":"nishitokyo-hanabus","municipality":"西東京市","service_name":"はなバス","license":"CC BY 4.0","source_stop_id":"57_02","stop_code":null,"stop_name":"境橋","stop_desc":null,"zone_id":"57_02","location_type":0,"parent_station":null,"wheelchair_boarding":null}},{"type":"Feature","id":"F030:58_01","geometry":{"type":"Point","coordinates":[139.540679,35.712872]},"properties":{"id":"F030:58_01","feed_id":"F030","feed_slug":"nishitokyo-hanabus","municipality":"西東京市","service_name":"はなバス","license":"CC BY 4.0","source_stop_id":"58_01","stop_code":null,"stop_name":"樋口橋","stop_desc":null,"zone_id":"58_01","location_type":0,"parent_station":null,"wheelchair_boarding":null}},{"type":"Feature","id":"F030:58_02","geometry":{"type":"Point","coordinates":[139.540937,35.712615]},"properties":{"id":"F030:58_02","feed_id":"F030","feed_slug":"nishitokyo-hanabus","municipality":"西東京市","service_name":"はなバス","license":"CC BY 4.0","source_stop_id":"58_02","stop_code":null,"stop_name":"樋口橋","stop_desc":null,"zone_id":"58_02","location_type":0,"parent_station":null,"wheelchair_boarding":null}},{"type":"Feature","id":"F030:59_01","geometry":{"type":"Point","coordinates":[139.544906,35.714663]},"properties":{"id":"F030:59_01","feed_id":"F030","feed_slug":"nishitokyo-hanabus","municipality":"西東京市","service_name":"はなバス","license":"CC BY 4.0","source_stop_id":"59_01","stop_code":null,"stop_name":"柳橋","stop_desc":null,"zone_id":"59_01","location_type":0,"parent_station":null,"wheelchair_boarding":null}},{"type":"Feature","id":"F030:6_01","geometry":{"type":"Point","coordinates":[139.565252151606,35.7556131568098]},"properties":{"id":"F030:6_01","feed_id":"F030","feed_slug":"nishitokyo-hanabus","municipality":"西東京市","service_name":"はなバス","license":"CC BY 4.0","source_stop_id":"6_01","stop_code":null,"stop_name":"北町５丁目","stop_desc":null,"zone_id":"6_01","location_type":0,"parent_station":null,"wheelchair_boarding":null}},{"type":"Feature","id":"F030:60_01","geometry":{"type":"Point","coordinates":[139.546446,35.715376]},"properties":{"id":"F030:60_01","feed_id":"F030","feed_slug":"nishitokyo-hanabus","municipality":"西東京市","service_name":"はなバス","license":"CC BY 4.0","source_stop_id":"60_01","stop_code":null,"stop_name":"新町１丁目","stop_desc":null,"zone_id":"60_01","location_type":0,"parent_station":null,"wheelchair_boarding":null}},{"type":"Feature","id":"F030:60_02","geometry":{"type":"Point","coordinates":[139.546006,35.714806]},"properties":{"id":"F030:60_02","feed_id":"F030","feed_slug":"nishitokyo-hanabus","municipality":"西東京市","service_name":"はなバス","license":"CC BY 4.0","source_stop_id":"60_02","stop_code":null,"stop_name":"新町１丁目","stop_desc":null,"zone_id":"60_02","location_type":0,"parent_station":null,"wheelchair_boarding":null}},{"type":"Feature","id":"F030:61_01","geometry":{"type":"Point","coordinates":[139.548935,35.716544]},"properties":{"id":"F030:61_01","feed_id":"F030","feed_slug":"nishitokyo-hanabus","municipality":"西東京市","service_name":"はなバス","license":"CC BY 4.0","source_stop_id":"61_01","stop_code":null,"stop_name":"武蔵野大学","stop_desc":null,"zone_id":"61_01","location_type":0,"parent_station":null,"wheelchair_boarding":null}},{"type":"Feature","id":"F030:61_02","geometry":{"type":"Point","coordinates":[139.549048,35.716239]},"properties":{"id":"F030:61_02","feed_id":"F030","feed_slug":"nishitokyo-hanabus","municipality":"西東京市","service_name":"はなバス","license":"CC BY 4.0","source_stop_id":"61_02","stop_code":null,"stop_name":"武蔵野大学","stop_desc":null,"zone_id":"61_02","location_type":0,"parent_station":null,"wheelchair_boarding":null}},{"type":"Feature","id":"F030:62_01","geometry":{"type":"Point","coordinates":[139.551505,35.718011]},"properties":{"id":"F030:62_01","feed_id":"F030","feed_slug":"nishitokyo-hanabus","municipality":"西東京市","service_name":"はなバス","license":"CC BY 4.0","source_stop_id":"62_01","stop_code":null,"stop_name":"千川小学校前","stop_desc":null,"zone_id":"62_01","location_type":0,"parent_station":null,"wheelchair_boarding":null}},{"type":"Feature","id":"F030:62_02","geometry":{"type":"Point","coordinates":[139.552014,35.718268]},"properties":{"id":"F030:62_02","feed_id":"F030","feed_slug":"nishitokyo-hanabus","municipality":"西東京市","service_name":"はなバス","license":"CC BY 4.0","source_stop_id":"62_02","stop_code":null,"stop_name":"千川小学校前","stop_desc":null,"zone_id":"62_02","location_type":0,"parent_station":null,"wheelchair_boarding":null}},{"type":"Feature","id":"F030:63_01","geometry":{"type":"Point","coordinates":[139.554766,35.720494]},"properties":{"id":"F030:63_01","feed_id":"F030","feed_slug":"nishitokyo-hanabus","municipality":"西東京市","service_name":"はなバス","license":"CC BY 4.0","source_stop_id":"63_01","stop_code":null,"stop_name":"柳沢団地","stop_desc":null,"zone_id":"63_01","location_type":0,"parent_station":null,"wheelchair_boarding":null}},{"type":"Feature","id":"F030:63_02","geometry":{"type":"Point","coordinates":[139.555137,35.720564]},"properties":{"id":"F030:63_02","feed_id":"F030","feed_slug":"nishitokyo-hanabus","municipality":"西東京市","service_name":"はなバス","license":"CC BY 4.0","source_stop_id":"63_02","stop_code":null,"stop_name":"柳沢団地","stop_desc":null,"zone_id":"63_02","location_type":0,"parent_station":null,"wheelchair_boarding":null}},{"type":"Feature","id":"F030:64_01","geometry":{"type":"Point","coordinates":[139.556805,35.721252]},"properties":{"id":"F030:64_01","feed_id":"F030","feed_slug":"nishitokyo-hanabus","municipality":"西東京市","service_name":"はなバス","license":"CC BY 4.0","source_stop_id":"64_01","stop_code":null,"stop_name":"武蔵野北高校前","stop_desc":null,"zone_id":"64_01","location_type":0,"parent_station":null,"wheelchair_boarding":null}},{"type":"Feature","id":"F030:64_02","geometry":{"type":"Point","coordinates":[139.5568,35.721143]},"properties":{"id":"F030:64_02","feed_id":"F030","feed_slug":"nishitokyo-hanabus","municipality":"西東京市","service_name":"はなバス","license":"CC BY 4.0","source_stop_id":"64_02","stop_code":null,"stop_name":"武蔵野北高校前","stop_desc":null,"zone_id":"64_02","location_type":0,"parent_station":null,"wheelchair_boarding":null}},{"type":"Feature","id":"F030:65_01","geometry":{"type":"Point","coordinates":[139.557486,35.723046]},"properties":{"id":"F030:65_01","feed_id":"F030","feed_slug":"nishitokyo-hanabus","municipality":"西東京市","service_name":"はなバス","license":"CC BY 4.0","source_stop_id":"65_01","stop_code":null,"stop_name":"伏見通り","stop_desc":null,"zone_id":"65_01","location_type":0,"parent_station":null,"wheelchair_boarding":null}},{"type":"Feature","id":"F030:65_02","geometry":{"type":"Point","coordinates":[139.557688,35.723373]},"properties":{"id":"F030:65_02","feed_id":"F030","feed_slug":"nishitokyo-hanabus","municipality":"西東京市","service_name":"はなバス","license":"CC BY 4.0","source_stop_id":"65_02","stop_code":null,"stop_name":"伏見通り","stop_desc":null,"zone_id":"65_02","location_type":0,"parent_station":null,"wheelchair_boarding":null}},{"type":"Feature","id":"F030:66_01","geometry":{"type":"Point","coordinates":[139.55924,35.724557]},"properties":{"id":"F030:66_01","feed_id":"F030","feed_slug":"nishitokyo-hanabus","municipality":"西東京市","service_name":"はなバス","license":"CC BY 4.0","source_stop_id":"66_01","stop_code":null,"stop_name":"東伏見","stop_desc":null,"zone_id":"66_01","location_type":0,"parent_station":null,"wheelchair_boarding":null}},{"type":"Feature","id":"F030:66_02","geometry":{"type":"Point","coordinates":[139.559015,35.7243]},"properties":{"id":"F030:66_02","feed_id":"F030","feed_slug":"nishitokyo-hanabus","municipality":"西東京市","service_name":"はなバス","license":"CC BY 4.0","source_stop_id":"66_02","stop_code":null,"stop_name":"東伏見","stop_desc":null,"zone_id":"66_02","location_type":0,"parent_station":null,"wheelchair_boarding":null}},{"type":"Feature","id":"F030:67_01","geometry":{"type":"Point","coordinates":[139.561547,35.724035]},"properties":{"id":"F030:67_01","feed_id":"F030","feed_slug":"nishitokyo-hanabus","municipality":"西東京市","service_name":"はなバス","license":"CC BY 4.0","source_stop_id":"67_01","stop_code":null,"stop_name":"東伏見坂上","stop_desc":null,"zone_id":"67_01","location_type":0,"parent_station":null,"wheelchair_boarding":null}},{"type":"Feature","id":"F030:67_02","geometry":{"type":"Point","coordinates":[139.560469,35.724078]},"properties":{"id":"F030:67_02","feed_id":"F030","feed_slug":"nishitokyo-hanabus","municipality":"西東京市","service_name":"はなバス","license":"CC BY 4.0","source_stop_id":"67_02","stop_code":null,"stop_name":"東伏見坂上","stop_desc":null,"zone_id":"67_02","location_type":0,"parent_station":null,"wheelchair_boarding":null}},{"type":"Feature","id":"F030:68_01","geometry":{"type":"Point","coordinates":[139.564481496998,35.7284857094619]},"properties":{"id":"F030:68_01","feed_id":"F030","feed_slug":"nishitokyo-hanabus","municipality":"西東京市","service_name":"はなバス","license":"CC BY 4.0","source_stop_id":"68_01","stop_code":null,"stop_name":"東伏見駅南口","stop_desc":null,"zone_id":"68_01","location_type":0,"parent_station":null,"wheelchair_boarding":null}},{"type":"Feature","id":"F030:69_01","geometry":{"type":"Point","coordinates":[139.540867,35.729274]},"properties":{"id":"F030:69_01","feed_id":"F030","feed_slug":"nishitokyo-hanabus","municipality":"西東京市","service_name":"はなバス","license":"CC BY 4.0","source_stop_id":"69_01","stop_code":null,"stop_name":"田無駅入口","stop_desc":null,"zone_id":"69_01","location_type":0,"parent_station":null,"wheelchair_boarding":null}},{"type":"Feature","id":"F030:69_02","geometry":{"type":"Point","coordinates":[139.541017,35.729308]},"properties":{"id":"F030:69_02","feed_id":"F030","feed_slug":"nishitokyo-hanabus","municipality":"西東京市","service_name":"はなバス","license":"CC BY 4.0","source_stop_id":"69_02","stop_code":null,"stop_name":"田無駅入口","stop_desc":null,"zone_id":"69_02","location_type":0,"parent_station":null,"wheelchair_boarding":null}},{"type":"Feature","id":"F030:7_01","geometry":{"type":"Point","coordinates":[139.565211207514,35.7569085805034]},"properties":{"id":"F030:7_01","feed_id":"F030","feed_slug":"nishitokyo-hanabus","municipality":"西東京市","service_name":"はなバス","license":"CC BY 4.0","source_stop_id":"7_01","stop_code":null,"stop_name":"北荒屋敷","stop_desc":null,"zone_id":"7_01","location_type":0,"parent_station":null,"wheelchair_boarding":null}},{"type":"Feature","id":"F030:70_01","geometry":{"type":"Point","coordinates":[139.538641,35.729805]},"properties":{"id":"F030:70_01","feed_id":"F030","feed_slug":"nishitokyo-hanabus","municipality":"西東京市","service_name":"はなバス","license":"CC BY 4.0","source_stop_id":"70_01","stop_code":null,"stop_name":"田無警察署前","stop_desc":null,"zone_id":"70_01","location_type":0,"parent_station":null,"wheelchair_boarding":null}},{"type":"Feature","id":"F030:70_02","geometry":{"type":"Point","coordinates":[139.538818,35.729827]},"properties":{"id":"F030:70_02","feed_id":"F030","feed_slug":"nishitokyo-hanabus","municipality":"西東京市","service_name":"はなバス","license":"CC BY 4.0","source_stop_id":"70_02","stop_code":null,"stop_name":"田無警察署前","stop_desc":null,"zone_id":"70_02","location_type":0,"parent_station":null,"wheelchair_boarding":null}},{"type":"Feature","id":"F030:71_01","geometry":{"type":"Point","coordinates":[139.53656,35.730293]},"properties":{"id":"F030:71_01","feed_id":"F030","feed_slug":"nishitokyo-hanabus","municipality":"西東京市","service_name":"はなバス","license":"CC BY 4.0","source_stop_id":"71_01","stop_code":null,"stop_name":"上宿","stop_desc":null,"zone_id":"71_01","location_type":0,"parent_station":null,"wheelchair_boarding":null}},{"type":"Feature","id":"F030:71_02","geometry":{"type":"Point","coordinates":[139.536313,35.730423]},"properties":{"id":"F030:71_02","feed_id":"F030","feed_slug":"nishitokyo-hanabus","municipality":"西東京市","service_name":"はなバス","license":"CC BY 4.0","source_stop_id":"71_02","stop_code":null,"stop_name":"上宿","stop_desc":null,"zone_id":"71_02","location_type":0,"parent_station":null,"wheelchair_boarding":null}},{"type":"Feature","id":"F030:72_02","geometry":{"type":"Point","coordinates":[139.535975186566,35.7317519267056]},"properties":{"id":"F030:72_02","feed_id":"F030","feed_slug":"nishitokyo-hanabus","municipality":"西東京市","service_name":"はなバス","license":"CC BY 4.0","source_stop_id":"72_02","stop_code":null,"stop_name":"田無総合福祉センター","stop_desc":null,"zone_id":"72_02","location_type":0,"parent_station":null,"wheelchair_boarding":null}},{"type":"Feature","id":"F030:73_01","geometry":{"type":"Point","coordinates":[139.530283,35.732884]},"properties":{"id":"F030:73_01","feed_id":"F030","feed_slug":"nishitokyo-hanabus","municipality":"西東京市","service_name":"はなバス","license":"CC BY 4.0","source_stop_id":"73_01","stop_code":null,"stop_name":"田無本町７丁目住宅","stop_desc":null,"zone_id":"73_01","location_type":0,"parent_station":null,"wheelchair_boarding":null}},{"type":"Feature","id":"F030:73_02","geometry":{"type":"Point","coordinates":[139.530101,35.732801]},"properties":{"id":"F030:73_02","feed_id":"F030","feed_slug":"nishitokyo-hanabus","municipality":"西東京市","service_name":"はなバス","license":"CC BY 4.0","source_stop_id":"73_02","stop_code":null,"stop_name":"田無本町７丁目住宅","stop_desc":null,"zone_id":"73_02","location_type":0,"parent_station":null,"wheelchair_boarding":null}},{"type":"Feature","id":"F030:74_01","geometry":{"type":"Point","coordinates":[139.529194,35.731164]},"properties":{"id":"F030:74_01","feed_id":"F030","feed_slug":"nishitokyo-hanabus","municipality":"西東京市","service_name":"はなバス","license":"CC BY 4.0","source_stop_id":"74_01","stop_code":null,"stop_name":"田無橋場西","stop_desc":null,"zone_id":"74_01","location_type":0,"parent_station":null,"wheelchair_boarding":null}},{"type":"Feature","id":"F030:74_02","geometry":{"type":"Point","coordinates":[139.52903680185,35.7309795012102]},"properties":{"id":"F030:74_02","feed_id":"F030","feed_slug":"nishitokyo-hanabus","municipality":"西東京市","service_name":"はなバス","license":"CC BY 4.0","source_stop_id":"74_02","stop_code":null,"stop_name":"田無橋場西","stop_desc":null,"zone_id":"74_02","location_type":0,"parent_station":null,"wheelchair_boarding":null}},{"type":"Feature","id":"F030:75_01","geometry":{"type":"Point","coordinates":[139.526432,35.731329]},"properties":{"id":"F030:75_01","feed_id":"F030","feed_slug":"nishitokyo-hanabus","municipality":"西東京市","service_name":"はなバス","license":"CC BY 4.0","source_stop_id":"75_01","stop_code":null,"stop_name":"芝久保５丁目","stop_desc":null,"zone_id":"75_01","location_type":0,"parent_station":null,"wheelchair_boarding":null}},{"type":"Feature","id":"F030:75_02","geometry":{"type":"Point","coordinates":[139.52611,35.731682]},"properties":{"id":"F030:75_02","feed_id":"F030","feed_slug":"nishitokyo-hanabus","municipality":"西東京市","service_name":"はなバス","license":"CC BY 4.0","source_stop_id":"75_02","stop_code":null,"stop_name":"芝久保５丁目","stop_desc":null,"zone_id":"75_02","location_type":0,"parent_station":null,"wheelchair_boarding":null}},{"type":"Feature","id":"F030:76_01","geometry":{"type":"Point","coordinates":[139.524817,35.733903]},"properties":{"id":"F030:76_01","feed_id":"F030","feed_slug":"nishitokyo-hanabus","municipality":"西東京市","service_name":"はなバス","license":"CC BY 4.0","source_stop_id":"76_01","stop_code":null,"stop_name":"北芝久保","stop_desc":null,"zone_id":"76_01","location_type":0,"parent_station":null,"wheelchair_boarding":null}},{"type":"Feature","id":"F030:76_02","geometry":{"type":"Point","coordinates":[139.524221,35.732431]},"properties":{"id":"F030:76_02","feed_id":"F030","feed_slug":"nishitokyo-hanabus","municipality":"西東京市","service_name":"はなバス","license":"CC BY 4.0","source_stop_id":"76_02","stop_code":null,"stop_name":"北芝久保","stop_desc":null,"zone_id":"76_02","location_type":0,"parent_station":null,"wheelchair_boarding":null}},{"type":"Feature","id":"F030:77_01","geometry":{"type":"Point","coordinates":[139.522394,35.734611]},"properties":{"id":"F030:77_01","feed_id":"F030","feed_slug":"nishitokyo-hanabus","municipality":"西東京市","service_name":"はなバス","license":"CC BY 4.0","source_stop_id":"77_01","stop_code":null,"stop_name":"多摩六都科学館","stop_desc":null,"zone_id":"77_01","location_type":0,"parent_station":null,"wheelchair_boarding":null}},{"type":"Feature","id":"F030:78_01","geometry":{"type":"Point","coordinates":[139.523057,35.733062]},"properties":{"id":"F030:78_01","feed_id":"F030","feed_slug":"nishitokyo-hanabus","municipality":"西東京市","service_name":"はなバス","license":"CC BY 4.0","source_stop_id":"78_01","stop_code":null,"stop_name":"田無北芝久保郵便局","stop_desc":null,"zone_id":"78_01","location_type":0,"parent_station":null,"wheelchair_boarding":null}},{"type":"Feature","id":"F030:78_02","geometry":{"type":"Point","coordinates":[139.52177,35.732858]},"properties":{"id":"F030:78_02","feed_id":"F030","feed_slug":"nishitokyo-hanabus","municipality":"西東京市","service_name":"はなバス","license":"CC BY 4.0","source_stop_id":"78_02","stop_code":null,"stop_name":"田無北芝久保郵便局","stop_desc":null,"zone_id":"78_02","location_type":0,"parent_station":null,"wheelchair_boarding":null}},{"type":"Feature","id":"F030:79_01","geometry":{"type":"Point","coordinates":[139.518133,35.731586]},"properties":{"id":"F030:79_01","feed_id":"F030","feed_slug":"nishitokyo-hanabus","municipality":"西東京市","service_name":"はなバス","license":"CC BY 4.0","source_stop_id":"79_01","stop_code":null,"stop_name":"芝久保４丁目住宅","stop_desc":null,"zone_id":"79_01","location_type":0,"parent_station":null,"wheelchair_boarding":null}},{"type":"Feature","id":"F030:79_02","geometry":{"type":"Point","coordinates":[139.518288,35.731804]},"properties":{"id":"F030:79_02","feed_id":"F030","feed_slug":"nishitokyo-hanabus","municipality":"西東京市","service_name":"はなバス","license":"CC BY 4.0","source_stop_id":"79_02","stop_code":null,"stop_name":"芝久保４丁目住宅","stop_desc":null,"zone_id":"79_02","location_type":0,"parent_station":null,"wheelchair_boarding":null}},{"type":"Feature","id":"F030:8_01","geometry":{"type":"Point","coordinates":[139.563988931446,35.7596947430316]},"properties":{"id":"F030:8_01","feed_id":"F030","feed_slug":"nishitokyo-hanabus","municipality":"西東京市","service_name":"はなバス","license":"CC BY 4.0","source_stop_id":"8_01","stop_code":null,"stop_name":"変電所東","stop_desc":null,"zone_id":"8_01","location_type":0,"parent_station":null,"wheelchair_boarding":null}},{"type":"Feature","id":"F030:80_01","geometry":{"type":"Point","coordinates":[139.514791,35.729748]},"properties":{"id":"F030:80_01","feed_id":"F030","feed_slug":"nishitokyo-hanabus","municipality":"西東京市","service_name":"はなバス","license":"CC BY 4.0","source_stop_id":"80_01","stop_code":null,"stop_name":"小平合同庁舎","stop_desc":null,"zone_id":"80_01","location_type":0,"parent_station":null,"wheelchair_boarding":null}},{"type":"Feature","id":"F030:80_02","geometry":{"type":"Point","coordinates":[139.514716,35.730118]},"properties":{"id":"F030:80_02","feed_id":"F030","feed_slug":"nishitokyo-hanabus","municipality":"西東京市","service_name":"はなバス","license":"CC BY 4.0","source_stop_id":"80_02","stop_code":null,"stop_name":"小平合同庁舎","stop_desc":null,"zone_id":"80_02","location_type":0,"parent_station":null,"wheelchair_boarding":null}},{"type":"Feature","id":"F030:81_01","geometry":{"type":"Point","coordinates":[139.513488282961,35.7266792364206]},"properties":{"id":"F030:81_01","feed_id":"F030","feed_slug":"nishitokyo-hanabus","municipality":"西東京市","service_name":"はなバス","license":"CC BY 4.0","source_stop_id":"81_01","stop_code":null,"stop_name":"花小金井駅","stop_desc":null,"zone_id":"81_01","location_type":0,"parent_station":null,"wheelchair_boarding":null}},{"type":"Feature","id":"F030:82_01","geometry":{"type":"Point","coordinates":[139.534602,35.725067]},"properties":{"id":"F030:82_01","feed_id":"F030","feed_slug":"nishitokyo-hanabus","municipality":"西東京市","service_name":"はなバス","license":"CC BY 4.0","source_stop_id":"82_01","stop_code":null,"stop_name":"向南中央通り","stop_desc":null,"zone_id":"82_01","location_type":0,"parent_station":null,"wheelchair_boarding":null}},{"type":"Feature","id":"F030:82_02","geometry":{"type":"Point","coordinates":[139.534419,35.725289]},"properties":{"id":"F030:82_02","feed_id":"F030","feed_slug":"nishitokyo-hanabus","municipality":"西東京市","service_name":"はなバス","license":"CC BY 4.0","source_stop_id":"82_02","stop_code":null,"stop_name":"向南中央通り","stop_desc":null,"zone_id":"82_02","location_type":0,"parent_station":null,"wheelchair_boarding":null}},{"type":"Feature","id":"F030:83_01","geometry":{"type":"Point","coordinates":[139.532129,35.725685]},"properties":{"id":"F030:83_01","feed_id":"F030","feed_slug":"nishitokyo-hanabus","municipality":"西東京市","service_name":"はなバス","license":"CC BY 4.0","source_stop_id":"83_01","stop_code":null,"stop_name":"南町６丁目","stop_desc":null,"zone_id":"83_01","location_type":0,"parent_station":null,"wheelchair_boarding":null}},{"type":"Feature","id":"F030:83_02","geometry":{"type":"Point","coordinates":[139.532456,35.725733]},"properties":{"id":"F030:83_02","feed_id":"F030","feed_slug":"nishitokyo-hanabus","municipality":"西東京市","service_name":"はなバス","license":"CC BY 4.0","source_stop_id":"83_02","stop_code":null,"stop_name":"南町６丁目","stop_desc":null,"zone_id":"83_02","location_type":0,"parent_station":null,"wheelchair_boarding":null}},{"type":"Feature","id":"F030:84_01","geometry":{"type":"Point","coordinates":[139.530026,35.724383]},"properties":{"id":"F030:84_01","feed_id":"F030","feed_slug":"nishitokyo-hanabus","municipality":"西東京市","service_name":"はなバス","license":"CC BY 4.0","source_stop_id":"84_01","stop_code":null,"stop_name":"府中道","stop_desc":null,"zone_id":"84_01","location_type":0,"parent_station":null,"wheelchair_boarding":null}},{"type":"Feature","id":"F030:84_02","geometry":{"type":"Point","coordinates":[139.529441,35.724461]},"properties":{"id":"F030:84_02","feed_id":"F030","feed_slug":"nishitokyo-hanabus","municipality":"西東京市","service_name":"はなバス","license":"CC BY 4.0","source_stop_id":"84_02","stop_code":null,"stop_name":"府中道","stop_desc":null,"zone_id":"84_02","location_type":0,"parent_station":null,"wheelchair_boarding":null}},{"type":"Feature","id":"F030:85_01","geometry":{"type":"Point","coordinates":[139.528122479576,35.7251580251113]},"properties":{"id":"F030:85_01","feed_id":"F030","feed_slug":"nishitokyo-hanabus","municipality":"西東京市","service_name":"はなバス","license":"CC BY 4.0","source_stop_id":"85_01","stop_code":null,"stop_name":"芝久保１丁目東","stop_desc":null,"zone_id":"85_01","location_type":0,"parent_station":null,"wheelchair_boarding":null}},{"type":"Feature","id":"F030:86_01","geometry":{"type":"Point","coordinates":[139.526812,35.725415]},"properties":{"id":"F030:86_01","feed_id":"F030","feed_slug":"nishitokyo-hanabus","municipality":"西東京市","service_name":"はなバス","license":"CC BY 4.0","source_stop_id":"86_01","stop_code":null,"stop_name":"芝久保１丁目","stop_desc":null,"zone_id":"86_01","location_type":0,"parent_station":null,"wheelchair_boarding":null}},{"type":"Feature","id":"F030:86_02","geometry":{"type":"Point","coordinates":[139.527848,35.725219]},"properties":{"id":"F030:86_02","feed_id":"F030","feed_slug":"nishitokyo-hanabus","municipality":"西東京市","service_name":"はなバス","license":"CC BY 4.0","source_stop_id":"86_02","stop_code":null,"stop_name":"芝久保１丁目","stop_desc":null,"zone_id":"86_02","location_type":0,"parent_station":null,"wheelchair_boarding":null}},{"type":"Feature","id":"F030:87_01","geometry":{"type":"Point","coordinates":[139.52575646131,35.7247937115058]},"properties":{"id":"F030:87_01","feed_id":"F030","feed_slug":"nishitokyo-hanabus","municipality":"西東京市","service_name":"はなバス","license":"CC BY 4.0","source_stop_id":"87_01","stop_code":null,"stop_name":"芝久保児童館","stop_desc":null,"zone_id":"87_01","location_type":0,"parent_station":null,"wheelchair_boarding":null}},{"type":"Feature","id":"F030:88_01","geometry":{"type":"Point","coordinates":[139.5253,35.723303]},"properties":{"id":"F030:88_01","feed_id":"F030","feed_slug":"nishitokyo-hanabus","municipality":"西東京市","service_name":"はなバス","license":"CC BY 4.0","source_stop_id":"88_01","stop_code":null,"stop_name":"芝久保運動場","stop_desc":null,"zone_id":"88_01","location_type":0,"parent_station":null,"wheelchair_boarding":null}},{"type":"Feature","id":"F030:88_02","geometry":{"type":"Point","coordinates":[139.525605,35.723281]},"properties":{"id":"F030:88_02","feed_id":"F030","feed_slug":"nishitokyo-hanabus","municipality":"西東京市","service_name":"はなバス","license":"CC BY 4.0","source_stop_id":"88_02","stop_code":null,"stop_name":"芝久保運動場","stop_desc":null,"zone_id":"88_02","location_type":0,"parent_station":null,"wheelchair_boarding":null}},{"type":"Feature","id":"F030:89_01","geometry":{"type":"Point","coordinates":[139.523776,35.725171]},"properties":{"id":"F030:89_01","feed_id":"F030","feed_slug":"nishitokyo-hanabus","municipality":"西東京市","service_name":"はなバス","license":"CC BY 4.0","source_stop_id":"89_01","stop_code":null,"stop_name":"みたけ分社通り","stop_desc":null,"zone_id":"89_01","location_type":0,"parent_station":null,"wheelchair_boarding":null}},{"type":"Feature","id":"F030:89_02","geometry":{"type":"Point","coordinates":[139.523916,35.724993]},"properties":{"id":"F030:89_02","feed_id":"F030","feed_slug":"nishitokyo-hanabus","municipality":"西東京市","service_name":"はなバス","license":"CC BY 4.0","source_stop_id":"89_02","stop_code":null,"stop_name":"みたけ分社通り","stop_desc":null,"zone_id":"89_02","location_type":0,"parent_station":null,"wheelchair_boarding":null}},{"type":"Feature","id":"F030:9_01","geometry":{"type":"Point","coordinates":[139.562853052987,35.7600080690924]},"properties":{"id":"F030:9_01","feed_id":"F030","feed_slug":"nishitokyo-hanabus","municipality":"西東京市","service_name":"はなバス","license":"CC BY 4.0","source_stop_id":"9_01","stop_code":null,"stop_name":"北町４丁目住宅","stop_desc":null,"zone_id":"9_01","location_type":0,"parent_station":null,"wheelchair_boarding":null}},{"type":"Feature","id":"F030:90_01","geometry":{"type":"Point","coordinates":[139.522714,35.727027]},"properties":{"id":"F030:90_01","feed_id":"F030","feed_slug":"nishitokyo-hanabus","municipality":"西東京市","service_name":"はなバス","license":"CC BY 4.0","source_stop_id":"90_01","stop_code":null,"stop_name":"芝久保２丁目","stop_desc":null,"zone_id":"90_01","location_type":0,"parent_station":null,"wheelchair_boarding":null}},{"type":"Feature","id":"F030:90_02","geometry":{"type":"Point","coordinates":[139.52251,35.727035]},"properties":{"id":"F030:90_02","feed_id":"F030","feed_slug":"nishitokyo-hanabus","municipality":"西東京市","service_name":"はなバス","license":"CC BY 4.0","source_stop_id":"90_02","stop_code":null,"stop_name":"芝久保２丁目","stop_desc":null,"zone_id":"90_02","location_type":0,"parent_station":null,"wheelchair_boarding":null}},{"type":"Feature","id":"F030:91_01","geometry":{"type":"Point","coordinates":[139.520477,35.726352]},"properties":{"id":"F030:91_01","feed_id":"F030","feed_slug":"nishitokyo-hanabus","municipality":"西東京市","service_name":"はなバス","license":"CC BY 4.0","source_stop_id":"91_01","stop_code":null,"stop_name":"西武住宅南","stop_desc":null,"zone_id":"91_01","location_type":0,"parent_station":null,"wheelchair_boarding":null}},{"type":"Feature","id":"F030:91_02","geometry":{"type":"Point","coordinates":[139.520268,35.727632]},"properties":{"id":"F030:91_02","feed_id":"F030","feed_slug":"nishitokyo-hanabus","municipality":"西東京市","service_name":"はなバス","license":"CC BY 4.0","source_stop_id":"91_02","stop_code":null,"stop_name":"西武住宅南","stop_desc":null,"zone_id":"91_02","location_type":0,"parent_station":null,"wheelchair_boarding":null}},{"type":"Feature","id":"F030:92_01","geometry":{"type":"Point","coordinates":[139.519581,35.728372]},"properties":{"id":"F030:92_01","feed_id":"F030","feed_slug":"nishitokyo-hanabus","municipality":"西東京市","service_name":"はなバス","license":"CC BY 4.0","source_stop_id":"92_01","stop_code":null,"stop_name":"西武住宅北","stop_desc":null,"zone_id":"92_01","location_type":0,"parent_station":null,"wheelchair_boarding":null}},{"type":"Feature","id":"F030:92_02","geometry":{"type":"Point","coordinates":[139.519592,35.728995]},"properties":{"id":"F030:92_02","feed_id":"F030","feed_slug":"nishitokyo-hanabus","municipality":"西東京市","service_name":"はなバス","license":"CC BY 4.0","source_stop_id":"92_02","stop_code":null,"stop_name":"西武住宅北","stop_desc":null,"zone_id":"92_02","location_type":0,"parent_station":null,"wheelchair_boarding":null}},{"type":"Feature","id":"F030:93_01","geometry":{"type":"Point","coordinates":[139.518401,35.730327]},"properties":{"id":"F030:93_01","feed_id":"F030","feed_slug":"nishitokyo-hanabus","municipality":"西東京市","service_name":"はなバス","license":"CC BY 4.0","source_stop_id":"93_01","stop_code":null,"stop_name":"芝久保","stop_desc":null,"zone_id":"93_01","location_type":0,"parent_station":null,"wheelchair_boarding":null}},{"type":"Feature","id":"F030:93_02","geometry":{"type":"Point","coordinates":[139.518465,35.73041]},"properties":{"id":"F030:93_02","feed_id":"F030","feed_slug":"nishitokyo-hanabus","municipality":"西東京市","service_name":"はなバス","license":"CC BY 4.0","source_stop_id":"93_02","stop_code":null,"stop_name":"芝久保","stop_desc":null,"zone_id":"93_02","location_type":0,"parent_station":null,"wheelchair_boarding":null}}]}
