{"type":"FeatureCollection","name":"bunkyo-b-guru_routes","features":[{"type":"Feature","id":"F003:000001:SHP_001001","geometry":{"type":"LineString","coordinates":[[139.762939,35.724423],[139.763009,35.72478],[139.762961,35.724833],[139.762216,35.725157],[139.761331,35.725122],[139.760944,35.725664],[139.760739,35.726536],[139.760588,35.727147],[139.760456,35.727729],[139.760347,35.728126],[139.7602,35.728394],[139.760009,35.728675],[139.759765,35.729041],[139.759606,35.729382],[139.759569,35.729533],[139.759425,35.729716],[139.759354,35.729754],[139.758772,35.729905],[139.758572,35.730049],[139.758025,35.730801],[139.757762,35.730896],[139.757458,35.730756],[139.755985,35.730528],[139.755074,35.730706],[139.75445,35.730785],[139.753332,35.730905],[139.751133,35.730507],[139.750775,35.730573],[139.750378,35.731043],[139.74932,35.732207],[139.748896,35.732669],[139.748316,35.733428],[139.747036,35.735167],[139.746936,35.735193],[139.743832,35.732981],[139.743208,35.732516],[139.742658,35.732123],[139.741401,35.731237],[139.742082,35.730557],[139.743098,35.729588],[139.744118,35.728613],[139.745495,35.727623],[139.745865,35.726957],[139.746155,35.725135],[139.74632,35.724795],[139.746641,35.724268],[139.747,35.72374],[139.748527,35.722246],[139.750147,35.720695],[139.751051,35.719826],[139.751342,35.719312],[139.751473,35.719333],[139.751658,35.71985],[139.751552,35.719898],[139.751221,35.719712],[139.751184,35.719629],[139.75148,35.719112],[139.752179,35.71509],[139.752392,35.713776],[139.75293,35.711124],[139.753663,35.708676],[139.753382,35.708395],[139.751886,35.708409],[139.751895,35.707969],[139.751892,35.707407],[139.75183,35.707015],[139.751712,35.706891],[139.751007,35.70688],[139.749686,35.706934],[139.748138,35.706804],[139.74756,35.704915],[139.747537,35.704777],[139.74744,35.703387],[139.747481,35.703355],[139.748597,35.703353],[139.749104,35.703331],[139.752695,35.703031],[139.752995,35.703434],[139.753287,35.70337],[139.753603,35.703402],[139.753742,35.703354],[139.753934,35.702864],[139.755074,35.702599],[139.755201,35.702721],[139.754741,35.70423],[139.754029,35.706758]]},"properties":{"id":"F003:000001:SHP_001001","feed_id":"F003","feed_slug":"bunkyo-b-guru","municipality":"文京区","service_name":"Bーぐる","license":"CC BY 4.0","source_route_id":"000001","route_short_name":null,"route_long_name":"千駄木・駒込ルート","route_desc":null,"route_type":3,"route_url":null,"route_color":"FF8000","route_text_color":"FFFFFF","directions":[],"geometry_source":"shapes.txt"}},{"type":"Feature","id":"F003:000001:SHP_001002","geometry":{"type":"LineString","coordinates":[[139.753976,35.706745],[139.753448,35.708572],[139.753029,35.709916],[139.752504,35.711846],[139.752247,35.713252],[139.751926,35.714999],[139.751463,35.717733],[139.751286,35.718888],[139.751338,35.719052],[139.751467,35.719269],[139.751536,35.719565],[139.751644,35.719813],[139.751772,35.720142],[139.752292,35.721745],[139.752628,35.722575],[139.752737,35.722649],[139.753273,35.722825],[139.754054,35.723035],[139.754241,35.722991],[139.754877,35.722107],[139.755722,35.721005],[139.756149,35.720491],[139.756234,35.720474],[139.757154,35.720481],[139.758415,35.720618],[139.759705,35.720637],[139.762015,35.72125],[139.762074,35.721302],[139.76224,35.722252],[139.762977,35.724798],[139.762961,35.724833],[139.762216,35.725157],[139.761331,35.725122],[139.760944,35.725664],[139.760739,35.726536],[139.760588,35.727147],[139.760456,35.727729],[139.760347,35.728126],[139.7602,35.728394],[139.760009,35.728675],[139.759765,35.729041],[139.759606,35.729382],[139.759569,35.729533],[139.759425,35.729716],[139.759354,35.729754],[139.758772,35.729905],[139.758572,35.730049],[139.758025,35.730801],[139.757762,35.730896],[139.757458,35.730756],[139.755985,35.730528],[139.755074,35.730706],[139.75445,35.730785],[139.753332,35.730905],[139.751133,35.730507],[139.750775,35.730573],[139.750378,35.731043],[139.74932,35.732207],[139.748896,35.732669],[139.748316,35.733428],[139.747036,35.735167],[139.746936,35.735193],[139.743832,35.732981],[139.743208,35.732516],[139.742658,35.732123],[139.741401,35.731237],[139.742082,35.730557],[139.743098,35.729588],[139.744118,35.728613],[139.745495,35.727623],[139.745865,35.726957],[139.746155,35.725135],[139.74632,35.724795],[139.746641,35.724268],[139.747,35.72374],[139.748527,35.722246],[139.750147,35.720695],[139.751051,35.719826],[139.751155,35.719622],[139.751376,35.719277],[139.751467,35.719269],[139.751536,35.719565],[139.751644,35.719813],[139.751622,35.719885],[139.751558,35.719896],[139.751183,35.719712],[139.751155,35.719622],[139.751376,35.719277],[139.751439,35.719057],[139.752179,35.71509],[139.752392,35.713776],[139.75293,35.711124],[139.753697,35.708521],[139.753553,35.708405],[139.751882,35.708448],[139.751829,35.708422],[139.751873,35.707894],[139.751878,35.707095],[139.751851,35.706925],[139.75176,35.706888],[139.751007,35.70688],[139.749686,35.706934],[139.748163,35.706821],[139.748105,35.706784],[139.747557,35.705023],[139.74752,35.704539],[139.74744,35.703387],[139.747481,35.703355],[139.748503,35.703363],[139.750504,35.703224],[139.752683,35.703042],[139.752716,35.703056],[139.752971,35.703413],[139.753,35.703428],[139.753205,35.703368],[139.753399,35.703346],[139.753668,35.703398],[139.753768,35.703338],[139.753914,35.702904],[139.75397,35.702856],[139.755208,35.702511],[139.755286,35.702577],[139.75466,35.704526],[139.754054,35.706549]]},"properties":{"id":"F003:000001:SHP_001002","feed_id":"F003","feed_slug":"bunkyo-b-guru","municipality":"文京区","service_name":"Bーぐる","license":"CC BY 4.0","source_route_id":"000001","route_short_name":null,"route_long_name":"千駄木・駒込ルート","route_desc":null,"route_type":3,"route_url":null,"route_color":"FF8000","route_text_color":"FFFFFF","directions":[],"geometry_source":"shapes.txt"}},{"type":"Feature","id":"F003:000001:SHP_001003","geometry":{"type":"LineString","coordinates":[[139.753976,35.706745],[139.753448,35.708572],[139.753029,35.709916],[139.752504,35.711846],[139.752359,35.712759],[139.751995,35.714598],[139.751629,35.716874],[139.751263,35.718895],[139.751448,35.719255],[139.751556,35.719582],[139.751658,35.719847],[139.751992,35.720804],[139.752301,35.721733],[139.75263,35.722563],[139.752753,35.722658],[139.75327,35.722817],[139.754089,35.723042],[139.754225,35.723008],[139.754877,35.722107],[139.755719,35.720997],[139.756133,35.720498],[139.756227,35.720465],[139.757154,35.720481],[139.757872,35.720555],[139.758479,35.720607],[139.75929,35.720637],[139.759706,35.720638],[139.7614,35.721087],[139.762018,35.721232],[139.76208,35.721291],[139.762079,35.72159],[139.762272,35.722243],[139.762929,35.724449],[139.763019,35.724787],[139.762993,35.724833],[139.762216,35.725157],[139.761366,35.725119],[139.761292,35.725151],[139.761242,35.725215],[139.761062,35.725503],[139.760958,35.725669],[139.76072,35.726651],[139.760606,35.727165],[139.760474,35.727761],[139.760341,35.728213],[139.760257,35.728361],[139.760011,35.728695],[139.759755,35.729108],[139.759635,35.729401],[139.759563,35.729565],[139.759463,35.729697],[139.759354,35.729754],[139.758772,35.729905],[139.758572,35.730049],[139.758025,35.730801],[139.757762,35.730896],[139.757458,35.730756],[139.755985,35.730528],[139.755074,35.730706],[139.75445,35.730785],[139.753332,35.730905],[139.751133,35.730507],[139.750775,35.730573],[139.750378,35.731043],[139.74932,35.732207],[139.748896,35.732669],[139.748316,35.733428],[139.747036,35.735167],[139.746936,35.735193],[139.743832,35.732981],[139.743208,35.732516],[139.742658,35.732123],[139.741401,35.731237],[139.742082,35.730557],[139.743098,35.729588],[139.744118,35.728613],[139.745495,35.727623],[139.745865,35.726957],[139.746155,35.725135],[139.74632,35.724795],[139.746641,35.724268],[139.747,35.72374],[139.748527,35.722246],[139.750147,35.720695],[139.751021,35.719806],[139.751162,35.719621],[139.751371,35.719267],[139.751448,35.719255],[139.751556,35.719582],[139.751658,35.719847],[139.751597,35.719901],[139.751183,35.719691],[139.751162,35.719621],[139.751371,35.719267],[139.751685,35.717762],[139.752119,35.71529],[139.752392,35.713776],[139.752596,35.712659],[139.75293,35.711124],[139.753663,35.708676],[139.753382,35.708395],[139.751925,35.708418],[139.751855,35.708349],[139.751885,35.7079]]},"properties":{"id":"F003:000001:SHP_001003","feed_id":"F003","feed_slug":"bunkyo-b-guru","municipality":"文京区","service_name":"Bーぐる","license":"CC BY 4.0","source_route_id":"000001","route_short_name":null,"route_long_name":"千駄木・駒込ルート","route_desc":null,"route_type":3,"route_url":null,"route_color":"FF8000","route_text_color":"FFFFFF","directions":[],"geometry_source":"shapes.txt"}},{"type":"Feature","id":"F003:000001:SHP_001004","geometry":{"type":"LineString","coordinates":[[139.753976,35.706745],[139.753448,35.708572],[139.753029,35.709916],[139.752504,35.711846],[139.752359,35.712759],[139.751995,35.714598],[139.751629,35.716874],[139.751263,35.718895],[139.751448,35.719255],[139.751556,35.719582],[139.751658,35.719847],[139.751992,35.720804],[139.752301,35.721733],[139.75263,35.722563],[139.752753,35.722658],[139.75327,35.722817],[139.754089,35.723042],[139.754225,35.723008],[139.754877,35.722107],[139.755719,35.720997],[139.756133,35.720498],[139.756227,35.720465],[139.757154,35.720481],[139.757872,35.720555],[139.758479,35.720607],[139.75929,35.720637],[139.759706,35.720638],[139.7614,35.721087],[139.762018,35.721232],[139.76208,35.721291],[139.762079,35.72159],[139.762272,35.722243],[139.762929,35.724449],[139.763019,35.724787],[139.762993,35.724833],[139.762216,35.725157],[139.761366,35.725119],[139.761292,35.725151],[139.761242,35.725215],[139.761062,35.725503],[139.760958,35.725669],[139.76072,35.726651],[139.760606,35.727165],[139.760474,35.727761],[139.760341,35.728213],[139.760257,35.728361],[139.760011,35.728695],[139.759755,35.729108],[139.759635,35.729401],[139.759563,35.729565],[139.759463,35.729697],[139.759354,35.729754],[139.758772,35.729905],[139.758572,35.730049],[139.758025,35.730801],[139.757762,35.730896],[139.757458,35.730756],[139.755985,35.730528],[139.755074,35.730706],[139.75445,35.730785],[139.753332,35.730905],[139.751133,35.730507],[139.750775,35.730573],[139.750378,35.731043],[139.74932,35.732207],[139.748896,35.732669],[139.748316,35.733428],[139.747036,35.735167],[139.746936,35.735193],[139.743832,35.732981],[139.743208,35.732516],[139.742658,35.732123],[139.741401,35.731237],[139.742082,35.730557],[139.743098,35.729588],[139.744118,35.728613],[139.745495,35.727623],[139.745865,35.726957],[139.746155,35.725135],[139.74632,35.724795],[139.746641,35.724268],[139.747,35.72374],[139.748527,35.722246],[139.750147,35.720695],[139.751021,35.719806],[139.751162,35.719621],[139.751371,35.719267],[139.751448,35.719255],[139.751556,35.719582]]},"properties":{"id":"F003:000001:SHP_001004","feed_id":"F003","feed_slug":"bunkyo-b-guru","municipality":"文京区","service_name":"Bーぐる","license":"CC BY 4.0","source_route_id":"000001","route_short_name":null,"route_long_name":"千駄木・駒込ルート","route_desc":null,"route_type":3,"route_url":null,"route_color":"FF8000","route_text_color":"FFFFFF","directions":[],"geometry_source":"shapes.txt"}},{"type":"Feature","id":"F003:000001:SHP_001005","geometry":{"type":"LineString","coordinates":[[139.753976,35.706745],[139.753448,35.708572],[139.753029,35.709916],[139.752504,35.711846],[139.752359,35.712759],[139.751995,35.714598],[139.751629,35.716874],[139.751263,35.718895],[139.751448,35.719255],[139.751556,35.719582],[139.751658,35.719847],[139.751992,35.720804],[139.752301,35.721733],[139.75263,35.722563],[139.752753,35.722658],[139.75327,35.722817],[139.754089,35.723042],[139.754225,35.723008],[139.754877,35.722107],[139.755719,35.720997],[139.756133,35.720498],[139.756227,35.720465],[139.757154,35.720481],[139.757872,35.720555],[139.758479,35.720607],[139.75929,35.720637],[139.759706,35.720638],[139.7614,35.721087],[139.762018,35.721232],[139.76208,35.721291],[139.762079,35.72159],[139.762272,35.722243],[139.762929,35.724449]]},"properties":{"id":"F003:000001:SHP_001005","feed_id":"F003","feed_slug":"bunkyo-b-guru","municipality":"文京区","service_name":"Bーぐる","license":"CC BY 4.0","source_route_id":"000001","route_short_name":null,"route_long_name":"千駄木・駒込ルート","route_desc":null,"route_type":3,"route_url":null,"route_color":"FF8000","route_text_color":"FFFFFF","directions":[],"geometry_source":"shapes.txt"}},{"type":"Feature","id":"F003:000002:SHP_002001","geometry":{"type":"LineString","coordinates":[[139.751887,35.70803],[139.751868,35.707123],[139.751646,35.706882],[139.751031,35.70688],[139.749688,35.706935],[139.746928,35.706724],[139.746576,35.70683],[139.74505,35.708043],[139.744785,35.708501],[139.74458,35.708801],[139.744344,35.709086],[139.74418,35.709238],[139.743396,35.70976],[139.742988,35.709935],[139.742772,35.710015],[139.742456,35.710257],[139.742195,35.710405],[139.74178,35.710493],[139.741089,35.710551],[139.740862,35.710606],[139.740066,35.710947],[139.739509,35.710923],[139.738715,35.710725],[139.738579,35.710721],[139.738062,35.710796],[139.7371,35.710687],[139.736739,35.710587],[139.736298,35.710415],[139.735849,35.71012],[139.735624,35.71004],[139.735356,35.710028],[139.735096,35.710076],[139.734896,35.710125],[139.734015,35.710592],[139.733547,35.710795],[139.73341,35.710827],[139.73296,35.710898],[139.732331,35.710964],[139.731605,35.710913],[139.731573,35.710863],[139.73158,35.710288],[139.731654,35.709999],[139.731665,35.709763],[139.732407,35.709592],[139.73306,35.709313],[139.733248,35.709612],[139.732647,35.709869],[139.732269,35.709997],[139.73185,35.710083],[139.731423,35.710298],[139.731376,35.710688],[139.731244,35.711131],[139.73114,35.711509],[139.730837,35.712118],[139.73077,35.71215],[139.730476,35.712138],[139.730051,35.712093],[139.72874,35.712057],[139.728285,35.712087],[139.728052,35.712136],[139.727785,35.712235],[139.727541,35.712362],[139.727321,35.712511],[139.726829,35.712965],[139.72666,35.712861],[139.726636,35.712756],[139.72654,35.712686],[139.726562,35.712543],[139.726456,35.712498],[139.726333,35.712557],[139.726329,35.71296],[139.726145,35.71329],[139.725869,35.713366],[139.725874,35.713457],[139.726107,35.713601],[139.726116,35.713655],[139.72583,35.713957],[139.725216,35.714591],[139.724701,35.715096],[139.722916,35.715389],[139.719432,35.71622],[139.719065,35.716361],[139.718306,35.716745],[139.718155,35.716856],[139.718171,35.716956],[139.719389,35.717399],[139.723071,35.718732],[139.72526,35.719819],[139.725748,35.719814],[139.726896,35.720058],[139.727136,35.719979],[139.728538,35.717123],[139.729017,35.717244],[139.729114,35.717252],[139.729405,35.717208],[139.729836,35.717102],[139.730011,35.717082],[139.730205,35.717079],[139.730685,35.717151],[139.733183,35.717586],[139.733448,35.71772],[139.733616,35.717844],[139.733788,35.717996],[139.733916,35.71794],[139.733971,35.717854],[139.734228,35.716202],[139.734199,35.715384],[139.734025,35.714925],[139.733915,35.714856],[139.733788,35.71493],[139.733581,35.715],[139.733476,35.715008],[139.733134,35.714995],[139.733113,35.714279],[139.733116,35.713404],[139.733163,35.713147],[139.733295,35.712935],[139.733415,35.712803],[139.733513,35.712564],[139.733541,35.712359],[139.733721,35.711796],[139.73374,35.711471],[139.733672,35.711295],[139.733605,35.710829],[139.734038,35.710638],[139.73487,35.710194],[139.735178,35.710126],[139.735385,35.711059],[139.734904,35.711147],[139.734768,35.711651],[139.73459,35.712428],[139.734531,35.712734],[139.734313,35.713258],[139.734095,35.713611],[139.734072,35.713749],[139.734072,35.714653],[139.733973,35.714919],[139.734154,35.715394],[139.734195,35.716201],[139.733926,35.71785],[139.733864,35.717919],[139.733842,35.718069],[139.734773,35.719009],[139.735017,35.719042],[139.735279,35.718858],[139.738443,35.716771],[139.739258,35.717509],[139.740438,35.718207],[139.741887,35.716651],[139.742353,35.716864],[139.742721,35.717006],[139.743886,35.717313],[139.744578,35.717368],[139.745457,35.716977],[139.74587,35.716749],[139.746358,35.716359],[139.746873,35.715957],[139.748289,35.714976],[139.748864,35.714569],[139.750119,35.713682],[139.751186,35.713072],[139.751333,35.712345],[139.751658,35.711089],[139.751774,35.710536],[139.751844,35.709822],[139.751857,35.709072],[139.751868,35.70829],[139.751887,35.70803]]},"properties":{"id":"F003:000002:SHP_002001","feed_id":"F003","feed_slug":"bunkyo-b-guru","municipality":"文京区","service_name":"Bーぐる","license":"CC BY 4.0","source_route_id":"000002","route_short_name":null,"route_long_name":"目白台・小日向ルート","route_desc":null,"route_type":3,"route_url":null,"route_color":"FF0000","route_text_color":"FFFFFF","directions":[],"geometry_source":"shapes.txt"}},{"type":"Feature","id":"F003:000002:SHP_002002","geometry":{"type":"LineString","coordinates":[[139.751887,35.70803],[139.751868,35.707123],[139.751646,35.706882],[139.751031,35.70688],[139.749688,35.706935],[139.746928,35.706724],[139.746576,35.70683],[139.74505,35.708043],[139.744785,35.708501],[139.74458,35.708801],[139.744344,35.709086],[139.74418,35.709238],[139.743396,35.70976],[139.742988,35.709935],[139.742772,35.710015],[139.742456,35.710257],[139.742195,35.710405],[139.74178,35.710493],[139.741089,35.710551],[139.740862,35.710606],[139.740066,35.710947],[139.739509,35.710923],[139.738715,35.710725],[139.738579,35.710721],[139.738062,35.710796],[139.7371,35.710687],[139.736739,35.710587],[139.736298,35.710415],[139.735849,35.71012],[139.735624,35.71004],[139.735356,35.710028],[139.735096,35.710076],[139.734896,35.710125],[139.734015,35.710592],[139.733547,35.710795],[139.73341,35.710827],[139.73296,35.710898],[139.732331,35.710964],[139.731605,35.710913],[139.731573,35.710863],[139.73158,35.710288],[139.731654,35.709999],[139.731665,35.709763],[139.732407,35.709592],[139.73306,35.709313],[139.733248,35.709612],[139.732647,35.709869],[139.732269,35.709997],[139.73185,35.710083],[139.731423,35.710298],[139.731376,35.710688],[139.731244,35.711131],[139.73114,35.711509],[139.730837,35.712118],[139.73077,35.71215],[139.730476,35.712138],[139.730051,35.712093],[139.72874,35.712057],[139.728285,35.712087],[139.728052,35.712136],[139.727785,35.712235],[139.727541,35.712362],[139.727321,35.712511],[139.726829,35.712965],[139.72666,35.712861],[139.726636,35.712756],[139.72654,35.712686],[139.726562,35.712543],[139.726456,35.712498],[139.726333,35.712557],[139.726329,35.71296],[139.726145,35.71329],[139.725869,35.713366],[139.725874,35.713457],[139.726107,35.713601],[139.726116,35.713655],[139.72583,35.713957],[139.725216,35.714591],[139.724701,35.715096],[139.722916,35.715389],[139.719432,35.71622],[139.719065,35.716361],[139.718306,35.716745],[139.718155,35.716856],[139.718171,35.716956],[139.719389,35.717399],[139.723071,35.718732],[139.72526,35.719819],[139.725748,35.719814],[139.726896,35.720058],[139.727136,35.719979],[139.728538,35.717123],[139.729017,35.717244],[139.729114,35.717252],[139.729405,35.717208],[139.729836,35.717102],[139.730011,35.717082],[139.730205,35.717079],[139.730685,35.717151],[139.733183,35.717586],[139.733448,35.71772],[139.733616,35.717844],[139.733788,35.717996],[139.733916,35.71794],[139.733971,35.717854],[139.734228,35.716202],[139.734199,35.715384],[139.734025,35.714925],[139.733915,35.714856],[139.733788,35.71493],[139.733581,35.715],[139.733476,35.715008],[139.733134,35.714995],[139.733113,35.714279],[139.733116,35.713404],[139.733163,35.713147],[139.733295,35.712935],[139.733415,35.712803],[139.733513,35.712564],[139.733541,35.712359],[139.733721,35.711796],[139.73374,35.711471],[139.733672,35.711295],[139.733605,35.710829],[139.734038,35.710638],[139.73487,35.710194],[139.735178,35.710126],[139.735385,35.711059],[139.734904,35.711147],[139.734768,35.711651],[139.73459,35.712428],[139.734531,35.712734],[139.734313,35.713258],[139.734095,35.713611],[139.734072,35.713749],[139.734072,35.714653],[139.733973,35.714919],[139.734154,35.715394],[139.734195,35.716201],[139.733926,35.71785],[139.733864,35.717919],[139.733842,35.718069],[139.734773,35.719009],[139.735017,35.719042],[139.735279,35.718858],[139.737267,35.717561]]},"properties":{"id":"F003:000002:SHP_002002","feed_id":"F003","feed_slug":"bunkyo-b-guru","municipality":"文京区","service_name":"Bーぐる","license":"CC BY 4.0","source_route_id":"000002","route_short_name":null,"route_long_name":"目白台・小日向ルート","route_desc":null,"route_type":3,"route_url":null,"route_color":"FF0000","route_text_color":"FFFFFF","directions":[],"geometry_source":"shapes.txt"}},{"type":"Feature","id":"F003:000002:SHP_002003","geometry":{"type":"LineString","coordinates":[[139.751887,35.70803],[139.751868,35.707123],[139.751646,35.706882],[139.751031,35.70688],[139.749688,35.706935],[139.747444,35.706763],[139.746928,35.706724],[139.746576,35.70683],[139.74505,35.708043],[139.744785,35.708501],[139.74458,35.708801],[139.744344,35.709086],[139.74418,35.709238],[139.743396,35.70976],[139.742988,35.709935],[139.742772,35.710015],[139.742456,35.710257],[139.742195,35.710405],[139.74178,35.710493],[139.741089,35.710551],[139.740862,35.710606],[139.740066,35.710947],[139.739509,35.710923],[139.738715,35.710725],[139.738579,35.710721],[139.738062,35.710796],[139.7371,35.710687],[139.736739,35.710587],[139.736298,35.710415],[139.735849,35.71012],[139.735624,35.71004],[139.735356,35.710028],[139.735096,35.710076],[139.734896,35.710125],[139.734015,35.710592],[139.733547,35.710795],[139.73341,35.710827],[139.73296,35.710898],[139.732331,35.710964],[139.731605,35.710913],[139.731573,35.710863],[139.73158,35.710288],[139.731654,35.709999],[139.731665,35.709763],[139.732407,35.709592],[139.73306,35.709313],[139.733248,35.709612],[139.732647,35.709869],[139.732269,35.709997],[139.73185,35.710083],[139.731423,35.710298],[139.731376,35.710688],[139.731244,35.711131],[139.73114,35.711509],[139.730837,35.712118],[139.73077,35.71215],[139.730476,35.712138],[139.730051,35.712093],[139.72874,35.712057],[139.728285,35.712087],[139.728052,35.712136],[139.727785,35.712235],[139.727541,35.712362],[139.727321,35.712511],[139.726829,35.712965],[139.72666,35.712861],[139.726636,35.712756],[139.72654,35.712686],[139.726562,35.712543],[139.726456,35.712498],[139.726333,35.712557],[139.726329,35.71296],[139.726145,35.71329],[139.725869,35.713366],[139.725874,35.713457],[139.726107,35.713601],[139.726116,35.713655],[139.72583,35.713957],[139.725216,35.714591],[139.724701,35.715096],[139.722916,35.715389],[139.719432,35.71622],[139.719065,35.716361],[139.718306,35.716745],[139.718155,35.716856],[139.718171,35.716956],[139.719389,35.717399],[139.723071,35.718732],[139.72526,35.719819],[139.725748,35.719814]]},"properties":{"id":"F003:000002:SHP_002003","feed_id":"F003","feed_slug":"bunkyo-b-guru","municipality":"文京区","service_name":"Bーぐる","license":"CC BY 4.0","source_route_id":"000002","route_short_name":null,"route_long_name":"目白台・小日向ルート","route_desc":null,"route_type":3,"route_url":null,"route_color":"FF0000","route_text_color":"FFFFFF","directions":[],"geometry_source":"shapes.txt"}},{"type":"Feature","id":"F003:000003:SHP_003001","geometry":{"type":"LineString","coordinates":[[139.752472,35.706732],[139.752763,35.706549],[139.753017,35.706387],[139.753397,35.706147],[139.753956,35.70578],[139.754025,35.705745],[139.754107,35.705713],[139.75426,35.705669],[139.754759,35.705479],[139.755562,35.705204],[139.755953,35.705062],[139.756332,35.704933],[139.75689,35.704733],[139.757225,35.704618],[139.757393,35.70456],[139.757555,35.704506],[139.758048,35.704333],[139.758287,35.704272],[139.758428,35.704286],[139.758567,35.704308],[139.758839,35.70436],[139.760154,35.704641],[139.760725,35.704758],[139.760997,35.704833],[139.76114,35.704856],[139.761239,35.704858],[139.76133,35.70483],[139.761602,35.704562],[139.761807,35.704357],[139.762062,35.704183],[139.763358,35.703301],[139.763506,35.703267],[139.763672,35.703309],[139.763867,35.703587],[139.764064,35.703919],[139.76415,35.704058],[139.764303,35.704299],[139.764399,35.704897],[139.764502,35.70534],[139.764605,35.705755],[139.764805,35.70653],[139.764862,35.70678],[139.764896,35.706849],[139.764948,35.707099],[139.764991,35.70732],[139.764989,35.707329],[139.764984,35.707339],[139.764973,35.707345],[139.764959,35.70735],[139.76484,35.707357],[139.764559,35.707384],[139.764322,35.707408],[139.763965,35.707442],[139.763716,35.707456],[139.763512,35.707459],[139.763188,35.707465],[139.763165,35.707458],[139.76315,35.707447],[139.763144,35.707439],[139.763139,35.707431],[139.762933,35.706885],[139.762819,35.706569],[139.762812,35.706534],[139.762737,35.706336],[139.762506,35.705767],[139.762307,35.70521],[139.762108,35.704682],[139.761978,35.70432],[139.761861,35.704073],[139.761846,35.70401],[139.761838,35.703941],[139.761848,35.703865],[139.761859,35.703794],[139.761877,35.703648],[139.761889,35.703575],[139.761904,35.703507],[139.761922,35.703364],[139.761933,35.703219],[139.761976,35.702938],[139.762014,35.702651],[139.762023,35.702563],[139.762059,35.702376],[139.76208,35.702231],[139.762102,35.702089],[139.762116,35.70194],[139.762126,35.70189],[139.762144,35.701845],[139.76216,35.701827],[139.762262,35.701763],[139.762373,35.701701],[139.762523,35.701642],[139.762611,35.701606],[139.762657,35.701573],[139.762738,35.701501],[139.76287,35.701344],[139.763152,35.701004],[139.763183,35.700983],[139.763213,35.700963],[139.763346,35.700897],[139.763497,35.700838],[139.763752,35.700737],[139.763858,35.700683],[139.763873,35.700661],[139.763875,35.700622],[139.76383,35.700518],[139.763661,35.700197],[139.763582,35.700042],[139.763548,35.699958],[139.763504,35.699866],[139.763404,35.699735],[139.762739,35.698506],[139.762404,35.697884],[139.762232,35.697583],[139.762061,35.697285],[139.761819,35.696868],[139.761815,35.696848],[139.761816,35.696837],[139.761819,35.696825],[139.761825,35.696813],[139.761841,35.696798],[139.761954,35.696756],[139.762192,35.696666],[139.762557,35.696529],[139.76268,35.696483],[139.763031,35.696349],[139.763279,35.696259],[139.763372,35.696245],[139.763458,35.696238],[139.764895,35.696145],[139.764908,35.696147],[139.764921,35.696152],[139.764936,35.696162],[139.764947,35.696171],[139.764957,35.696182],[139.764987,35.696228],[139.765039,35.696334],[139.765145,35.696543],[139.765253,35.696755],[139.765347,35.69695],[139.765623,35.697498],[139.765867,35.697992],[139.765875,35.698022],[139.765878,35.698046],[139.76587,35.698087],[139.765844,35.698156],[139.765775,35.698296],[139.765664,35.698597],[139.76556,35.698896],[139.765457,35.699145],[139.765434,35.699174],[139.765407,35.699199],[139.765487,35.700231],[139.765496,35.700294],[139.765516,35.700357],[139.765979,35.701361],[139.766088,35.701632],[139.766395,35.702364],[139.76655,35.702724],[139.766711,35.703107],[139.766796,35.703299],[139.766862,35.703495],[139.767175,35.704656],[139.767238,35.704864],[139.767301,35.705073],[139.767364,35.705281],[139.767428,35.70549],[139.767648,35.706133],[139.767869,35.706776],[139.76789,35.706794],[139.767924,35.7068],[139.767964,35.706793],[139.768644,35.706665],[139.768831,35.706632],[139.769029,35.706619],[139.76979,35.706583],[139.769838,35.706588],[139.769865,35.706616],[139.769885,35.70677],[139.769902,35.707095],[139.76992,35.707364],[139.769941,35.707406],[139.769993,35.707417],[139.771186,35.707316],[139.771974,35.707266],[139.77243,35.707245],[139.772598,35.707267],[139.772713,35.707339],[139.772896,35.707904],[139.772879,35.707952],[139.772806,35.707983],[139.770924,35.708126],[139.770035,35.708197],[139.76997,35.708182],[139.76994,35.708144],[139.76997,35.707342],[139.76995,35.706584],[139.769923,35.706557],[139.769861,35.706548],[139.769588,35.706559],[139.768826,35.70659],[139.767966,35.706753],[139.767932,35.706746],[139.767907,35.706721],[139.76785,35.706534],[139.767323,35.704965],[139.767299,35.704935],[139.767241,35.704917],[139.767182,35.704917],[139.766416,35.705045],[139.765655,35.705192],[139.764142,35.705481],[139.763355,35.705615],[139.762601,35.705804],[139.762572,35.705806],[139.762546,35.705803],[139.762526,35.705788],[139.762506,35.705767],[139.762307,35.70521],[139.762108,35.704682],[139.761978,35.70432],[139.761904,35.704279],[139.761826,35.704256],[139.761749,35.704256],[139.761676,35.704269],[139.761559,35.704347],[139.761312,35.704646],[139.761065,35.704954],[139.760904,35.705234],[139.760822,35.70543],[139.760763,35.705627],[139.760714,35.706024],[139.760665,35.706424],[139.760619,35.706824],[139.760521,35.70748],[139.7605,35.707809],[139.760467,35.708063],[139.760443,35.708104],[139.760404,35.708124],[139.759725,35.70831],[139.759071,35.708539],[139.758436,35.708764],[139.75774,35.709082],[139.757429,35.709247],[139.757134,35.709428],[139.756778,35.709573],[139.756602,35.709658],[139.756442,35.709757],[139.75617,35.70997],[139.755927,35.7102],[139.755671,35.71042],[139.755543,35.710544],[139.755436,35.71066],[139.755249,35.71094],[139.755129,35.7112],[139.755025,35.711376],[139.755008,35.711393],[139.754976,35.711407],[139.754928,35.711411],[139.754154,35.711323],[139.753842,35.711287],[139.75355,35.711249],[139.753053,35.711159],[139.752559,35.711088],[139.752135,35.711014],[139.751856,35.710961],[139.751841,35.710958],[139.751827,35.710955],[139.751818,35.710952],[139.75181,35.710948],[139.751801,35.710943],[139.751791,35.710935],[139.751779,35.710923],[139.75177,35.710909],[139.751764,35.710898],[139.751758,35.710881],[139.751758,35.710824],[139.751798,35.710485],[139.751849,35.710021],[139.751871,35.709776],[139.751882,35.709553],[139.751903,35.709151],[139.751896,35.708743],[139.751898,35.708282],[139.751899,35.7079],[139.751906,35.707815],[139.751891,35.707657],[139.7519,35.707166],[139.751903,35.707153],[139.75191,35.707137],[139.751917,35.707121],[139.751927,35.707106],[139.751935,35.707095],[139.751945,35.707084],[139.751972,35.707058],[139.751998,35.707037],[139.752208,35.706904],[139.752444,35.706751],[139.752471,35.706732]]},"properties":{"id":"F003:000003:SHP_003001","feed_id":"F003","feed_slug":"bunkyo-b-guru","municipality":"文京区","service_name":"Bーぐる","license":"CC BY 4.0","source_route_id":"000003","route_short_name":null,"route_long_name":"本郷・湯島ルート","route_desc":null,"route_type":3,"route_url":null,"route_color":"0000FF","route_text_color":"FFFFFF","directions":[],"geometry_source":"shapes.txt"}},{"type":"Feature","id":"F003:000003:SHP_003002","geometry":{"type":"LineString","coordinates":[[139.752472,35.706732],[139.752763,35.706549],[139.753017,35.706387],[139.753397,35.706147],[139.753956,35.70578],[139.754025,35.705745],[139.754107,35.705713],[139.75426,35.705669],[139.754759,35.705479],[139.755562,35.705204],[139.755953,35.705062],[139.756332,35.704933],[139.75689,35.704733],[139.757225,35.704618],[139.757393,35.70456],[139.757555,35.704506],[139.758048,35.704333],[139.758287,35.704272],[139.758428,35.704286],[139.758567,35.704308],[139.758839,35.70436],[139.760154,35.704641],[139.760725,35.704758],[139.760997,35.704833],[139.76114,35.704856],[139.761239,35.704858],[139.76133,35.70483],[139.761602,35.704562],[139.761807,35.704357],[139.762062,35.704183],[139.763358,35.703301],[139.763506,35.703267],[139.763672,35.703309],[139.763867,35.703587],[139.764064,35.703919],[139.76415,35.704058],[139.764303,35.704299],[139.764399,35.704897],[139.764502,35.70534],[139.764605,35.705755],[139.764805,35.70653],[139.764862,35.70678],[139.764896,35.706849],[139.764948,35.707099],[139.764991,35.70732],[139.764989,35.707329],[139.764984,35.707339],[139.764973,35.707345],[139.764959,35.70735],[139.76484,35.707357],[139.764559,35.707384],[139.764322,35.707408],[139.763965,35.707442],[139.763716,35.707456],[139.763512,35.707459],[139.763188,35.707465],[139.763165,35.707458],[139.76315,35.707447],[139.763144,35.707439],[139.763139,35.707431],[139.762933,35.706885],[139.762819,35.706569],[139.762812,35.706534],[139.762737,35.706336],[139.762506,35.705767],[139.762307,35.70521],[139.762108,35.704682],[139.761978,35.70432],[139.761861,35.704073],[139.761846,35.70401],[139.761838,35.703941],[139.761848,35.703865],[139.761859,35.703794],[139.761877,35.703648],[139.761889,35.703575],[139.761904,35.703507],[139.761922,35.703364],[139.761933,35.703219],[139.761976,35.702938],[139.762014,35.702651],[139.762023,35.702563],[139.762059,35.702376],[139.76208,35.702231],[139.762102,35.702089],[139.762116,35.70194],[139.762126,35.70189],[139.762144,35.701845],[139.76216,35.701827],[139.762262,35.701763],[139.762373,35.701701],[139.762523,35.701642],[139.762611,35.701606],[139.762657,35.701573],[139.762738,35.701501],[139.76287,35.701344],[139.763152,35.701004],[139.763183,35.700983],[139.763213,35.700963],[139.763346,35.700897],[139.763497,35.700838],[139.763752,35.700737],[139.763858,35.700683],[139.763873,35.700661],[139.763875,35.700622],[139.76383,35.700518],[139.763661,35.700197],[139.763582,35.700042],[139.763548,35.699958],[139.763504,35.699866],[139.763404,35.699735],[139.762739,35.698506],[139.762404,35.697884],[139.762232,35.697583],[139.762061,35.697285],[139.761819,35.696868],[139.761815,35.696848],[139.761816,35.696837],[139.761819,35.696825],[139.761825,35.696813],[139.761841,35.696798],[139.761954,35.696756],[139.762192,35.696666],[139.762557,35.696529],[139.76268,35.696483],[139.763031,35.696349],[139.763279,35.696259],[139.763372,35.696245],[139.763458,35.696238],[139.764895,35.696145],[139.764908,35.696147],[139.764921,35.696152],[139.764936,35.696162],[139.764947,35.696171],[139.764957,35.696182],[139.764987,35.696228],[139.765039,35.696334],[139.765145,35.696543],[139.765253,35.696755],[139.765347,35.69695],[139.765623,35.697498],[139.765867,35.697992],[139.765875,35.698022],[139.765878,35.698046],[139.76587,35.698087],[139.765844,35.698156],[139.765775,35.698296],[139.765664,35.698597],[139.76556,35.698896],[139.765457,35.699145],[139.765434,35.699174],[139.765407,35.699199],[139.765487,35.700231],[139.765496,35.700294],[139.765516,35.700357],[139.766027,35.701366],[139.766108,35.701646],[139.766401,35.702363],[139.766837,35.703362],[139.767177,35.704657],[139.767428,35.70549],[139.767648,35.706133],[139.767869,35.706776],[139.76789,35.706794],[139.767924,35.7068],[139.767964,35.706793],[139.768644,35.706665],[139.768831,35.706632],[139.769029,35.706619],[139.76979,35.706583],[139.769838,35.706588],[139.769865,35.706616],[139.769885,35.70677],[139.769902,35.707095],[139.76992,35.707364],[139.769941,35.707406],[139.769993,35.707417],[139.771186,35.707316],[139.771974,35.707266],[139.77243,35.707245],[139.772403,35.706639]]},"properties":{"id":"F003:000003:SHP_003002","feed_id":"F003","feed_slug":"bunkyo-b-guru","municipality":"文京区","service_name":"Bーぐる","license":"CC BY 4.0","source_route_id":"000003","route_short_name":null,"route_long_name":"本郷・湯島ルート","route_desc":null,"route_type":3,"route_url":null,"route_color":"0000FF","route_text_color":"FFFFFF","directions":[],"geometry_source":"shapes.txt"}}]}
