{"type":"FeatureCollection","name":"bunkyo-b-guru_stops","features":[{"type":"Feature","id":"F003:STP_000001_001","geometry":{"type":"Point","coordinates":[139.753965,35.706627]},"properties":{"id":"F003:STP_000001_001","feed_id":"F003","feed_slug":"bunkyo-b-guru","municipality":"文京区","service_name":"Bーぐる","license":"CC BY 4.0","source_stop_id":"STP_000001_001","stop_code":null,"stop_name":"ラクーア","stop_desc":null,"zone_id":"000001_001","location_type":0,"parent_station":null,"wheelchair_boarding":null}},{"type":"Feature","id":"F003:STP_000001_002","geometry":{"type":"Point","coordinates":[139.752795,35.710616]},"properties":{"id":"F003:STP_000001_002","feed_id":"F003","feed_slug":"bunkyo-b-guru","municipality":"文京区","service_name":"Bーぐる","license":"CC BY 4.0","source_stop_id":"STP_000001_002","stop_code":null,"stop_name":"文京小石川クリニック（三田線春日駅）","stop_desc":null,"zone_id":"000001_002","location_type":0,"parent_station":null,"wheelchair_boarding":null}},{"type":"Feature","id":"F003:STP_000001_003","geometry":{"type":"Point","coordinates":[139.752291,35.712751]},"properties":{"id":"F003:STP_000001_003","feed_id":"F003","feed_slug":"bunkyo-b-guru","municipality":"文京区","service_name":"Bーぐる","license":"CC BY 4.0","source_stop_id":"STP_000001_003","stop_code":null,"stop_name":"文化シヤッター前","stop_desc":null,"zone_id":"000001_003","location_type":0,"parent_station":null,"wheelchair_boarding":null}},{"type":"Feature","id":"F003:STP_000001_004","geometry":{"type":"Point","coordinates":[139.751958,35.714576]},"properties":{"id":"F003:STP_000001_004","feed_id":"F003","feed_slug":"bunkyo-b-guru","municipality":"文京区","service_name":"Bーぐる","license":"CC BY 4.0","source_stop_id":"STP_000001_004","stop_code":null,"stop_name":"クイーンズ伊勢丹小石川店前","stop_desc":null,"zone_id":"000001_004","location_type":0,"parent_station":null,"wheelchair_boarding":null}},{"type":"Feature","id":"F003:STP_000001_005","geometry":{"type":"Point","coordinates":[139.751563,35.716836]},"properties":{"id":"F003:STP_000001_005","feed_id":"F003","feed_slug":"bunkyo-b-guru","municipality":"文京区","service_name":"Bーぐる","license":"CC BY 4.0","source_stop_id":"STP_000001_005","stop_code":null,"stop_name":"指ヶ谷小学校","stop_desc":null,"zone_id":"000001_005","location_type":0,"parent_station":null,"wheelchair_boarding":null}},{"type":"Feature","id":"F003:STP_000001_006","geometry":{"type":"Point","coordinates":[139.751515,35.719581]},"properties":{"id":"F003:STP_000001_006","feed_id":"F003","feed_slug":"bunkyo-b-guru","municipality":"文京区","service_name":"Bーぐる","license":"CC BY 4.0","source_stop_id":"STP_000001_006","stop_code":null,"stop_name":"白山下","stop_desc":null,"zone_id":"000001_006","location_type":0,"parent_station":null,"wheelchair_boarding":null}},{"type":"Feature","id":"F003:STP_000001_007","geometry":{"type":"Point","coordinates":[139.752258,35.721751]},"properties":{"id":"F003:STP_000001_007","feed_id":"F003","feed_slug":"bunkyo-b-guru","municipality":"文京区","service_name":"Bーぐる","license":"CC BY 4.0","source_stop_id":"STP_000001_007","stop_code":null,"stop_name":"白山駅","stop_desc":null,"zone_id":"000001_007","location_type":0,"parent_station":null,"wheelchair_boarding":null}},{"type":"Feature","id":"F003:STP_000001_008","geometry":{"type":"Point","coordinates":[139.753255,35.722862]},"properties":{"id":"F003:STP_000001_008","feed_id":"F003","feed_slug":"bunkyo-b-guru","municipality":"文京区","service_name":"Bーぐる","license":"CC BY 4.0","source_stop_id":"STP_000001_008","stop_code":null,"stop_name":"白山上","stop_desc":null,"zone_id":"000001_008","location_type":0,"parent_station":null,"wheelchair_boarding":null}},{"type":"Feature","id":"F003:STP_000001_009","geometry":{"type":"Point","coordinates":[139.755755,35.721009]},"properties":{"id":"F003:STP_000001_009","feed_id":"F003","feed_slug":"bunkyo-b-guru","municipality":"文京区","service_name":"Bーぐる","license":"CC BY 4.0","source_stop_id":"STP_000001_009","stop_code":null,"stop_name":"向丘一丁目","stop_desc":null,"zone_id":"000001_009","location_type":0,"parent_station":null,"wheelchair_boarding":null}},{"type":"Feature","id":"F003:STP_000001_010","geometry":{"type":"Point","coordinates":[139.757871,35.720575]},"properties":{"id":"F003:STP_000001_010","feed_id":"F003","feed_slug":"bunkyo-b-guru","municipality":"文京区","service_name":"Bーぐる","license":"CC BY 4.0","source_stop_id":"STP_000001_010","stop_code":null,"stop_name":"向丘二丁目","stop_desc":null,"zone_id":"000001_010","location_type":0,"parent_station":null,"wheelchair_boarding":null}},{"type":"Feature","id":"F003:STP_000001_011","geometry":{"type":"Point","coordinates":[139.759293,35.720792]},"properties":{"id":"F003:STP_000001_011","feed_id":"F003","feed_slug":"bunkyo-b-guru","municipality":"文京区","service_name":"Bーぐる","license":"CC BY 4.0","source_stop_id":"STP_000001_011","stop_code":null,"stop_name":"日本医大病院","stop_desc":null,"zone_id":"000001_011","location_type":0,"parent_station":null,"wheelchair_boarding":null}},{"type":"Feature","id":"F003:STP_000001_012","geometry":{"type":"Point","coordinates":[139.762019,35.721595]},"properties":{"id":"F003:STP_000001_012","feed_id":"F003","feed_slug":"bunkyo-b-guru","municipality":"文京区","service_name":"Bーぐる","license":"CC BY 4.0","source_stop_id":"STP_000001_012","stop_code":null,"stop_name":"千駄木二丁目","stop_desc":null,"zone_id":"000001_012","location_type":0,"parent_station":null,"wheelchair_boarding":null}},{"type":"Feature","id":"F003:STP_000001_013","geometry":{"type":"Point","coordinates":[139.762853,35.724449]},"properties":{"id":"F003:STP_000001_013","feed_id":"F003","feed_slug":"bunkyo-b-guru","municipality":"文京区","service_name":"Bーぐる","license":"CC BY 4.0","source_stop_id":"STP_000001_013","stop_code":null,"stop_name":"千駄木駅（団子坂下）","stop_desc":null,"zone_id":"000001_013","location_type":0,"parent_station":null,"wheelchair_boarding":null}},{"type":"Feature","id":"F003:STP_000001_014","geometry":{"type":"Point","coordinates":[139.760678,35.726633]},"properties":{"id":"F003:STP_000001_014","feed_id":"F003","feed_slug":"bunkyo-b-guru","municipality":"文京区","service_name":"Bーぐる","license":"CC BY 4.0","source_stop_id":"STP_000001_014","stop_code":null,"stop_name":"特養ホーム千駄木の郷","stop_desc":null,"zone_id":"000001_014","location_type":0,"parent_station":null,"wheelchair_boarding":null}},{"type":"Feature","id":"F003:STP_000001_015","geometry":{"type":"Point","coordinates":[139.759713,35.72909]},"properties":{"id":"F003:STP_000001_015","feed_id":"F003","feed_slug":"bunkyo-b-guru","municipality":"文京区","service_name":"Bーぐる","license":"CC BY 4.0","source_stop_id":"STP_000001_015","stop_code":null,"stop_name":"千駄木小学校","stop_desc":null,"zone_id":"000001_015","location_type":0,"parent_station":null,"wheelchair_boarding":null}},{"type":"Feature","id":"F003:STP_000001_016","geometry":{"type":"Point","coordinates":[139.756979,35.730657]},"properties":{"id":"F003:STP_000001_016","feed_id":"F003","feed_slug":"bunkyo-b-guru","municipality":"文京区","service_name":"Bーぐる","license":"CC BY 4.0","source_stop_id":"STP_000001_016","stop_code":null,"stop_name":"駒込病院","stop_desc":null,"zone_id":"000001_016","location_type":0,"parent_station":null,"wheelchair_boarding":null}},{"type":"Feature","id":"F003:STP_000001_017","geometry":{"type":"Point","coordinates":[139.753846,35.730832]},"properties":{"id":"F003:STP_000001_017","feed_id":"F003","feed_slug":"bunkyo-b-guru","municipality":"文京区","service_name":"Bーぐる","license":"CC BY 4.0","source_stop_id":"STP_000001_017","stop_code":null,"stop_name":"本駒込三丁目","stop_desc":null,"zone_id":"000001_017","location_type":0,"parent_station":null,"wheelchair_boarding":null}},{"type":"Feature","id":"F003:STP_000001_018","geometry":{"type":"Point","coordinates":[139.751374,35.730527]},"properties":{"id":"F003:STP_000001_018","feed_id":"F003","feed_slug":"bunkyo-b-guru","municipality":"文京区","service_name":"Bーぐる","license":"CC BY 4.0","source_stop_id":"STP_000001_018","stop_code":null,"stop_name":"富士神社前","stop_desc":null,"zone_id":"000001_018","location_type":0,"parent_station":null,"wheelchair_boarding":null}},{"type":"Feature","id":"F003:STP_000001_019","geometry":{"type":"Point","coordinates":[139.7498,35.731618]},"properties":{"id":"F003:STP_000001_019","feed_id":"F003","feed_slug":"bunkyo-b-guru","municipality":"文京区","service_name":"Bーぐる","license":"CC BY 4.0","source_stop_id":"STP_000001_019","stop_code":null,"stop_name":"昭和小学校（上富士前）","stop_desc":null,"zone_id":"000001_019","location_type":0,"parent_station":null,"wheelchair_boarding":null}},{"type":"Feature","id":"F003:STP_000001_020","geometry":{"type":"Point","coordinates":[139.748699,35.732865]},"properties":{"id":"F003:STP_000001_020","feed_id":"F003","feed_slug":"bunkyo-b-guru","municipality":"文京区","service_name":"Bーぐる","license":"CC BY 4.0","source_stop_id":"STP_000001_020","stop_code":null,"stop_name":"六義園入口","stop_desc":null,"zone_id":"000001_020","location_type":0,"parent_station":null,"wheelchair_boarding":null}},{"type":"Feature","id":"F003:STP_000001_021","geometry":{"type":"Point","coordinates":[139.746625,35.734907]},"properties":{"id":"F003:STP_000001_021","feed_id":"F003","feed_slug":"bunkyo-b-guru","municipality":"文京区","service_name":"Bーぐる","license":"CC BY 4.0","source_stop_id":"STP_000001_021","stop_code":null,"stop_name":"南北線駒込駅","stop_desc":null,"zone_id":"000001_021","location_type":0,"parent_station":null,"wheelchair_boarding":null}},{"type":"Feature","id":"F003:STP_000001_022","geometry":{"type":"Point","coordinates":[139.744128,35.733152]},"properties":{"id":"F003:STP_000001_022","feed_id":"F003","feed_slug":"bunkyo-b-guru","municipality":"文京区","service_name":"Bーぐる","license":"CC BY 4.0","source_stop_id":"STP_000001_022","stop_code":null,"stop_name":"六義公園運動場入口","stop_desc":null,"zone_id":"000001_022","location_type":0,"parent_station":null,"wheelchair_boarding":null}},{"type":"Feature","id":"F003:STP_000001_023","geometry":{"type":"Point","coordinates":[139.741795,35.730866]},"properties":{"id":"F003:STP_000001_023","feed_id":"F003","feed_slug":"bunkyo-b-guru","municipality":"文京区","service_name":"Bーぐる","license":"CC BY 4.0","source_stop_id":"STP_000001_023","stop_code":null,"stop_name":"本駒込六丁目","stop_desc":null,"zone_id":"000001_023","location_type":0,"parent_station":null,"wheelchair_boarding":null}},{"type":"Feature","id":"F003:STP_000001_024","geometry":{"type":"Point","coordinates":[139.744859,35.728116]},"properties":{"id":"F003:STP_000001_024","feed_id":"F003","feed_slug":"bunkyo-b-guru","municipality":"文京区","service_name":"Bーぐる","license":"CC BY 4.0","source_stop_id":"STP_000001_024","stop_code":null,"stop_name":"千石駅","stop_desc":null,"zone_id":"000001_024","location_type":0,"parent_station":null,"wheelchair_boarding":null}},{"type":"Feature","id":"F003:STP_000001_025","geometry":{"type":"Point","coordinates":[139.746448,35.724662]},"properties":{"id":"F003:STP_000001_025","feed_id":"F003","feed_slug":"bunkyo-b-guru","municipality":"文京区","service_name":"Bーぐる","license":"CC BY 4.0","source_stop_id":"STP_000001_025","stop_code":null,"stop_name":"特養ホーム白山の郷","stop_desc":null,"zone_id":"000001_025","location_type":0,"parent_station":null,"wheelchair_boarding":null}},{"type":"Feature","id":"F003:STP_000001_026","geometry":{"type":"Point","coordinates":[139.748457,35.722365]},"properties":{"id":"F003:STP_000001_026","feed_id":"F003","feed_slug":"bunkyo-b-guru","municipality":"文京区","service_name":"Bーぐる","license":"CC BY 4.0","source_stop_id":"STP_000001_026","stop_code":null,"stop_name":"東洋大学前","stop_desc":null,"zone_id":"000001_026","location_type":0,"parent_station":null,"wheelchair_boarding":null}},{"type":"Feature","id":"F003:STP_000001_027","geometry":{"type":"Point","coordinates":[139.750123,35.720753]},"properties":{"id":"F003:STP_000001_027","feed_id":"F003","feed_slug":"bunkyo-b-guru","municipality":"文京区","service_name":"Bーぐる","license":"CC BY 4.0","source_stop_id":"STP_000001_027","stop_code":null,"stop_name":"白山五丁目","stop_desc":null,"zone_id":"000001_027","location_type":0,"parent_station":null,"wheelchair_boarding":null}},{"type":"Feature","id":"F003:STP_000001_029","geometry":{"type":"Point","coordinates":[139.751762,35.717762]},"properties":{"id":"F003:STP_000001_029","feed_id":"F003","feed_slug":"bunkyo-b-guru","municipality":"文京区","service_name":"Bーぐる","license":"CC BY 4.0","source_stop_id":"STP_000001_029","stop_code":null,"stop_name":"指ヶ谷小学校","stop_desc":null,"zone_id":"000001_029","location_type":0,"parent_station":null,"wheelchair_boarding":null}},{"type":"Feature","id":"F003:STP_000001_030","geometry":{"type":"Point","coordinates":[139.752191,35.715235]},"properties":{"id":"F003:STP_000001_030","feed_id":"F003","feed_slug":"bunkyo-b-guru","municipality":"文京区","service_name":"Bーぐる","license":"CC BY 4.0","source_stop_id":"STP_000001_030","stop_code":null,"stop_name":"白山一丁目","stop_desc":null,"zone_id":"000001_030","location_type":0,"parent_station":null,"wheelchair_boarding":null}},{"type":"Feature","id":"F003:STP_000001_031","geometry":{"type":"Point","coordinates":[139.752667,35.712636]},"properties":{"id":"F003:STP_000001_031","feed_id":"F003","feed_slug":"bunkyo-b-guru","municipality":"文京区","service_name":"Bーぐる","license":"CC BY 4.0","source_stop_id":"STP_000001_031","stop_code":null,"stop_name":"文化シヤッター前","stop_desc":null,"zone_id":"000001_031","location_type":0,"parent_station":null,"wheelchair_boarding":null}},{"type":"Feature","id":"F003:STP_000001_032","geometry":{"type":"Point","coordinates":[139.753098,35.710747]},"properties":{"id":"F003:STP_000001_032","feed_id":"F003","feed_slug":"bunkyo-b-guru","municipality":"文京区","service_name":"Bーぐる","license":"CC BY 4.0","source_stop_id":"STP_000001_032","stop_code":null,"stop_name":"三田線春日駅","stop_desc":null,"zone_id":"000001_032","location_type":0,"parent_station":null,"wheelchair_boarding":null}},{"type":"Feature","id":"F003:STP_000001_033","geometry":{"type":"Point","coordinates":[139.751926,35.707881]},"properties":{"id":"F003:STP_000001_033","feed_id":"F003","feed_slug":"bunkyo-b-guru","municipality":"文京区","service_name":"Bーぐる","license":"CC BY 4.0","source_stop_id":"STP_000001_033","stop_code":null,"stop_name":"文京シビックセンター（春日駅前）","stop_desc":null,"zone_id":"000001_033","location_type":0,"parent_station":null,"wheelchair_boarding":null}},{"type":"Feature","id":"F003:STP_000001_034","geometry":{"type":"Point","coordinates":[139.747537,35.704516]},"properties":{"id":"F003:STP_000001_034","feed_id":"F003","feed_slug":"bunkyo-b-guru","municipality":"文京区","service_name":"Bーぐる","license":"CC BY 4.0","source_stop_id":"STP_000001_034","stop_code":null,"stop_name":"小石川後楽園入口","stop_desc":null,"zone_id":"000001_034","location_type":0,"parent_station":null,"wheelchair_boarding":null}},{"type":"Feature","id":"F003:STP_000001_035","geometry":{"type":"Point","coordinates":[139.748498,35.703373]},"properties":{"id":"F003:STP_000001_035","feed_id":"F003","feed_slug":"bunkyo-b-guru","municipality":"文京区","service_name":"Bーぐる","license":"CC BY 4.0","source_stop_id":"STP_000001_035","stop_code":null,"stop_name":"後楽一丁目","stop_desc":null,"zone_id":"000001_035","location_type":0,"parent_station":null,"wheelchair_boarding":null}},{"type":"Feature","id":"F003:STP_000001_036","geometry":{"type":"Point","coordinates":[139.753666,35.703409]},"properties":{"id":"F003:STP_000001_036","feed_id":"F003","feed_slug":"bunkyo-b-guru","municipality":"文京区","service_name":"Bーぐる","license":"CC BY 4.0","source_stop_id":"STP_000001_036","stop_code":null,"stop_name":"東京ドームホテル","stop_desc":null,"zone_id":"000001_036","location_type":0,"parent_station":null,"wheelchair_boarding":null}},{"type":"Feature","id":"F003:STP_000001_037","geometry":{"type":"Point","coordinates":[139.754621,35.704466]},"properties":{"id":"F003:STP_000001_037","feed_id":"F003","feed_slug":"bunkyo-b-guru","municipality":"文京区","service_name":"Bーぐる","license":"CC BY 4.0","source_stop_id":"STP_000001_037","stop_code":null,"stop_name":"ミーツポート","stop_desc":null,"zone_id":"000001_037","location_type":0,"parent_station":null,"wheelchair_boarding":null}},{"type":"Feature","id":"F003:STP_000002_002","geometry":{"type":"Point","coordinates":[139.747454,35.70672]},"properties":{"id":"F003:STP_000002_002","feed_id":"F003","feed_slug":"bunkyo-b-guru","municipality":"文京区","service_name":"Bーぐる","license":"CC BY 4.0","source_stop_id":"STP_000002_002","stop_code":null,"stop_name":"小石川税務署","stop_desc":null,"zone_id":"000002_002","location_type":0,"parent_station":null,"wheelchair_boarding":null}},{"type":"Feature","id":"F003:STP_000002_003","geometry":{"type":"Point","coordinates":[139.745748,35.70745]},"properties":{"id":"F003:STP_000002_003","feed_id":"F003","feed_slug":"bunkyo-b-guru","municipality":"文京区","service_name":"Bーぐる","license":"CC BY 4.0","source_stop_id":"STP_000002_003","stop_code":null,"stop_name":"後楽二丁目","stop_desc":null,"zone_id":"000002_003","location_type":0,"parent_station":null,"wheelchair_boarding":null}},{"type":"Feature","id":"F003:STP_000002_004","geometry":{"type":"Point","coordinates":[139.743464,35.709692]},"properties":{"id":"F003:STP_000002_004","feed_id":"F003","feed_slug":"bunkyo-b-guru","municipality":"文京区","service_name":"Bーぐる","license":"CC BY 4.0","source_stop_id":"STP_000002_004","stop_code":null,"stop_name":"ＴＯＰＰＡＮホール・印刷博物館","stop_desc":null,"zone_id":"000002_004","location_type":0,"parent_station":null,"wheelchair_boarding":null}},{"type":"Feature","id":"F003:STP_000002_005","geometry":{"type":"Point","coordinates":[139.739675,35.710908]},"properties":{"id":"F003:STP_000002_005","feed_id":"F003","feed_slug":"bunkyo-b-guru","municipality":"文京区","service_name":"Bーぐる","license":"CC BY 4.0","source_stop_id":"STP_000002_005","stop_code":null,"stop_name":"水道二丁目","stop_desc":null,"zone_id":"000002_005","location_type":0,"parent_station":null,"wheelchair_boarding":null}},{"type":"Feature","id":"F003:STP_000002_006","geometry":{"type":"Point","coordinates":[139.733993,35.710578]},"properties":{"id":"F003:STP_000002_006","feed_id":"F003","feed_slug":"bunkyo-b-guru","municipality":"文京区","service_name":"Bーぐる","license":"CC BY 4.0","source_stop_id":"STP_000002_006","stop_code":null,"stop_name":"文京総合福祉センター","stop_desc":null,"zone_id":"000002_006","location_type":0,"parent_station":null,"wheelchair_boarding":null}},{"type":"Feature","id":"F003:STP_000002_007","geometry":{"type":"Point","coordinates":[139.733072,35.709378]},"properties":{"id":"F003:STP_000002_007","feed_id":"F003","feed_slug":"bunkyo-b-guru","municipality":"文京区","service_name":"Bーぐる","license":"CC BY 4.0","source_stop_id":"STP_000002_007","stop_code":null,"stop_name":"江戸川橋駅","stop_desc":null,"zone_id":"000002_007","location_type":0,"parent_station":null,"wheelchair_boarding":null}},{"type":"Feature","id":"F003:STP_000002_008","geometry":{"type":"Point","coordinates":[139.731283,35.710914]},"properties":{"id":"F003:STP_000002_008","feed_id":"F003","feed_slug":"bunkyo-b-guru","municipality":"文京区","service_name":"Bーぐる","license":"CC BY 4.0","source_stop_id":"STP_000002_008","stop_code":null,"stop_name":"江戸川公園","stop_desc":null,"zone_id":"000002_008","location_type":0,"parent_station":null,"wheelchair_boarding":null}},{"type":"Feature","id":"F003:STP_000002_009","geometry":{"type":"Point","coordinates":[139.729733,35.712059]},"properties":{"id":"F003:STP_000002_009","feed_id":"F003","feed_slug":"bunkyo-b-guru","municipality":"文京区","service_name":"Bーぐる","license":"CC BY 4.0","source_stop_id":"STP_000002_009","stop_code":null,"stop_name":"関口二丁目","stop_desc":null,"zone_id":"000002_009","location_type":0,"parent_station":null,"wheelchair_boarding":null}},{"type":"Feature","id":"F003:STP_000002_010","geometry":{"type":"Point","coordinates":[139.72604,35.713293]},"properties":{"id":"F003:STP_000002_010","feed_id":"F003","feed_slug":"bunkyo-b-guru","municipality":"文京区","service_name":"Bーぐる","license":"CC BY 4.0","source_stop_id":"STP_000002_010","stop_code":null,"stop_name":"ホテル椿山荘東京","stop_desc":null,"zone_id":"000002_010","location_type":0,"parent_station":null,"wheelchair_boarding":null}},{"type":"Feature","id":"F003:STP_000002_011","geometry":{"type":"Point","coordinates":[139.725366,35.714404]},"properties":{"id":"F003:STP_000002_011","feed_id":"F003","feed_slug":"bunkyo-b-guru","municipality":"文京区","service_name":"Bーぐる","license":"CC BY 4.0","source_stop_id":"STP_000002_011","stop_code":null,"stop_name":"目白台一丁目","stop_desc":null,"zone_id":"000002_011","location_type":0,"parent_station":null,"wheelchair_boarding":null}},{"type":"Feature","id":"F003:STP_000002_012","geometry":{"type":"Point","coordinates":[139.721855,35.715604]},"properties":{"id":"F003:STP_000002_012","feed_id":"F003","feed_slug":"bunkyo-b-guru","municipality":"文京区","service_name":"Bーぐる","license":"CC BY 4.0","source_stop_id":"STP_000002_012","stop_code":null,"stop_name":"目白台運動公園","stop_desc":null,"zone_id":"000002_012","location_type":0,"parent_station":null,"wheelchair_boarding":null}},{"type":"Feature","id":"F003:STP_000002_013","geometry":{"type":"Point","coordinates":[139.719381,35.716216]},"properties":{"id":"F003:STP_000002_013","feed_id":"F003","feed_slug":"bunkyo-b-guru","municipality":"文京区","service_name":"Bーぐる","license":"CC BY 4.0","source_stop_id":"STP_000002_013","stop_code":null,"stop_name":"日本女子大前","stop_desc":null,"zone_id":"000002_013","location_type":0,"parent_station":null,"wheelchair_boarding":null}},{"type":"Feature","id":"F003:STP_000002_014","geometry":{"type":"Point","coordinates":[139.72123,35.718097]},"properties":{"id":"F003:STP_000002_014","feed_id":"F003","feed_slug":"bunkyo-b-guru","municipality":"文京区","service_name":"Bーぐる","license":"CC BY 4.0","source_stop_id":"STP_000002_014","stop_code":null,"stop_name":"目白台二丁目","stop_desc":null,"zone_id":"000002_014","location_type":0,"parent_station":null,"wheelchair_boarding":null}},{"type":"Feature","id":"F003:STP_000002_015","geometry":{"type":"Point","coordinates":[139.725716,35.719834]},"properties":{"id":"F003:STP_000002_015","feed_id":"F003","feed_slug":"bunkyo-b-guru","municipality":"文京区","service_name":"Bーぐる","license":"CC BY 4.0","source_stop_id":"STP_000002_015","stop_code":null,"stop_name":"アカデミー音羽","stop_desc":null,"zone_id":"000002_015","location_type":0,"parent_station":null,"wheelchair_boarding":null}},{"type":"Feature","id":"F003:STP_000002_016","geometry":{"type":"Point","coordinates":[139.727383,35.719538]},"properties":{"id":"F003:STP_000002_016","feed_id":"F003","feed_slug":"bunkyo-b-guru","municipality":"文京区","service_name":"Bーぐる","license":"CC BY 4.0","source_stop_id":"STP_000002_016","stop_code":null,"stop_name":"護国寺駅","stop_desc":null,"zone_id":"000002_016","location_type":0,"parent_station":null,"wheelchair_boarding":null}},{"type":"Feature","id":"F003:STP_000002_017","geometry":{"type":"Point","coordinates":[139.727971,35.718348]},"properties":{"id":"F003:STP_000002_017","feed_id":"F003","feed_slug":"bunkyo-b-guru","municipality":"文京区","service_name":"Bーぐる","license":"CC BY 4.0","source_stop_id":"STP_000002_017","stop_code":null,"stop_name":"講談社前","stop_desc":null,"zone_id":"000002_017","location_type":0,"parent_station":null,"wheelchair_boarding":null}},{"type":"Feature","id":"F003:STP_000002_018","geometry":{"type":"Point","coordinates":[139.732749,35.717526]},"properties":{"id":"F003:STP_000002_018","feed_id":"F003","feed_slug":"bunkyo-b-guru","municipality":"文京区","service_name":"Bーぐる","license":"CC BY 4.0","source_stop_id":"STP_000002_018","stop_code":null,"stop_name":"大塚二丁目","stop_desc":null,"zone_id":"000002_018","location_type":0,"parent_station":null,"wheelchair_boarding":null}},{"type":"Feature","id":"F003:STP_000002_019","geometry":{"type":"Point","coordinates":[139.734128,35.716984]},"properties":{"id":"F003:STP_000002_019","feed_id":"F003","feed_slug":"bunkyo-b-guru","municipality":"文京区","service_name":"Bーぐる","license":"CC BY 4.0","source_stop_id":"STP_000002_019","stop_code":null,"stop_name":"跡見女子大西門前","stop_desc":null,"zone_id":"000002_019","location_type":0,"parent_station":null,"wheelchair_boarding":null}},{"type":"Feature","id":"F003:STP_000002_020","geometry":{"type":"Point","coordinates":[139.733138,35.714101]},"properties":{"id":"F003:STP_000002_020","feed_id":"F003","feed_slug":"bunkyo-b-guru","municipality":"文京区","service_name":"Bーぐる","license":"CC BY 4.0","source_stop_id":"STP_000002_020","stop_code":null,"stop_name":"都営小日向二丁目アパート","stop_desc":null,"zone_id":"000002_020","location_type":0,"parent_station":null,"wheelchair_boarding":null}},{"type":"Feature","id":"F003:STP_000002_021","geometry":{"type":"Point","coordinates":[139.734536,35.710386]},"properties":{"id":"F003:STP_000002_021","feed_id":"F003","feed_slug":"bunkyo-b-guru","municipality":"文京区","service_name":"Bーぐる","license":"CC BY 4.0","source_stop_id":"STP_000002_021","stop_code":null,"stop_name":"文京総合福祉センター","stop_desc":null,"zone_id":"000002_021","location_type":0,"parent_station":null,"wheelchair_boarding":null}},{"type":"Feature","id":"F003:STP_000002_022","geometry":{"type":"Point","coordinates":[139.734433,35.712846]},"properties":{"id":"F003:STP_000002_022","feed_id":"F003","feed_slug":"bunkyo-b-guru","municipality":"文京区","service_name":"Bーぐる","license":"CC BY 4.0","source_stop_id":"STP_000002_022","stop_code":null,"stop_name":"小日向台町小学校","stop_desc":null,"zone_id":"000002_022","location_type":0,"parent_station":null,"wheelchair_boarding":null}},{"type":"Feature","id":"F003:STP_000002_023","geometry":{"type":"Point","coordinates":[139.734037,35.714441]},"properties":{"id":"F003:STP_000002_023","feed_id":"F003","feed_slug":"bunkyo-b-guru","municipality":"文京区","service_name":"Bーぐる","license":"CC BY 4.0","source_stop_id":"STP_000002_023","stop_code":null,"stop_name":"小日向二丁目","stop_desc":null,"zone_id":"000002_023","location_type":0,"parent_station":null,"wheelchair_boarding":null}},{"type":"Feature","id":"F003:STP_000002_024","geometry":{"type":"Point","coordinates":[139.734106,35.716646]},"properties":{"id":"F003:STP_000002_024","feed_id":"F003","feed_slug":"bunkyo-b-guru","municipality":"文京区","service_name":"Bーぐる","license":"CC BY 4.0","source_stop_id":"STP_000002_024","stop_code":null,"stop_name":"新大塚公園","stop_desc":null,"zone_id":"000002_024","location_type":0,"parent_station":null,"wheelchair_boarding":null}},{"type":"Feature","id":"F003:STP_000002_025","geometry":{"type":"Point","coordinates":[139.735463,35.718764]},"properties":{"id":"F003:STP_000002_025","feed_id":"F003","feed_slug":"bunkyo-b-guru","municipality":"文京区","service_name":"Bーぐる","license":"CC BY 4.0","source_stop_id":"STP_000002_025","stop_code":null,"stop_name":"窪町小学校(竹添義之税理士事務所前)","stop_desc":null,"zone_id":"000002_025","location_type":0,"parent_station":null,"wheelchair_boarding":null}},{"type":"Feature","id":"F003:STP_000002_026","geometry":{"type":"Point","coordinates":[139.737295,35.717564]},"properties":{"id":"F003:STP_000002_026","feed_id":"F003","feed_slug":"bunkyo-b-guru","municipality":"文京区","service_name":"Bーぐる","license":"CC BY 4.0","source_stop_id":"STP_000002_026","stop_code":null,"stop_name":"茗荷谷駅","stop_desc":null,"zone_id":"000002_026","location_type":0,"parent_station":null,"wheelchair_boarding":null}},{"type":"Feature","id":"F003:STP_000002_027","geometry":{"type":"Point","coordinates":[139.739257,35.717524]},"properties":{"id":"F003:STP_000002_027","feed_id":"F003","feed_slug":"bunkyo-b-guru","municipality":"文京区","service_name":"Bーぐる","license":"CC BY 4.0","source_stop_id":"STP_000002_027","stop_code":null,"stop_name":"第一中学校","stop_desc":null,"zone_id":"000002_027","location_type":0,"parent_station":null,"wheelchair_boarding":null}},{"type":"Feature","id":"F003:STP_000002_028","geometry":{"type":"Point","coordinates":[139.743074,35.717127]},"properties":{"id":"F003:STP_000002_028","feed_id":"F003","feed_slug":"bunkyo-b-guru","municipality":"文京区","service_name":"Bーぐる","license":"CC BY 4.0","source_stop_id":"STP_000002_028","stop_code":null,"stop_name":"胡蝶蘭専門店らんや（播磨坂）","stop_desc":null,"zone_id":"000002_028","location_type":0,"parent_station":null,"wheelchair_boarding":null}},{"type":"Feature","id":"F003:STP_000002_029","geometry":{"type":"Point","coordinates":[139.746189,35.716532]},"properties":{"id":"F003:STP_000002_029","feed_id":"F003","feed_slug":"bunkyo-b-guru","municipality":"文京区","service_name":"Bーぐる","license":"CC BY 4.0","source_stop_id":"STP_000002_029","stop_code":null,"stop_name":"共同印刷","stop_desc":null,"zone_id":"000002_029","location_type":0,"parent_station":null,"wheelchair_boarding":null}},{"type":"Feature","id":"F003:STP_000002_030","geometry":{"type":"Point","coordinates":[139.749663,35.714033]},"properties":{"id":"F003:STP_000002_030","feed_id":"F003","feed_slug":"bunkyo-b-guru","municipality":"文京区","service_name":"Bーぐる","license":"CC BY 4.0","source_stop_id":"STP_000002_030","stop_code":null,"stop_name":"小石川一丁目","stop_desc":null,"zone_id":"000002_030","location_type":0,"parent_station":null,"wheelchair_boarding":null}},{"type":"Feature","id":"F003:STP_000002_031","geometry":{"type":"Point","coordinates":[139.751637,35.711305]},"properties":{"id":"F003:STP_000002_031","feed_id":"F003","feed_slug":"bunkyo-b-guru","municipality":"文京区","service_name":"Bーぐる","license":"CC BY 4.0","source_stop_id":"STP_000002_031","stop_code":null,"stop_name":"こんにゃくえんま","stop_desc":null,"zone_id":"000002_031","location_type":0,"parent_station":null,"wheelchair_boarding":null}},{"type":"Feature","id":"F003:STP_000002_032","geometry":{"type":"Point","coordinates":[139.751902,35.709562]},"properties":{"id":"F003:STP_000002_032","feed_id":"F003","feed_slug":"bunkyo-b-guru","municipality":"文京区","service_name":"Bーぐる","license":"CC BY 4.0","source_stop_id":"STP_000002_032","stop_code":null,"stop_name":"富坂下","stop_desc":null,"zone_id":"000002_032","location_type":0,"parent_station":null,"wheelchair_boarding":null}},{"type":"Feature","id":"F003:STP_000003_001","geometry":{"type":"Point","coordinates":[139.752484,35.706744]},"properties":{"id":"F003:STP_000003_001","feed_id":"F003","feed_slug":"bunkyo-b-guru","municipality":"文京区","service_name":"Bーぐる","license":"CC BY 4.0","source_stop_id":"STP_000003_001","stop_code":null,"stop_name":"春日一丁目","stop_desc":null,"zone_id":"000003_001","location_type":0,"parent_station":null,"wheelchair_boarding":null}},{"type":"Feature","id":"F003:STP_000003_002","geometry":{"type":"Point","coordinates":[139.757561,35.704511]},"properties":{"id":"F003:STP_000003_002","feed_id":"F003","feed_slug":"bunkyo-b-guru","municipality":"文京区","service_name":"Bーぐる","license":"CC BY 4.0","source_stop_id":"STP_000003_002","stop_code":null,"stop_name":"東洋学園大学前","stop_desc":null,"zone_id":"000003_002","location_type":0,"parent_station":null,"wheelchair_boarding":null}},{"type":"Feature","id":"F003:STP_000003_003","geometry":{"type":"Point","coordinates":[139.760149,35.70465]},"properties":{"id":"F003:STP_000003_003","feed_id":"F003","feed_slug":"bunkyo-b-guru","municipality":"文京区","service_name":"Bーぐる","license":"CC BY 4.0","source_stop_id":"STP_000003_003","stop_code":null,"stop_name":"宇佐美本郷ビル前（壱岐坂上）","stop_desc":null,"zone_id":"000003_003","location_type":0,"parent_station":null,"wheelchair_boarding":null}},{"type":"Feature","id":"F003:STP_000003_004","geometry":{"type":"Point","coordinates":[139.764144,35.704062]},"properties":{"id":"F003:STP_000003_004","feed_id":"F003","feed_slug":"bunkyo-b-guru","municipality":"文京区","service_name":"Bーぐる","license":"CC BY 4.0","source_stop_id":"STP_000003_004","stop_code":null,"stop_name":"湯島総合センター","stop_desc":null,"zone_id":"000003_004","location_type":0,"parent_station":null,"wheelchair_boarding":null}},{"type":"Feature","id":"F003:STP_000003_005","geometry":{"type":"Point","coordinates":[139.764321,35.707404]},"properties":{"id":"F003:STP_000003_005","feed_id":"F003","feed_slug":"bunkyo-b-guru","municipality":"文京区","service_name":"Bーぐる","license":"CC BY 4.0","source_stop_id":"STP_000003_005","stop_code":null,"stop_name":"湯島四丁目","stop_desc":null,"zone_id":"000003_005","location_type":0,"parent_station":null,"wheelchair_boarding":null}},{"type":"Feature","id":"F003:STP_000003_006","geometry":{"type":"Point","coordinates":[139.76225,35.70504]},"properties":{"id":"F003:STP_000003_006","feed_id":"F003","feed_slug":"bunkyo-b-guru","municipality":"文京区","service_name":"Bーぐる","license":"CC BY 4.0","source_stop_id":"STP_000003_006","stop_code":null,"stop_name":"消防署前通り","stop_desc":null,"zone_id":"000003_006","location_type":0,"parent_station":null,"wheelchair_boarding":null}},{"type":"Feature","id":"F003:STP_000003_007","geometry":{"type":"Point","coordinates":[139.761986,35.702935]},"properties":{"id":"F003:STP_000003_007","feed_id":"F003","feed_slug":"bunkyo-b-guru","municipality":"文京区","service_name":"Bーぐる","license":"CC BY 4.0","source_stop_id":"STP_000003_007","stop_code":null,"stop_name":"順天堂病院前","stop_desc":null,"zone_id":"000003_007","location_type":0,"parent_station":null,"wheelchair_boarding":null}},{"type":"Feature","id":"F003:STP_000003_008","geometry":{"type":"Point","coordinates":[139.763521,35.699856]},"properties":{"id":"F003:STP_000003_008","feed_id":"F003","feed_slug":"bunkyo-b-guru","municipality":"文京区","service_name":"Bーぐる","license":"CC BY 4.0","source_stop_id":"STP_000003_008","stop_code":null,"stop_name":"御茶ノ水駅前","stop_desc":null,"zone_id":"000003_008","location_type":0,"parent_station":null,"wheelchair_boarding":null}},{"type":"Feature","id":"F003:STP_000003_009","geometry":{"type":"Point","coordinates":[139.762066,35.697281]},"properties":{"id":"F003:STP_000003_009","feed_id":"F003","feed_slug":"bunkyo-b-guru","municipality":"文京区","service_name":"Bーぐる","license":"CC BY 4.0","source_stop_id":"STP_000003_009","stop_code":null,"stop_name":"日大病院","stop_desc":null,"zone_id":"000003_009","location_type":0,"parent_station":null,"wheelchair_boarding":null}},{"type":"Feature","id":"F003:STP_000003_010","geometry":{"type":"Point","coordinates":[139.765345,35.69695]},"properties":{"id":"F003:STP_000003_010","feed_id":"F003","feed_slug":"bunkyo-b-guru","municipality":"文京区","service_name":"Bーぐる","license":"CC BY 4.0","source_stop_id":"STP_000003_010","stop_code":null,"stop_name":"新御茶ノ水駅","stop_desc":null,"zone_id":"000003_010","location_type":0,"parent_station":null,"wheelchair_boarding":null}},{"type":"Feature","id":"F003:STP_000003_011","geometry":{"type":"Point","coordinates":[139.7655,35.700359]},"properties":{"id":"F003:STP_000003_011","feed_id":"F003","feed_slug":"bunkyo-b-guru","municipality":"文京区","service_name":"Bーぐる","license":"CC BY 4.0","source_stop_id":"STP_000003_011","stop_code":null,"stop_name":"聖橋","stop_desc":null,"zone_id":"000003_011","location_type":0,"parent_station":null,"wheelchair_boarding":null}},{"type":"Feature","id":"F003:STP_000003_012","geometry":{"type":"Point","coordinates":[139.766382,35.702368]},"properties":{"id":"F003:STP_000003_012","feed_id":"F003","feed_slug":"bunkyo-b-guru","municipality":"文京区","service_name":"Bーぐる","license":"CC BY 4.0","source_stop_id":"STP_000003_012","stop_code":null,"stop_name":"湯島一丁目","stop_desc":null,"zone_id":"000003_012","location_type":0,"parent_station":null,"wheelchair_boarding":null}},{"type":"Feature","id":"F003:STP_000003_013","geometry":{"type":"Point","coordinates":[139.767159,35.70466]},"properties":{"id":"F003:STP_000003_013","feed_id":"F003","feed_slug":"bunkyo-b-guru","municipality":"文京区","service_name":"Bーぐる","license":"CC BY 4.0","source_stop_id":"STP_000003_013","stop_code":null,"stop_name":"東都文京病院入口","stop_desc":null,"zone_id":"000003_013","location_type":0,"parent_station":null,"wheelchair_boarding":null}},{"type":"Feature","id":"F003:STP_000003_014","geometry":{"type":"Point","coordinates":[139.767422,35.705492]},"properties":{"id":"F003:STP_000003_014","feed_id":"F003","feed_slug":"bunkyo-b-guru","municipality":"文京区","service_name":"Bーぐる","license":"CC BY 4.0","source_stop_id":"STP_000003_014","stop_code":null,"stop_name":"湯島天神入口","stop_desc":null,"zone_id":"000003_014","location_type":0,"parent_station":null,"wheelchair_boarding":null}},{"type":"Feature","id":"F003:STP_000003_015","geometry":{"type":"Point","coordinates":[139.769868,35.706771]},"properties":{"id":"F003:STP_000003_015","feed_id":"F003","feed_slug":"bunkyo-b-guru","municipality":"文京区","service_name":"Bーぐる","license":"CC BY 4.0","source_stop_id":"STP_000003_015","stop_code":null,"stop_name":"湯島駅","stop_desc":null,"zone_id":"000003_015","location_type":0,"parent_station":null,"wheelchair_boarding":null}},{"type":"Feature","id":"F003:STP_000003_016","geometry":{"type":"Point","coordinates":[139.772422,35.70726]},"properties":{"id":"F003:STP_000003_016","feed_id":"F003","feed_slug":"bunkyo-b-guru","municipality":"文京区","service_name":"Bーぐる","license":"CC BY 4.0","source_stop_id":"STP_000003_016","stop_code":null,"stop_name":"上野松坂屋前","stop_desc":null,"zone_id":"000003_016","location_type":0,"parent_station":null,"wheelchair_boarding":null}},{"type":"Feature","id":"F003:STP_000003_017","geometry":{"type":"Point","coordinates":[139.770926,35.708108]},"properties":{"id":"F003:STP_000003_017","feed_id":"F003","feed_slug":"bunkyo-b-guru","municipality":"文京区","service_name":"Bーぐる","license":"CC BY 4.0","source_stop_id":"STP_000003_017","stop_code":null,"stop_name":"天神下","stop_desc":null,"zone_id":"000003_017","location_type":0,"parent_station":null,"wheelchair_boarding":null}},{"type":"Feature","id":"F003:STP_000003_018","geometry":{"type":"Point","coordinates":[139.769589,35.706548]},"properties":{"id":"F003:STP_000003_018","feed_id":"F003","feed_slug":"bunkyo-b-guru","municipality":"文京区","service_name":"Bーぐる","license":"CC BY 4.0","source_stop_id":"STP_000003_018","stop_code":null,"stop_name":"湯島駅","stop_desc":null,"zone_id":"000003_018","location_type":0,"parent_station":null,"wheelchair_boarding":null}},{"type":"Feature","id":"F003:STP_000003_019","geometry":{"type":"Point","coordinates":[139.767604,35.705758]},"properties":{"id":"F003:STP_000003_019","feed_id":"F003","feed_slug":"bunkyo-b-guru","municipality":"文京区","service_name":"Bーぐる","license":"CC BY 4.0","source_stop_id":"STP_000003_019","stop_code":null,"stop_name":"サミットストア湯島天神南店（湯島天神入口）","stop_desc":null,"zone_id":"000003_019","location_type":0,"parent_station":null,"wheelchair_boarding":null}},{"type":"Feature","id":"F003:STP_000003_020","geometry":{"type":"Point","coordinates":[139.764136,35.705467]},"properties":{"id":"F003:STP_000003_020","feed_id":"F003","feed_slug":"bunkyo-b-guru","municipality":"文京区","service_name":"Bーぐる","license":"CC BY 4.0","source_stop_id":"STP_000003_020","stop_code":null,"stop_name":"湯島二丁目","stop_desc":null,"zone_id":"000003_020","location_type":0,"parent_station":null,"wheelchair_boarding":null}},{"type":"Feature","id":"F003:STP_000003_022","geometry":{"type":"Point","coordinates":[139.760873,35.705227]},"properties":{"id":"F003:STP_000003_022","feed_id":"F003","feed_slug":"bunkyo-b-guru","municipality":"文京区","service_name":"Bーぐる","license":"CC BY 4.0","source_stop_id":"STP_000003_022","stop_code":null,"stop_name":"本郷二丁目","stop_desc":null,"zone_id":"000003_022","location_type":0,"parent_station":null,"wheelchair_boarding":null}},{"type":"Feature","id":"F003:STP_000003_023","geometry":{"type":"Point","coordinates":[139.75907,35.708533]},"properties":{"id":"F003:STP_000003_023","feed_id":"F003","feed_slug":"bunkyo-b-guru","municipality":"文京区","service_name":"Bーぐる","license":"CC BY 4.0","source_stop_id":"STP_000003_023","stop_code":null,"stop_name":"菊坂通り","stop_desc":null,"zone_id":"000003_023","location_type":0,"parent_station":null,"wheelchair_boarding":null}},{"type":"Feature","id":"F003:STP_000003_024","geometry":{"type":"Point","coordinates":[139.754155,35.711317]},"properties":{"id":"F003:STP_000003_024","feed_id":"F003","feed_slug":"bunkyo-b-guru","municipality":"文京区","service_name":"Bーぐる","license":"CC BY 4.0","source_stop_id":"STP_000003_024","stop_code":null,"stop_name":"メレ・ド・ショコラ本店前（菊坂下）","stop_desc":null,"zone_id":"000003_024","location_type":0,"parent_station":null,"wheelchair_boarding":null}}]}
