{"type":"FeatureCollection","name":"kita-kbus_routes","features":[{"type":"Feature","id":"F005:ROT_000001:SHP_001001","geometry":{"type":"LineString","coordinates":[[139.736891,35.754609],[139.736602,35.754542],[139.736034,35.754336],[139.734976,35.753841],[139.734426,35.753797],[139.733697,35.753874],[139.733241,35.753869],[139.732841,35.754117],[139.732631,35.754293],[139.732482,35.754457],[139.731621,35.75548],[139.731146,35.756026],[139.730578,35.756817],[139.730177,35.757458],[139.729827,35.758122],[139.729666,35.758319],[139.729338,35.758431],[139.728963,35.758431],[139.728933,35.758401],[139.728979,35.75812],[139.729315,35.757596],[139.729439,35.756843],[139.729357,35.756696],[139.729367,35.756589],[139.729484,35.756492],[139.729507,35.756374],[139.729534,35.756207],[139.729725,35.75474],[139.729808,35.754037],[139.729872,35.753636],[139.73021,35.753065],[139.733292,35.753808],[139.733577,35.753761],[139.734941,35.752975],[139.735067,35.752937],[139.735672,35.752569],[139.736178,35.75223],[139.736489,35.752124],[139.73716,35.751323],[139.737578,35.750805],[139.738096,35.750023],[139.738591,35.749435],[139.738684,35.749282],[139.739078,35.748842],[139.740701,35.747587],[139.741221,35.7472],[139.741532,35.746838],[139.741815,35.746508],[139.742967,35.745348],[139.742986,35.745344],[139.743046,35.745385],[139.743053,35.745434],[139.74305,35.745473],[139.743069,35.745518],[139.743098,35.74554],[139.743153,35.745544],[139.743204,35.745521],[139.743241,35.745478],[139.743243,35.745412],[139.743191,35.74537],[139.743124,35.745366],[139.743067,35.745363],[139.743006,35.745326],[139.743011,35.745307],[139.743298,35.745017],[139.743466,35.744881],[139.743742,35.744753],[139.744579,35.744504],[139.74517,35.744232],[139.745558,35.74404],[139.746732,35.743308],[139.747122,35.743148],[139.747254,35.742964],[139.747492,35.741515],[139.747335,35.74115],[139.747133,35.740606],[139.746961,35.740232],[139.746695,35.739517],[139.74641,35.738812],[139.746178,35.738245],[139.746337,35.737542],[139.746469,35.737048],[139.746524,35.736995],[139.746695,35.736585],[139.746895,35.735952],[139.746925,35.735937],[139.74697,35.735945],[139.747325,35.736077],[139.747363,35.736081],[139.747401,35.736065],[139.747453,35.735958],[139.747433,35.735905],[139.747401,35.735878],[139.746961,35.73567],[139.746877,35.735661],[139.746816,35.735693],[139.746594,35.736239],[139.746358,35.736941],[139.746076,35.738095],[139.74605,35.738271],[139.746716,35.739919],[139.74704,35.740742],[139.747392,35.74155],[139.747106,35.742963],[139.746021,35.743686],[139.745488,35.743998],[139.745062,35.744238],[139.744791,35.744368],[139.744407,35.744517],[139.743714,35.744708],[139.743454,35.744821],[139.743273,35.744947],[139.742976,35.74523],[139.742888,35.745271],[139.741443,35.74675],[139.741144,35.747024],[139.740656,35.747483],[139.740387,35.747699],[139.739048,35.748725],[139.737984,35.749915],[139.737556,35.750541],[139.737527,35.750617],[139.736403,35.751935],[139.736361,35.752018],[139.736329,35.752347],[139.736441,35.752663],[139.736707,35.752847],[139.737108,35.752977],[139.737668,35.753255],[139.737951,35.75349],[139.737079,35.754634],[139.736973,35.754642],[139.736891,35.754609]]},"properties":{"id":"F005:ROT_000001:SHP_001001","feed_id":"F005","feed_slug":"kita-kbus","municipality":"北区","service_name":"Kバス","license":"CC BY 4.0","source_route_id":"ROT_000001","route_short_name":null,"route_long_name":"王子・駒込ルート","route_desc":null,"route_type":3,"route_url":null,"route_color":"00A3E9","route_text_color":"000000","directions":[],"geometry_source":"shapes.txt"}},{"type":"Feature","id":"F005:ROT_000001:SHP_001002","geometry":{"type":"LineString","coordinates":[[139.736891,35.754609],[139.736602,35.754542],[139.736034,35.754336],[139.734976,35.753841],[139.734426,35.753797],[139.733697,35.753874],[139.733241,35.753869],[139.732841,35.754117],[139.732631,35.754293],[139.732482,35.754457],[139.731621,35.75548],[139.731146,35.756026],[139.730578,35.756817],[139.730177,35.757458],[139.729827,35.758122],[139.729666,35.758319],[139.729338,35.758431],[139.728963,35.758431],[139.728933,35.758401],[139.728979,35.75812],[139.729315,35.757596],[139.729439,35.756843],[139.729357,35.756696],[139.729367,35.756589],[139.729484,35.756492],[139.729507,35.756374],[139.729534,35.756207],[139.729725,35.75474],[139.729808,35.754037],[139.729872,35.753636],[139.73021,35.753065],[139.733292,35.753808],[139.733577,35.753761],[139.734941,35.752975],[139.735067,35.752937],[139.735672,35.752569],[139.736178,35.75223],[139.736489,35.752124],[139.73716,35.751323],[139.737578,35.750805],[139.738096,35.750023],[139.738591,35.749435],[139.738684,35.749282],[139.739078,35.748842],[139.740701,35.747587],[139.741221,35.7472],[139.741532,35.746838],[139.741815,35.746508],[139.742967,35.745348],[139.742986,35.745344],[139.743046,35.745385],[139.743053,35.745434],[139.74305,35.745473],[139.743069,35.745518],[139.743098,35.74554],[139.743153,35.745544],[139.743204,35.745521],[139.743241,35.745478],[139.743243,35.745412],[139.743191,35.74537],[139.743124,35.745366],[139.743067,35.745363],[139.743006,35.745326],[139.743011,35.745307],[139.743298,35.745017],[139.743466,35.744881],[139.743742,35.744753],[139.744579,35.744504],[139.74517,35.744232],[139.745558,35.74404],[139.746732,35.743308],[139.747122,35.743148],[139.747254,35.742964],[139.747492,35.741515],[139.747335,35.74115],[139.747133,35.740606],[139.746961,35.740232],[139.746695,35.739517],[139.74641,35.738812],[139.746178,35.738245],[139.746337,35.737542],[139.746469,35.737048],[139.746524,35.736995],[139.746695,35.736585],[139.746895,35.735952],[139.746925,35.735937],[139.74697,35.735945],[139.747325,35.736077],[139.747363,35.736081],[139.747405,35.736066],[139.747424,35.736024],[139.747439,35.735967]]},"properties":{"id":"F005:ROT_000001:SHP_001002","feed_id":"F005","feed_slug":"kita-kbus","municipality":"北区","service_name":"Kバス","license":"CC BY 4.0","source_route_id":"ROT_000001","route_short_name":null,"route_long_name":"王子・駒込ルート","route_desc":null,"route_type":3,"route_url":null,"route_color":"00A3E9","route_text_color":"000000","directions":[],"geometry_source":"shapes.txt"}},{"type":"Feature","id":"F005:ROT_000001:SHP_001003","geometry":{"type":"LineString","coordinates":[[139.747443,35.735965],[139.747427,35.735908],[139.747401,35.735878],[139.746961,35.73567],[139.746877,35.735661],[139.746816,35.735693],[139.746594,35.736239],[139.746358,35.736941],[139.746076,35.738095],[139.74605,35.738271],[139.746716,35.739919],[139.74704,35.740742],[139.747392,35.74155],[139.747106,35.742963],[139.746021,35.743686],[139.745488,35.743998],[139.745062,35.744238],[139.744791,35.744368],[139.744407,35.744517],[139.743714,35.744708],[139.743454,35.744821],[139.743273,35.744947],[139.742976,35.74523],[139.742888,35.745271],[139.741443,35.74675],[139.741144,35.747024],[139.740656,35.747483],[139.740387,35.747699],[139.739048,35.748725],[139.737984,35.749915],[139.737556,35.750541],[139.737527,35.750617],[139.736403,35.751935],[139.736361,35.752018],[139.736329,35.752347],[139.736441,35.752663],[139.736707,35.752847],[139.737108,35.752977],[139.737668,35.753255],[139.737951,35.75349],[139.737079,35.754634],[139.736973,35.754642],[139.736885,35.754612],[139.736795,35.754579]]},"properties":{"id":"F005:ROT_000001:SHP_001003","feed_id":"F005","feed_slug":"kita-kbus","municipality":"北区","service_name":"Kバス","license":"CC BY 4.0","source_route_id":"ROT_000001","route_short_name":null,"route_long_name":"王子・駒込ルート","route_desc":null,"route_type":3,"route_url":null,"route_color":"00A3E9","route_text_color":"000000","directions":[],"geometry_source":"shapes.txt"}},{"type":"Feature","id":"F005:ROT_000002:SHP_000002","geometry":{"type":"LineString","coordinates":[[139.747431,35.735991],[139.747447,35.735926],[139.747402,35.735885],[139.748081,35.734766],[139.74818,35.734764],[139.748646,35.73546],[139.748716,35.735475],[139.74963,35.73501],[139.750784,35.735095],[139.751535,35.734766],[139.751638,35.734878],[139.751686,35.734958],[139.752367,35.735675],[139.7525,35.73568],[139.752779,35.735369],[139.753039,35.735268],[139.753303,35.735235],[139.753729,35.735293],[139.754006,35.735316],[139.754179,35.735301],[139.754346,35.735268],[139.754605,35.73515],[139.75519,35.734835],[139.755812,35.734495],[139.756152,35.734408],[139.758257,35.733972],[139.758921,35.733751],[139.758952,35.733769],[139.75908,35.734139],[139.759191,35.734909],[139.759562,35.737383],[139.75966,35.737706],[139.759953,35.738093],[139.759943,35.738131],[139.759801,35.738198],[139.759611,35.738366],[139.759447,35.738541],[139.759362,35.738613],[139.759255,35.738631],[139.759135,35.738605],[139.758632,35.738189],[139.758507,35.738193],[139.758072,35.738428],[139.757715,35.738697],[139.757319,35.738958],[139.755962,35.739926],[139.75572,35.740136],[139.755411,35.740495],[139.754762,35.740734],[139.754367,35.740946],[139.753404,35.741043],[139.75306,35.74121],[139.752503,35.741424],[139.749982,35.742354],[139.747369,35.743032],[139.747252,35.742974],[139.747487,35.741514],[139.747109,35.740585],[139.746955,35.740234],[139.746594,35.739279],[139.746167,35.738243],[139.746454,35.737048],[139.746913,35.735981],[139.74698,35.735939],[139.747318,35.736064],[139.747431,35.735991]]},"properties":{"id":"F005:ROT_000002:SHP_000002","feed_id":"F005","feed_slug":"kita-kbus","municipality":"北区","service_name":"Kバス","license":"CC BY 4.0","source_route_id":"ROT_000002","route_short_name":null,"route_long_name":"田端循環ルート","route_desc":null,"route_type":3,"route_url":null,"route_color":"092488","route_text_color":"FFFFFF","directions":[],"geometry_source":"shapes.txt"}},{"type":"Feature","id":"F005:ROT_000004:SHP_004001","geometry":{"type":"LineString","coordinates":[[139.72007,35.778892],[139.719756,35.77875],[139.719706,35.778757],[139.719672,35.778804],[139.719375,35.779234],[139.718915,35.779924],[139.718684,35.780318],[139.718123,35.781218],[139.717807,35.781691],[139.71738,35.782223],[139.71723,35.782343],[139.716843,35.782641],[139.716423,35.782869],[139.716022,35.78301],[139.71551,35.783256],[139.715392,35.78337],[139.715321,35.783487],[139.7152,35.783866],[139.71515,35.783945],[139.715066,35.783989],[139.714931,35.783997],[139.714126,35.783994],[139.713363,35.783968],[139.712737,35.783949],[139.712301,35.783937],[139.712244,35.783934],[139.71221,35.783974],[139.712199,35.784133],[139.712168,35.784149],[139.71179,35.784148],[139.711102,35.784123],[139.710597,35.784105],[139.710515,35.784078],[139.710481,35.784041],[139.710485,35.783971],[139.710521,35.783681],[139.710522,35.78352],[139.710483,35.783381],[139.710356,35.783152],[139.710294,35.783126],[139.710219,35.783135],[139.710102,35.783186],[139.70983,35.783313],[139.709595,35.783453],[139.709346,35.78365],[139.70913,35.783869],[139.708886,35.784122],[139.70875,35.784273],[139.708545,35.784419],[139.707998,35.784625],[139.707829,35.784704],[139.707609,35.784823],[139.707348,35.784997],[139.70706,35.785214],[139.707083,35.785368],[139.709386,35.785811],[139.709402,35.785824],[139.709398,35.785845],[139.709296,35.786214],[139.709213,35.786537],[139.709156,35.786756],[139.709144,35.786766],[139.709125,35.786763],[139.708589,35.786666],[139.708007,35.786548],[139.707161,35.786397],[139.706807,35.786331],[139.70677,35.786334],[139.706751,35.786353],[139.706675,35.786478],[139.706592,35.78659],[139.706471,35.786714],[139.706305,35.786846],[139.705651,35.787213],[139.705366,35.787386],[139.705007,35.78763],[139.704266,35.78817],[139.704226,35.788159],[139.704266,35.78817],[139.704113,35.788281],[139.703829,35.78847],[139.70375,35.78846],[139.703263,35.788098],[139.702807,35.787755],[139.699937,35.785643],[139.698948,35.784902],[139.69844,35.784561],[139.698313,35.784504],[139.698142,35.784455],[139.697988,35.784425],[139.697834,35.78442],[139.697575,35.784412],[139.696986,35.784408],[139.696181,35.7844],[139.695969,35.784414],[139.695755,35.78446],[139.695364,35.784633],[139.694648,35.784965],[139.693645,35.785426],[139.692828,35.785798],[139.69263,35.785893],[139.692481,35.786007],[139.692332,35.786159],[139.692228,35.786276],[139.692276,35.786348],[139.693255,35.7866],[139.693441,35.78665],[139.695753,35.787225],[139.696175,35.787324],[139.696394,35.787363],[139.696616,35.787369],[139.696678,35.787403],[139.696763,35.787716],[139.696956,35.788373],[139.697043,35.788714],[139.697144,35.789005],[139.697226,35.789303],[139.697398,35.789898],[139.697568,35.790491],[139.697738,35.791084],[139.697783,35.791488],[139.697764,35.791884],[139.697599,35.792515],[139.697414,35.793163],[139.697236,35.793812],[139.697135,35.794202],[139.697069,35.79425],[139.696127,35.794288],[139.695275,35.794123],[139.695194,35.794065],[139.695125,35.792707],[139.695113,35.79258],[139.695011,35.792253],[139.694877,35.791799],[139.694748,35.79138],[139.694683,35.791172],[139.694628,35.790967],[139.694538,35.790899],[139.693562,35.791001],[139.693202,35.791097],[139.692893,35.791254],[139.692323,35.79168],[139.692243,35.791671],[139.692206,35.791482],[139.692112,35.791346],[139.69199,35.791314],[139.691816,35.791339],[139.691687,35.791432],[139.691715,35.79154],[139.691803,35.791643],[139.691877,35.791685],[139.692021,35.791694],[139.692171,35.791759],[139.692293,35.791771],[139.692289,35.791769],[139.692409,35.791706],[139.692574,35.791568],[139.692974,35.791272],[139.693201,35.791165],[139.693444,35.791082],[139.693705,35.791034],[139.693967,35.791009],[139.694228,35.790978],[139.694485,35.790953],[139.694605,35.790864],[139.694595,35.790758],[139.694591,35.790528],[139.694593,35.790314],[139.694591,35.790192],[139.694582,35.790106],[139.694558,35.790025],[139.694552,35.789901],[139.694593,35.78969],[139.694623,35.789323],[139.694738,35.789031],[139.694738,35.788285],[139.694716,35.788002],[139.694702,35.78786],[139.694702,35.787723],[139.694698,35.787685],[139.694691,35.78765],[139.694669,35.787579],[139.694646,35.787443],[139.694614,35.787311],[139.694589,35.787041],[139.694586,35.786773],[139.694525,35.786238],[139.694465,35.785693],[139.694436,35.785396],[139.694406,35.785136],[139.694419,35.785109],[139.694557,35.785049],[139.694751,35.784958],[139.695034,35.78483],[139.695356,35.784687],[139.695547,35.784589],[139.695708,35.784524],[139.695807,35.784489],[139.696026,35.784449],[139.696135,35.784442],[139.696319,35.784441],[139.696616,35.784443],[139.696772,35.78445],[139.697163,35.784453],[139.697883,35.784462],[139.697992,35.784476],[139.6981,35.784496],[139.6983,35.784554],[139.698453,35.784622],[139.698588,35.784704],[139.699742,35.78555],[139.700221,35.785907],[139.70109,35.786541],[139.701595,35.786912],[139.702021,35.787241],[139.702299,35.787439],[139.70257,35.787643],[139.703012,35.787966],[139.703726,35.788492],[139.703885,35.788515],[139.70393,35.788494],[139.704441,35.788113],[139.704887,35.787785],[139.705118,35.787625],[139.705355,35.787457],[139.706255,35.786923],[139.706489,35.786748],[139.706672,35.786557],[139.706769,35.786363],[139.706807,35.786349],[139.706838,35.78635],[139.708452,35.786653],[139.709125,35.786792],[139.70918,35.786751],[139.709311,35.786264],[139.70945,35.785747],[139.709391,35.785707],[139.70712,35.785296],[139.707112,35.785243],[139.707376,35.785033],[139.707537,35.784924],[139.707677,35.784833],[139.707859,35.784737],[139.708026,35.784662],[139.708583,35.784449],[139.708792,35.784301],[139.708944,35.784143],[139.70918,35.783891],[139.709391,35.78367],[139.709634,35.783483],[139.709859,35.783346],[139.710123,35.783233],[139.710224,35.783186],[139.710297,35.783156],[139.710336,35.783161],[139.71045,35.783391],[139.71049,35.783519],[139.71049,35.783662],[139.710443,35.784096],[139.710466,35.78416],[139.710512,35.78419],[139.710571,35.7842],[139.712168,35.784262],[139.712218,35.784238],[139.712239,35.783975],[139.712264,35.783955],[139.712579,35.783972],[139.713367,35.783998],[139.714113,35.784025],[139.714929,35.784025],[139.715089,35.784014],[139.71517,35.78396],[139.715223,35.783888],[139.715365,35.783472],[139.71542,35.78338],[139.715531,35.783281],[139.716008,35.783055],[139.716341,35.782941],[139.716908,35.782634],[139.717187,35.782421],[139.71734,35.78231],[139.717468,35.78218],[139.717865,35.781705],[139.717924,35.781705],[139.718821,35.782295],[139.718984,35.782414],[139.7191,35.782414],[139.719202,35.782372],[139.719413,35.781679],[139.719658,35.780905],[139.719946,35.779922],[139.71998,35.779852],[139.720471,35.779205],[139.720528,35.779136],[139.720529,35.7791],[139.72011,35.778925],[139.720069,35.778894]]},"properties":{"id":"F005:ROT_000004:SHP_004001","feed_id":"F005","feed_slug":"kita-kbus","municipality":"北区","service_name":"Kバス","license":"CC BY 4.0","source_route_id":"ROT_000004","route_short_name":null,"route_long_name":"浮間地域ルート","route_desc":null,"route_type":3,"route_url":null,"route_color":"2C5CAA","route_text_color":"FFFFFF","directions":[],"geometry_source":"shapes.txt"}},{"type":"Feature","id":"F005:ROT_000004:SHP_004002","geometry":{"type":"LineString","coordinates":[[139.72007,35.778892],[139.719756,35.77875],[139.719706,35.778757],[139.719672,35.778804],[139.719375,35.779234],[139.718915,35.779924],[139.718684,35.780318],[139.718123,35.781218],[139.717807,35.781691],[139.71738,35.782223],[139.71723,35.782343],[139.716843,35.782641],[139.716423,35.782869],[139.716022,35.78301],[139.71551,35.783256],[139.715392,35.78337],[139.715321,35.783487],[139.7152,35.783866],[139.71515,35.783945],[139.715066,35.783989],[139.714931,35.783997],[139.714126,35.783994],[139.713363,35.783968],[139.712737,35.783949],[139.712301,35.783937],[139.712244,35.783934],[139.71221,35.783974],[139.712199,35.784133],[139.712168,35.784149],[139.71179,35.784148],[139.711102,35.784123],[139.710954,35.784118]]},"properties":{"id":"F005:ROT_000004:SHP_004002","feed_id":"F005","feed_slug":"kita-kbus","municipality":"北区","service_name":"Kバス","license":"CC BY 4.0","source_route_id":"ROT_000004","route_short_name":null,"route_long_name":"浮間地域ルート","route_desc":null,"route_type":3,"route_url":null,"route_color":"2C5CAA","route_text_color":"FFFFFF","directions":[],"geometry_source":"shapes.txt"}}]}
