{"type":"FeatureCollection","name":"kita-kbus_stops","features":[{"type":"Feature","id":"F005:STP_000001_001","geometry":{"type":"Point","coordinates":[139.736795,35.754541]},"properties":{"id":"F005:STP_000001_001","feed_id":"F005","feed_slug":"kita-kbus","municipality":"北区","service_name":"Kバス","license":"CC BY 4.0","source_stop_id":"STP_000001_001","stop_code":null,"stop_name":"ＪＲ王子駅","stop_desc":null,"zone_id":"ZON_000001_001","location_type":0,"parent_station":null,"wheelchair_boarding":null}},{"type":"Feature","id":"F005:STP_000001_002","geometry":{"type":"Point","coordinates":[139.732674,35.754219]},"properties":{"id":"F005:STP_000001_002","feed_id":"F005","feed_slug":"kita-kbus","municipality":"北区","service_name":"Kバス","license":"CC BY 4.0","source_stop_id":"STP_000001_002","stop_code":null,"stop_name":"王子本町交番","stop_desc":null,"zone_id":"ZON_000001_002","location_type":0,"parent_station":null,"wheelchair_boarding":null}},{"type":"Feature","id":"F005:STP_000001_003","geometry":{"type":"Point","coordinates":[139.73029,35.757168]},"properties":{"id":"F005:STP_000001_003","feed_id":"F005","feed_slug":"kita-kbus","municipality":"北区","service_name":"Kバス","license":"CC BY 4.0","source_stop_id":"STP_000001_003","stop_code":null,"stop_name":"障害者福祉センター","stop_desc":null,"zone_id":"ZON_000001_003","location_type":0,"parent_station":null,"wheelchair_boarding":null}},{"type":"Feature","id":"F005:STP_000001_004","geometry":{"type":"Point","coordinates":[139.729382,35.756672]},"properties":{"id":"F005:STP_000001_004","feed_id":"F005","feed_slug":"kita-kbus","municipality":"北区","service_name":"Kバス","license":"CC BY 4.0","source_stop_id":"STP_000001_004","stop_code":null,"stop_name":"中央図書館","stop_desc":null,"zone_id":"ZON_000001_004","location_type":0,"parent_station":null,"wheelchair_boarding":null}},{"type":"Feature","id":"F005:STP_000001_005","geometry":{"type":"Point","coordinates":[139.729855,35.754216]},"properties":{"id":"F005:STP_000001_005","feed_id":"F005","feed_slug":"kita-kbus","municipality":"北区","service_name":"Kバス","license":"CC BY 4.0","source_stop_id":"STP_000001_005","stop_code":null,"stop_name":"王子アパート","stop_desc":null,"zone_id":"ZON_000001_005","location_type":0,"parent_station":null,"wheelchair_boarding":null}},{"type":"Feature","id":"F005:STP_000001_006","geometry":{"type":"Point","coordinates":[139.731641,35.753438]},"properties":{"id":"F005:STP_000001_006","feed_id":"F005","feed_slug":"kita-kbus","municipality":"北区","service_name":"Kバス","license":"CC BY 4.0","source_stop_id":"STP_000001_006","stop_code":null,"stop_name":"紅葉橋","stop_desc":null,"zone_id":"ZON_000001_006","location_type":0,"parent_station":null,"wheelchair_boarding":null}},{"type":"Feature","id":"F005:STP_000001_007","geometry":{"type":"Point","coordinates":[139.734769,35.753108]},"properties":{"id":"F005:STP_000001_007","feed_id":"F005","feed_slug":"kita-kbus","municipality":"北区","service_name":"Kバス","license":"CC BY 4.0","source_stop_id":"STP_000001_007","stop_code":null,"stop_name":"北区役所","stop_desc":null,"zone_id":"ZON_000001_007","location_type":0,"parent_station":null,"wheelchair_boarding":null}},{"type":"Feature","id":"F005:STP_000001_008","geometry":{"type":"Point","coordinates":[139.738014,35.750191]},"properties":{"id":"F005:STP_000001_008","feed_id":"F005","feed_slug":"kita-kbus","municipality":"北区","service_name":"Kバス","license":"CC BY 4.0","source_stop_id":"STP_000001_008","stop_code":null,"stop_name":"飛鳥山公園","stop_desc":null,"zone_id":"ZON_000001_008","location_type":0,"parent_station":null,"wheelchair_boarding":null}},{"type":"Feature","id":"F005:STP_000001_009","geometry":{"type":"Point","coordinates":[139.740696,35.747625]},"properties":{"id":"F005:STP_000001_009","feed_id":"F005","feed_slug":"kita-kbus","municipality":"北区","service_name":"Kバス","license":"CC BY 4.0","source_stop_id":"STP_000001_009","stop_code":null,"stop_name":"一里塚","stop_desc":null,"zone_id":"ZON_000001_009","location_type":0,"parent_station":null,"wheelchair_boarding":null}},{"type":"Feature","id":"F005:STP_000001_010","geometry":{"type":"Point","coordinates":[139.743097,35.745546]},"properties":{"id":"F005:STP_000001_010","feed_id":"F005","feed_slug":"kita-kbus","municipality":"北区","service_name":"Kバス","license":"CC BY 4.0","source_stop_id":"STP_000001_010","stop_code":null,"stop_name":"花と森の東京病院","stop_desc":null,"zone_id":"ZON_000001_010","location_type":0,"parent_station":null,"wheelchair_boarding":null}},{"type":"Feature","id":"F005:STP_000001_011","geometry":{"type":"Point","coordinates":[139.746459,35.743534]},"properties":{"id":"F005:STP_000001_011","feed_id":"F005","feed_slug":"kita-kbus","municipality":"北区","service_name":"Kバス","license":"CC BY 4.0","source_stop_id":"STP_000001_011","stop_code":null,"stop_name":"旧古河庭園","stop_desc":null,"zone_id":"ZON_000001_011","location_type":0,"parent_station":null,"wheelchair_boarding":null}},{"type":"Feature","id":"F005:STP_000001_012","geometry":{"type":"Point","coordinates":[139.747463,35.741968]},"properties":{"id":"F005:STP_000001_012","feed_id":"F005","feed_slug":"kita-kbus","municipality":"北区","service_name":"Kバス","license":"CC BY 4.0","source_stop_id":"STP_000001_012","stop_code":null,"stop_name":"滝野川小学校","stop_desc":null,"zone_id":"ZON_000001_012","location_type":0,"parent_station":null,"wheelchair_boarding":null}},{"type":"Feature","id":"F005:STP_000001_013","geometry":{"type":"Point","coordinates":[139.746575,35.739159]},"properties":{"id":"F005:STP_000001_013","feed_id":"F005","feed_slug":"kita-kbus","municipality":"北区","service_name":"Kバス","license":"CC BY 4.0","source_stop_id":"STP_000001_013","stop_code":null,"stop_name":"霜降橋","stop_desc":null,"zone_id":"ZON_000001_013","location_type":0,"parent_station":null,"wheelchair_boarding":null}},{"type":"Feature","id":"F005:STP_000001_014","geometry":{"type":"Point","coordinates":[139.747504,35.735969]},"properties":{"id":"F005:STP_000001_014","feed_id":"F005","feed_slug":"kita-kbus","municipality":"北区","service_name":"Kバス","license":"CC BY 4.0","source_stop_id":"STP_000001_014","stop_code":null,"stop_name":"ＪＲ駒込駅","stop_desc":null,"zone_id":"ZON_000001_014","location_type":0,"parent_station":null,"wheelchair_boarding":null}},{"type":"Feature","id":"F005:STP_000001_015","geometry":{"type":"Point","coordinates":[139.74653,35.739499]},"properties":{"id":"F005:STP_000001_015","feed_id":"F005","feed_slug":"kita-kbus","municipality":"北区","service_name":"Kバス","license":"CC BY 4.0","source_stop_id":"STP_000001_015","stop_code":null,"stop_name":"霜降橋","stop_desc":null,"zone_id":"ZON_000001_015","location_type":0,"parent_station":null,"wheelchair_boarding":null}},{"type":"Feature","id":"F005:STP_000001_016","geometry":{"type":"Point","coordinates":[139.747262,35.741365]},"properties":{"id":"F005:STP_000001_016","feed_id":"F005","feed_slug":"kita-kbus","municipality":"北区","service_name":"Kバス","license":"CC BY 4.0","source_stop_id":"STP_000001_016","stop_code":null,"stop_name":"滝野川小学校","stop_desc":null,"zone_id":"ZON_000001_016","location_type":0,"parent_station":null,"wheelchair_boarding":null}},{"type":"Feature","id":"F005:STP_000001_017","geometry":{"type":"Point","coordinates":[139.746542,35.743272]},"properties":{"id":"F005:STP_000001_017","feed_id":"F005","feed_slug":"kita-kbus","municipality":"北区","service_name":"Kバス","license":"CC BY 4.0","source_stop_id":"STP_000001_017","stop_code":null,"stop_name":"旧古河庭園","stop_desc":null,"zone_id":"ZON_000001_017","location_type":0,"parent_station":null,"wheelchair_boarding":null}},{"type":"Feature","id":"F005:STP_000001_018","geometry":{"type":"Point","coordinates":[139.742772,35.745326]},"properties":{"id":"F005:STP_000001_018","feed_id":"F005","feed_slug":"kita-kbus","municipality":"北区","service_name":"Kバス","license":"CC BY 4.0","source_stop_id":"STP_000001_018","stop_code":null,"stop_name":"花と森の東京病院","stop_desc":null,"zone_id":"ZON_000001_018","location_type":0,"parent_station":null,"wheelchair_boarding":null}},{"type":"Feature","id":"F005:STP_000001_019","geometry":{"type":"Point","coordinates":[139.740027,35.747925]},"properties":{"id":"F005:STP_000001_019","feed_id":"F005","feed_slug":"kita-kbus","municipality":"北区","service_name":"Kバス","license":"CC BY 4.0","source_stop_id":"STP_000001_019","stop_code":null,"stop_name":"一里塚","stop_desc":null,"zone_id":"ZON_000001_019","location_type":0,"parent_station":null,"wheelchair_boarding":null}},{"type":"Feature","id":"F005:STP_000001_020","geometry":{"type":"Point","coordinates":[139.737818,35.75009]},"properties":{"id":"F005:STP_000001_020","feed_id":"F005","feed_slug":"kita-kbus","municipality":"北区","service_name":"Kバス","license":"CC BY 4.0","source_stop_id":"STP_000001_020","stop_code":null,"stop_name":"飛鳥山公園","stop_desc":null,"zone_id":"ZON_000001_020","location_type":0,"parent_station":null,"wheelchair_boarding":null}},{"type":"Feature","id":"F005:STP_000002_002","geometry":{"type":"Point","coordinates":[139.751704,35.734991]},"properties":{"id":"F005:STP_000002_002","feed_id":"F005","feed_slug":"kita-kbus","municipality":"北区","service_name":"Kバス","license":"CC BY 4.0","source_stop_id":"STP_000002_002","stop_code":null,"stop_name":"駒込一丁目","stop_desc":null,"zone_id":"ZON_000002_002","location_type":0,"parent_station":null,"wheelchair_boarding":null}},{"type":"Feature","id":"F005:STP_000002_003","geometry":{"type":"Point","coordinates":[139.754135,35.735324]},"properties":{"id":"F005:STP_000002_003","feed_id":"F005","feed_slug":"kita-kbus","municipality":"北区","service_name":"Kバス","license":"CC BY 4.0","source_stop_id":"STP_000002_003","stop_code":null,"stop_name":"田端三丁目","stop_desc":null,"zone_id":"ZON_000002_003","location_type":0,"parent_station":null,"wheelchair_boarding":null}},{"type":"Feature","id":"F005:STP_000002_004","geometry":{"type":"Point","coordinates":[139.756881,35.734274]},"properties":{"id":"F005:STP_000002_004","feed_id":"F005","feed_slug":"kita-kbus","municipality":"北区","service_name":"Kバス","license":"CC BY 4.0","source_stop_id":"STP_000002_004","stop_code":null,"stop_name":"田端区民センター","stop_desc":null,"zone_id":"ZON_000002_004","location_type":0,"parent_station":null,"wheelchair_boarding":null}},{"type":"Feature","id":"F005:STP_000002_005","geometry":{"type":"Point","coordinates":[139.759306,35.735867]},"properties":{"id":"F005:STP_000002_005","feed_id":"F005","feed_slug":"kita-kbus","municipality":"北区","service_name":"Kバス","license":"CC BY 4.0","source_stop_id":"STP_000002_005","stop_code":null,"stop_name":"田端二丁目","stop_desc":null,"zone_id":"ZON_000002_005","location_type":0,"parent_station":null,"wheelchair_boarding":null}},{"type":"Feature","id":"F005:STP_000002_006","geometry":{"type":"Point","coordinates":[139.759635,35.738304]},"properties":{"id":"F005:STP_000002_006","feed_id":"F005","feed_slug":"kita-kbus","municipality":"北区","service_name":"Kバス","license":"CC BY 4.0","source_stop_id":"STP_000002_006","stop_code":null,"stop_name":"ＪＲ田端駅","stop_desc":null,"zone_id":"ZON_000002_006","location_type":0,"parent_station":null,"wheelchair_boarding":null}},{"type":"Feature","id":"F005:STP_000002_007","geometry":{"type":"Point","coordinates":[139.757828,35.738591]},"properties":{"id":"F005:STP_000002_007","feed_id":"F005","feed_slug":"kita-kbus","municipality":"北区","service_name":"Kバス","license":"CC BY 4.0","source_stop_id":"STP_000002_007","stop_code":null,"stop_name":"田端五丁目","stop_desc":null,"zone_id":"ZON_000002_007","location_type":0,"parent_station":null,"wheelchair_boarding":null}},{"type":"Feature","id":"F005:STP_000002_008","geometry":{"type":"Point","coordinates":[139.755587,35.740244]},"properties":{"id":"F005:STP_000002_008","feed_id":"F005","feed_slug":"kita-kbus","municipality":"北区","service_name":"Kバス","license":"CC BY 4.0","source_stop_id":"STP_000002_008","stop_code":null,"stop_name":"富士見橋エコー広場館","stop_desc":null,"zone_id":"ZON_000002_008","location_type":0,"parent_station":null,"wheelchair_boarding":null}},{"type":"Feature","id":"F005:STP_000002_009","geometry":{"type":"Point","coordinates":[139.75261,35.741348]},"properties":{"id":"F005:STP_000002_009","feed_id":"F005","feed_slug":"kita-kbus","municipality":"北区","service_name":"Kバス","license":"CC BY 4.0","source_stop_id":"STP_000002_009","stop_code":null,"stop_name":"中里保育園","stop_desc":null,"zone_id":"ZON_000002_009","location_type":0,"parent_station":null,"wheelchair_boarding":null}},{"type":"Feature","id":"F005:STP_000002_010","geometry":{"type":"Point","coordinates":[139.751478,35.741768]},"properties":{"id":"F005:STP_000002_010","feed_id":"F005","feed_slug":"kita-kbus","municipality":"北区","service_name":"Kバス","license":"CC BY 4.0","source_stop_id":"STP_000002_010","stop_code":null,"stop_name":"女子聖学院","stop_desc":null,"zone_id":"ZON_000002_010","location_type":0,"parent_station":null,"wheelchair_boarding":null}},{"type":"Feature","id":"F005:STP_000002_011","geometry":{"type":"Point","coordinates":[139.747561,35.742946]},"properties":{"id":"F005:STP_000002_011","feed_id":"F005","feed_slug":"kita-kbus","municipality":"北区","service_name":"Kバス","license":"CC BY 4.0","source_stop_id":"STP_000002_011","stop_code":null,"stop_name":"滝野川会館","stop_desc":null,"zone_id":"ZON_000002_011","location_type":0,"parent_station":null,"wheelchair_boarding":null}},{"type":"Feature","id":"F005:STP_000004_001","geometry":{"type":"Point","coordinates":[139.720072,35.778843]},"properties":{"id":"F005:STP_000004_001","feed_id":"F005","feed_slug":"kita-kbus","municipality":"北区","service_name":"Kバス","license":"CC BY 4.0","source_stop_id":"STP_000004_001","stop_code":null,"stop_name":"赤羽駅","stop_desc":null,"zone_id":"ZON_000004_001","location_type":0,"parent_station":null,"wheelchair_boarding":null}},{"type":"Feature","id":"F005:STP_000004_002","geometry":{"type":"Point","coordinates":[139.71868,35.780277]},"properties":{"id":"F005:STP_000004_002","feed_id":"F005","feed_slug":"kita-kbus","municipality":"北区","service_name":"Kバス","license":"CC BY 4.0","source_stop_id":"STP_000004_002","stop_code":null,"stop_name":"赤羽駅西口","stop_desc":null,"zone_id":"ZON_000004_002","location_type":0,"parent_station":null,"wheelchair_boarding":null}},{"type":"Feature","id":"F005:STP_000004_003","geometry":{"type":"Point","coordinates":[139.71724,35.782336]},"properties":{"id":"F005:STP_000004_003","feed_id":"F005","feed_slug":"kita-kbus","municipality":"北区","service_name":"Kバス","license":"CC BY 4.0","source_stop_id":"STP_000004_003","stop_code":null,"stop_name":"赤羽台坂下","stop_desc":null,"zone_id":"ZON_000004_003","location_type":0,"parent_station":null,"wheelchair_boarding":null}},{"type":"Feature","id":"F005:STP_000004_004","geometry":{"type":"Point","coordinates":[139.714121,35.783995]},"properties":{"id":"F005:STP_000004_004","feed_id":"F005","feed_slug":"kita-kbus","municipality":"北区","service_name":"Kバス","license":"CC BY 4.0","source_stop_id":"STP_000004_004","stop_code":null,"stop_name":"師団坂通り","stop_desc":null,"zone_id":"ZON_000004_004","location_type":0,"parent_station":null,"wheelchair_boarding":null}},{"type":"Feature","id":"F005:STP_000004_005","geometry":{"type":"Point","coordinates":[139.710957,35.784087]},"properties":{"id":"F005:STP_000004_005","feed_id":"F005","feed_slug":"kita-kbus","municipality":"北区","service_name":"Kバス","license":"CC BY 4.0","source_stop_id":"STP_000004_005","stop_code":null,"stop_name":"東京北医療センター","stop_desc":null,"zone_id":"ZON_000004_005","location_type":0,"parent_station":null,"wheelchair_boarding":null}},{"type":"Feature","id":"F005:STP_000004_006","geometry":{"type":"Point","coordinates":[139.70919,35.786534]},"properties":{"id":"F005:STP_000004_006","feed_id":"F005","feed_slug":"kita-kbus","municipality":"北区","service_name":"Kバス","license":"CC BY 4.0","source_stop_id":"STP_000004_006","stop_code":null,"stop_name":"北赤羽駅赤羽口","stop_desc":null,"zone_id":"ZON_000004_006","location_type":0,"parent_station":null,"wheelchair_boarding":null}},{"type":"Feature","id":"F005:STP_000004_007","geometry":{"type":"Point","coordinates":[139.704227,35.788158]},"properties":{"id":"F005:STP_000004_007","feed_id":"F005","feed_slug":"kita-kbus","municipality":"北区","service_name":"Kバス","license":"CC BY 4.0","source_stop_id":"STP_000004_007","stop_code":null,"stop_name":"北赤羽駅浮間口","stop_desc":null,"zone_id":"ZON_000004_007","location_type":0,"parent_station":null,"wheelchair_boarding":null}},{"type":"Feature","id":"F005:STP_000004_008","geometry":{"type":"Point","coordinates":[139.70237,35.787419]},"properties":{"id":"F005:STP_000004_008","feed_id":"F005","feed_slug":"kita-kbus","municipality":"北区","service_name":"Kバス","license":"CC BY 4.0","source_stop_id":"STP_000004_008","stop_code":null,"stop_name":"浮間三丁目アパート","stop_desc":null,"zone_id":"ZON_000004_008","location_type":0,"parent_station":null,"wheelchair_boarding":null}},{"type":"Feature","id":"F005:STP_000004_009","geometry":{"type":"Point","coordinates":[139.699827,35.785551]},"properties":{"id":"F005:STP_000004_009","feed_id":"F005","feed_slug":"kita-kbus","municipality":"北区","service_name":"Kバス","license":"CC BY 4.0","source_stop_id":"STP_000004_009","stop_code":null,"stop_name":"浮間小学校","stop_desc":null,"zone_id":"ZON_000004_009","location_type":0,"parent_station":null,"wheelchair_boarding":null}},{"type":"Feature","id":"F005:STP_000004_010","geometry":{"type":"Point","coordinates":[139.697761,35.784403]},"properties":{"id":"F005:STP_000004_010","feed_id":"F005","feed_slug":"kita-kbus","municipality":"北区","service_name":"Kバス","license":"CC BY 4.0","source_stop_id":"STP_000004_010","stop_code":null,"stop_name":"新河岸大橋北","stop_desc":null,"zone_id":"ZON_000004_010","location_type":0,"parent_station":null,"wheelchair_boarding":null}},{"type":"Feature","id":"F005:STP_000004_011","geometry":{"type":"Point","coordinates":[139.695522,35.784548]},"properties":{"id":"F005:STP_000004_011","feed_id":"F005","feed_slug":"kita-kbus","municipality":"北区","service_name":"Kバス","license":"CC BY 4.0","source_stop_id":"STP_000004_011","stop_code":null,"stop_name":"浮間つり堀公園","stop_desc":null,"zone_id":"ZON_000004_011","location_type":0,"parent_station":null,"wheelchair_boarding":null}},{"type":"Feature","id":"F005:STP_000004_012","geometry":{"type":"Point","coordinates":[139.6925,35.785961]},"properties":{"id":"F005:STP_000004_012","feed_id":"F005","feed_slug":"kita-kbus","municipality":"北区","service_name":"Kバス","license":"CC BY 4.0","source_stop_id":"STP_000004_012","stop_code":null,"stop_name":"新河岸橋東","stop_desc":null,"zone_id":"ZON_000004_012","location_type":0,"parent_station":null,"wheelchair_boarding":null}},{"type":"Feature","id":"F005:STP_000004_013","geometry":{"type":"Point","coordinates":[139.693276,35.786623]},"properties":{"id":"F005:STP_000004_013","feed_id":"F005","feed_slug":"kita-kbus","municipality":"北区","service_name":"Kバス","license":"CC BY 4.0","source_stop_id":"STP_000004_013","stop_code":null,"stop_name":"浮間水再生センター南","stop_desc":null,"zone_id":"ZON_000004_013","location_type":0,"parent_station":null,"wheelchair_boarding":null}},{"type":"Feature","id":"F005:STP_000004_014","geometry":{"type":"Point","coordinates":[139.695753,35.787254]},"properties":{"id":"F005:STP_000004_014","feed_id":"F005","feed_slug":"kita-kbus","municipality":"北区","service_name":"Kバス","license":"CC BY 4.0","source_stop_id":"STP_000004_014","stop_code":null,"stop_name":"浮間五丁目交差点","stop_desc":null,"zone_id":"ZON_000004_014","location_type":0,"parent_station":null,"wheelchair_boarding":null}},{"type":"Feature","id":"F005:STP_000004_015","geometry":{"type":"Point","coordinates":[139.697016,35.788711]},"properties":{"id":"F005:STP_000004_015","feed_id":"F005","feed_slug":"kita-kbus","municipality":"北区","service_name":"Kバス","license":"CC BY 4.0","source_stop_id":"STP_000004_015","stop_code":null,"stop_name":"浮間中央通り","stop_desc":null,"zone_id":"ZON_000004_015","location_type":0,"parent_station":null,"wheelchair_boarding":null}},{"type":"Feature","id":"F005:STP_000004_016","geometry":{"type":"Point","coordinates":[139.697717,35.791087]},"properties":{"id":"F005:STP_000004_016","feed_id":"F005","feed_slug":"kita-kbus","municipality":"北区","service_name":"Kバス","license":"CC BY 4.0","source_stop_id":"STP_000004_016","stop_code":null,"stop_name":"浮間四丁目交差点","stop_desc":null,"zone_id":"ZON_000004_016","location_type":0,"parent_station":null,"wheelchair_boarding":null}},{"type":"Feature","id":"F005:STP_000004_017","geometry":{"type":"Point","coordinates":[139.697214,35.793804]},"properties":{"id":"F005:STP_000004_017","feed_id":"F005","feed_slug":"kita-kbus","municipality":"北区","service_name":"Kバス","license":"CC BY 4.0","source_stop_id":"STP_000004_017","stop_code":null,"stop_name":"浮間二丁目","stop_desc":null,"zone_id":"ZON_000004_017","location_type":0,"parent_station":null,"wheelchair_boarding":null}},{"type":"Feature","id":"F005:STP_000004_018","geometry":{"type":"Point","coordinates":[139.695157,35.792917]},"properties":{"id":"F005:STP_000004_018","feed_id":"F005","feed_slug":"kita-kbus","municipality":"北区","service_name":"Kバス","license":"CC BY 4.0","source_stop_id":"STP_000004_018","stop_code":null,"stop_name":"浮間二丁目アパート","stop_desc":null,"zone_id":"ZON_000004_018","location_type":0,"parent_station":null,"wheelchair_boarding":null}},{"type":"Feature","id":"F005:STP_000004_019","geometry":{"type":"Point","coordinates":[139.692509,35.791661]},"properties":{"id":"F005:STP_000004_019","feed_id":"F005","feed_slug":"kita-kbus","municipality":"北区","service_name":"Kバス","license":"CC BY 4.0","source_stop_id":"STP_000004_019","stop_code":null,"stop_name":"浮間舟渡駅","stop_desc":null,"zone_id":"ZON_000004_019","location_type":0,"parent_station":null,"wheelchair_boarding":null}},{"type":"Feature","id":"F005:STP_000004_020","geometry":{"type":"Point","coordinates":[139.694604,35.790315]},"properties":{"id":"F005:STP_000004_020","feed_id":"F005","feed_slug":"kita-kbus","municipality":"北区","service_name":"Kバス","license":"CC BY 4.0","source_stop_id":"STP_000004_020","stop_code":null,"stop_name":"新河岸東公園","stop_desc":null,"zone_id":"ZON_000004_020","location_type":0,"parent_station":null,"wheelchair_boarding":null}},{"type":"Feature","id":"F005:STP_000004_021","geometry":{"type":"Point","coordinates":[139.694666,35.787506]},"properties":{"id":"F005:STP_000004_021","feed_id":"F005","feed_slug":"kita-kbus","municipality":"北区","service_name":"Kバス","license":"CC BY 4.0","source_stop_id":"STP_000004_021","stop_code":null,"stop_name":"浮間水再生センター","stop_desc":null,"zone_id":"ZON_000004_021","location_type":0,"parent_station":null,"wheelchair_boarding":null}},{"type":"Feature","id":"F005:STP_000004_022","geometry":{"type":"Point","coordinates":[139.694702,35.785004]},"properties":{"id":"F005:STP_000004_022","feed_id":"F005","feed_slug":"kita-kbus","municipality":"北区","service_name":"Kバス","license":"CC BY 4.0","source_stop_id":"STP_000004_022","stop_code":null,"stop_name":"浮間つり堀公園","stop_desc":null,"zone_id":"ZON_000004_022","location_type":0,"parent_station":null,"wheelchair_boarding":null}},{"type":"Feature","id":"F005:STP_000004_023","geometry":{"type":"Point","coordinates":[139.697163,35.784475]},"properties":{"id":"F005:STP_000004_023","feed_id":"F005","feed_slug":"kita-kbus","municipality":"北区","service_name":"Kバス","license":"CC BY 4.0","source_stop_id":"STP_000004_023","stop_code":null,"stop_name":"新河岸大橋北","stop_desc":null,"zone_id":"ZON_000004_023","location_type":0,"parent_station":null,"wheelchair_boarding":null}},{"type":"Feature","id":"F005:STP_000004_024","geometry":{"type":"Point","coordinates":[139.700207,35.785918]},"properties":{"id":"F005:STP_000004_024","feed_id":"F005","feed_slug":"kita-kbus","municipality":"北区","service_name":"Kバス","license":"CC BY 4.0","source_stop_id":"STP_000004_024","stop_code":null,"stop_name":"浮間小学校","stop_desc":null,"zone_id":"ZON_000004_024","location_type":0,"parent_station":null,"wheelchair_boarding":null}},{"type":"Feature","id":"F005:STP_000004_025","geometry":{"type":"Point","coordinates":[139.70255,35.787658]},"properties":{"id":"F005:STP_000004_025","feed_id":"F005","feed_slug":"kita-kbus","municipality":"北区","service_name":"Kバス","license":"CC BY 4.0","source_stop_id":"STP_000004_025","stop_code":null,"stop_name":"浮間三丁目アパート","stop_desc":null,"zone_id":"ZON_000004_025","location_type":0,"parent_station":null,"wheelchair_boarding":null}},{"type":"Feature","id":"F005:STP_000004_026","geometry":{"type":"Point","coordinates":[139.704458,35.788112]},"properties":{"id":"F005:STP_000004_026","feed_id":"F005","feed_slug":"kita-kbus","municipality":"北区","service_name":"Kバス","license":"CC BY 4.0","source_stop_id":"STP_000004_026","stop_code":null,"stop_name":"北赤羽駅浮間口","stop_desc":null,"zone_id":"ZON_000004_026","location_type":0,"parent_station":null,"wheelchair_boarding":null}},{"type":"Feature","id":"F005:STP_000004_027","geometry":{"type":"Point","coordinates":[139.708712,35.786719]},"properties":{"id":"F005:STP_000004_027","feed_id":"F005","feed_slug":"kita-kbus","municipality":"北区","service_name":"Kバス","license":"CC BY 4.0","source_stop_id":"STP_000004_027","stop_code":null,"stop_name":"北赤羽駅赤羽口","stop_desc":null,"zone_id":"ZON_000004_027","location_type":0,"parent_station":null,"wheelchair_boarding":null}},{"type":"Feature","id":"F005:STP_000004_028","geometry":{"type":"Point","coordinates":[139.711107,35.7841]},"properties":{"id":"F005:STP_000004_028","feed_id":"F005","feed_slug":"kita-kbus","municipality":"北区","service_name":"Kバス","license":"CC BY 4.0","source_stop_id":"STP_000004_028","stop_code":null,"stop_name":"東京北医療センター","stop_desc":null,"zone_id":"ZON_000004_028","location_type":0,"parent_station":null,"wheelchair_boarding":null}},{"type":"Feature","id":"F005:STP_000004_029","geometry":{"type":"Point","coordinates":[139.713181,35.784003]},"properties":{"id":"F005:STP_000004_029","feed_id":"F005","feed_slug":"kita-kbus","municipality":"北区","service_name":"Kバス","license":"CC BY 4.0","source_stop_id":"STP_000004_029","stop_code":null,"stop_name":"赤羽台高台","stop_desc":null,"zone_id":"ZON_000004_029","location_type":0,"parent_station":null,"wheelchair_boarding":null}},{"type":"Feature","id":"F005:STP_000004_030","geometry":{"type":"Point","coordinates":[139.715251,35.783958]},"properties":{"id":"F005:STP_000004_030","feed_id":"F005","feed_slug":"kita-kbus","municipality":"北区","service_name":"Kバス","license":"CC BY 4.0","source_stop_id":"STP_000004_030","stop_code":null,"stop_name":"師団坂通り","stop_desc":null,"zone_id":"ZON_000004_030","location_type":0,"parent_station":null,"wheelchair_boarding":null}},{"type":"Feature","id":"F005:STP_000004_031","geometry":{"type":"Point","coordinates":[139.717184,35.782435]},"properties":{"id":"F005:STP_000004_031","feed_id":"F005","feed_slug":"kita-kbus","municipality":"北区","service_name":"Kバス","license":"CC BY 4.0","source_stop_id":"STP_000004_031","stop_code":null,"stop_name":"赤羽台坂下","stop_desc":null,"zone_id":"ZON_000004_031","location_type":0,"parent_station":null,"wheelchair_boarding":null}}]}
