{"type":"FeatureCollection","name":"arakawa-sakura_routes","features":[{"type":"Feature","id":"F029:1:1","geometry":{"type":"LineString","coordinates":[[139.798598157569,35.7334960765442],[139.798667898841,35.7335456999559],[139.798743901497,35.7335373083492],[139.798849196844,35.733489540742],[139.798880072923,35.7334495192333],[139.798879281229,35.733398524085],[139.798593875164,35.7329649042288],[139.798260286641,35.7325853435429],[139.798154615685,35.732503719623],[139.79798831944,35.732458022606],[139.797585681254,35.7339239041803],[139.796842343054,35.7364499778087],[139.796792592447,35.7365291230189],[139.796680318566,35.7366103477707],[139.796483855791,35.7366933100984],[139.795644812764,35.7368847028957],[139.795256788165,35.7370078669142],[139.795034636678,35.7370440916255],[139.794083715732,35.7371012214486],[139.792896059134,35.7374981077384],[139.792526583096,35.7368034356251],[139.791364025156,35.7371744823636],[139.791345558923,35.7372995237945],[139.791519328962,35.7376440550652],[139.791715478875,35.7379186067529],[139.792016947348,35.7385799779093],[139.790954565295,35.7388596814119],[139.790724184631,35.7389315928795],[139.790659677826,35.7389713051876],[139.790625449726,35.7390185306352],[139.790575424041,35.7391269345035],[139.790512745062,35.7391877177069],[139.790387168127,35.7392696841516],[139.790276584628,35.73931476298],[139.789844780631,35.7394592298953],[139.790467797885,35.7407781790176],[139.790546912717,35.7408954711064],[139.790646953225,35.7409952824488],[139.790778302381,35.7410913739212],[139.790209843178,35.7417253870431],[139.790009906374,35.7418340547547],[139.789688172173,35.7422491649388],[139.789325486152,35.7425843868663],[139.788377745207,35.7437978715567],[139.788054651767,35.7437500255121],[139.787737606263,35.7437329689306],[139.787296638359,35.7437204941875],[139.786482918486,35.7436232083259],[139.785606031012,35.7435914420653],[139.784713793498,35.7433796100364],[139.783849187111,35.7432786518402],[139.783504695503,35.7432144057153],[139.783259273378,35.7431446527798],[139.782295854989,35.7427281363488],[139.778786612165,35.7400813192389],[139.778115511916,35.7390708059863],[139.778373931875,35.739061494488],[139.778952210149,35.7391598257999],[139.779068781631,35.7391535279866],[139.779281526959,35.7390819455989],[139.779739778401,35.7388664103662],[139.78036574503,35.7386345697646],[139.780834566982,35.7385429523374],[139.781681799006,35.7385833006188],[139.781699574445,35.7378313831006],[139.781808877076,35.7373533827149],[139.781914309154,35.7366066413201],[139.781897215298,35.7363557758982],[139.781886872065,35.7361220555789],[139.781965056984,35.7355641801359],[139.784855014322,35.7347370545537],[139.788326084239,35.735749874519],[139.788602517353,35.7357969110918],[139.789631329632,35.7358204294373],[139.790049585133,35.7357439949736],[139.794135904921,35.7344310197509],[139.795282657567,35.7339215130297],[139.79548216452,35.7338842759631],[139.796595076797,35.733899954728],[139.797690827008,35.7339789228906],[139.798069614143,35.7325733706502],[139.798177744072,35.732643039888],[139.798498901973,35.7330116121321],[139.798460285419,35.7332994232625],[139.798598157569,35.7334960765442]]},"properties":{"id":"F029:1:1","feed_id":"F029","feed_slug":"arakawa-sakura","municipality":"荒川区","service_name":"コミュニティバスさくら","license":"CC BY 4.0","source_route_id":"1","route_short_name":"南千01（毎日）","route_long_name":"さくら南千01系統（毎日）左回り","route_desc":null,"route_type":3,"route_url":null,"route_color":null,"route_text_color":null,"directions":["0"],"geometry_source":"shapes.txt"}},{"type":"Feature","id":"F029:2:2","geometry":{"type":"LineString","coordinates":[[139.798598157569,35.7334960765442],[139.798667898841,35.7335456999559],[139.798743901497,35.7335373083492],[139.798849196844,35.733489540742],[139.798880072923,35.7334495192333],[139.798879281229,35.733398524085],[139.798593875164,35.7329649042288],[139.798260286641,35.7325853435429],[139.798154615685,35.732503719623],[139.79798833413,35.7324580258647],[139.797585681254,35.7339239041803],[139.79656063861,35.7338424123945],[139.795344851569,35.7338310331978],[139.794101078571,35.7343809603086],[139.789959001443,35.7356913017105],[139.789594345306,35.7357512882763],[139.788678272863,35.7357277089439],[139.78834219569,35.7356799450823],[139.784973253604,35.7346987022862],[139.784796118692,35.7346471097232],[139.783139449993,35.7351073661948],[139.781898275634,35.735488838868],[139.781816327887,35.7362714528607],[139.781844272256,35.7365903946496],[139.781743309543,35.7373449541544],[139.781632652414,35.7377746163659],[139.781606753245,35.7385177316939],[139.780823152423,35.7384873022646],[139.780358934607,35.7385785660158],[139.779595116979,35.7388583966419],[139.779349498198,35.7389867754558],[139.779149003947,35.7390691084349],[139.779027187105,35.7390892401349],[139.778903724089,35.7390878980216],[139.778482809787,35.7390119612381],[139.778218713934,35.7390037660367],[139.777437208244,35.7392649694396],[139.778588389101,35.7400032615952],[139.782237899474,35.7427695613702],[139.783103306617,35.7431609350226],[139.78347832206,35.7432653933434],[139.783843962117,35.7433367307332],[139.784784010238,35.7434386970517],[139.78562800484,35.7436449629518],[139.786628642583,35.7436802238926],[139.787293111866,35.7437590434675],[139.787963039749,35.7437855808997],[139.788404545057,35.7438449314587],[139.789377533751,35.7426050373321],[139.789741819608,35.7422560648568],[139.79003799344,35.7418774946997],[139.790235305857,35.7417625519414],[139.790829546118,35.7410804456058],[139.790659274391,35.7409375190936],[139.790529140729,35.7407838176816],[139.789915387678,35.739488371158],[139.790324559116,35.7393509262083],[139.790561390206,35.7392259562853],[139.790639438597,35.7391233291261],[139.790681986907,35.7390253958387],[139.790757061725,35.7389703083537],[139.792089407753,35.7386042913483],[139.791752549393,35.7379016296192],[139.791553235275,35.7376232018051],[139.791380453655,35.7372900960845],[139.791415433671,35.7372163788112],[139.792489873472,35.7368733087186],[139.792841686467,35.7375773715774],[139.794107434811,35.7371543119399],[139.795126058574,35.7370867378364],[139.79569918213,35.7369234361407],[139.796727942353,35.7366916856219],[139.796870798059,35.7365976800753],[139.796970775277,35.7364732403408],[139.797690827008,35.7339789228906],[139.798067443816,35.7325727757188],[139.798177744072,35.732643039888],[139.798498901973,35.7330116121321],[139.798460285419,35.7332994232625],[139.798598157569,35.7334960765442]]},"properties":{"id":"F029:2:2","feed_id":"F029","feed_slug":"arakawa-sakura","municipality":"荒川区","service_name":"コミュニティバスさくら","license":"CC BY 4.0","source_route_id":"2","route_short_name":"南千02（平日）","route_long_name":"さくら南千02系統（平日）右回り","route_desc":null,"route_type":3,"route_url":null,"route_color":null,"route_text_color":null,"directions":["1"],"geometry_source":"shapes.txt"}},{"type":"Feature","id":"F029:3:2","geometry":{"type":"LineString","coordinates":[[139.798598157569,35.7334960765442],[139.798667898841,35.7335456999559],[139.798743901497,35.7335373083492],[139.798849196844,35.733489540742],[139.798880072923,35.7334495192333],[139.798879281229,35.733398524085],[139.798593875164,35.7329649042288],[139.798260286641,35.7325853435429],[139.798154615685,35.732503719623],[139.79798833413,35.7324580258647],[139.797585681254,35.7339239041803],[139.79656063861,35.7338424123945],[139.795344851569,35.7338310331978],[139.794101078571,35.7343809603086],[139.789959001443,35.7356913017105],[139.789594345306,35.7357512882763],[139.788678272863,35.7357277089439],[139.78834219569,35.7356799450823],[139.784973253604,35.7346987022862],[139.784796118692,35.7346471097232],[139.783139449993,35.7351073661948],[139.781898275634,35.735488838868],[139.781816327887,35.7362714528607],[139.781844272256,35.7365903946496],[139.781743309543,35.7373449541544],[139.781632652414,35.7377746163659],[139.781606753245,35.7385177316939],[139.780823152423,35.7384873022646],[139.780358934607,35.7385785660158],[139.779595116979,35.7388583966419],[139.779349498198,35.7389867754558],[139.779149003947,35.7390691084349],[139.779027187105,35.7390892401349],[139.778903724089,35.7390878980216],[139.778482809787,35.7390119612381],[139.778218713934,35.7390037660367],[139.777437208244,35.7392649694396],[139.778588389101,35.7400032615952],[139.782237899474,35.7427695613702],[139.783103306617,35.7431609350226],[139.78347832206,35.7432653933434],[139.783843962117,35.7433367307332],[139.784784010238,35.7434386970517],[139.78562800484,35.7436449629518],[139.786628642583,35.7436802238926],[139.787293111866,35.7437590434675],[139.787963039749,35.7437855808997],[139.788404545057,35.7438449314587],[139.789377533751,35.7426050373321],[139.789741819608,35.7422560648568],[139.79003799344,35.7418774946997],[139.790235305857,35.7417625519414],[139.790829546118,35.7410804456058],[139.790659274391,35.7409375190936],[139.790529140729,35.7407838176816],[139.789915387678,35.739488371158],[139.790324559116,35.7393509262083],[139.790561390206,35.7392259562853],[139.790639438597,35.7391233291261],[139.790681986907,35.7390253958387],[139.790757061725,35.7389703083537],[139.792089407753,35.7386042913483],[139.791752549393,35.7379016296192],[139.791553235275,35.7376232018051],[139.791380453655,35.7372900960845],[139.791415433671,35.7372163788112],[139.792489873472,35.7368733087186],[139.792841686467,35.7375773715774],[139.794107434811,35.7371543119399],[139.795126058574,35.7370867378364],[139.79569918213,35.7369234361407],[139.796727942353,35.7366916856219],[139.796870798059,35.7365976800753],[139.796970775277,35.7364732403408],[139.797690827008,35.7339789228906],[139.798067443816,35.7325727757188],[139.798177744072,35.732643039888],[139.798498901973,35.7330116121321],[139.798460285419,35.7332994232625],[139.798598157569,35.7334960765442]]},"properties":{"id":"F029:3:2","feed_id":"F029","feed_slug":"arakawa-sakura","municipality":"荒川区","service_name":"コミュニティバスさくら","license":"CC BY 4.0","source_route_id":"3","route_short_name":"南千02（土休日）","route_long_name":"さくら南千02系統（土休日）右回り","route_desc":null,"route_type":3,"route_url":null,"route_color":null,"route_text_color":null,"directions":["1"],"geometry_source":"shapes.txt"}},{"type":"Feature","id":"F029:4:3","geometry":{"type":"LineString","coordinates":[[139.798598157569,35.7334960765442],[139.798667898841,35.7335456999559],[139.798743901497,35.7335373083492],[139.798849196844,35.733489540742],[139.798880072923,35.7334495192333],[139.798879281229,35.733398524085],[139.798593875164,35.7329649042288],[139.798260286641,35.7325853435429],[139.798154615685,35.732503719623],[139.79798833413,35.7324580258647],[139.797585681254,35.7339239041803],[139.79656063861,35.7338424123945],[139.795344851569,35.7338310331978],[139.794101078571,35.7343809603086],[139.789959001443,35.7356913017105],[139.789594345306,35.7357512882763],[139.788678272863,35.7357277089439],[139.78834219569,35.7356799450823],[139.784973253604,35.7346987022862],[139.784754890394,35.7351726505346],[139.784754890394,35.7352994830797],[139.784925264521,35.7357282978595],[139.78494123254,35.7359546092734],[139.784895633651,35.7361852976704],[139.784759826139,35.7364329230167],[139.784569692948,35.7367127598486],[139.784354864421,35.7373046448909],[139.784305479168,35.7375361645301],[139.784300515383,35.7406113485929],[139.782902118777,35.7406584172955],[139.782746117558,35.7406191555838],[139.782412755949,35.7406151291752],[139.782133720021,35.740572851846],[139.78167442194,35.7405768782534],[139.78171146649,35.7397927354114],[139.781649733537,35.7392552099554],[139.78168431022,35.7385183772418],[139.781606753245,35.7385177316939],[139.780823152423,35.7384873022646],[139.780358934607,35.7385785660158],[139.779595116979,35.7388583966419],[139.779349498198,35.7389867754558],[139.779149003947,35.7390691084349],[139.779027187105,35.7390892401349],[139.778903724089,35.7390878980216],[139.778482809787,35.7390119612381],[139.778218713934,35.7390037660367],[139.777437208244,35.7392649694396],[139.778588389101,35.7400032615952],[139.782237899474,35.7427695613702],[139.783103306617,35.7431609350226],[139.78347832206,35.7432653933434],[139.783843962117,35.7433367307332],[139.784784010238,35.7434386970517],[139.78562800484,35.7436449629518],[139.786628642583,35.7436802238926],[139.787293111866,35.7437590434675],[139.787963039749,35.7437855808997],[139.788404545057,35.7438449314587],[139.789377533751,35.7426050373321],[139.789741819608,35.7422560648568],[139.79003799344,35.7418774946997],[139.790235305857,35.7417625519414],[139.790829546118,35.7410804456058],[139.790659274391,35.7409375190936],[139.790529140729,35.7407838176816],[139.789915387678,35.739488371158],[139.790324559116,35.7393509262083],[139.790561390206,35.7392259562853],[139.790639438597,35.7391233291261],[139.790681986907,35.7390253958387],[139.790757061725,35.7389703083537],[139.792089407753,35.7386042913483],[139.791752549393,35.7379016296192],[139.791553235275,35.7376232018051],[139.791380453655,35.7372900960845],[139.791415433671,35.7372163788112],[139.792489873472,35.7368733087186],[139.792841686467,35.7375773715774],[139.794107434811,35.7371543119399],[139.795126058574,35.7370867378364],[139.79569918213,35.7369234361407],[139.796727942353,35.7366916856219],[139.796870798059,35.7365976800753],[139.796970775277,35.7364732403408],[139.797690827008,35.7339789228906],[139.798067443816,35.7325727757188],[139.798177744072,35.732643039888],[139.798498901973,35.7330116121321],[139.798460285419,35.7332994232625],[139.798598157569,35.7334960765442]]},"properties":{"id":"F029:4:3","feed_id":"F029","feed_slug":"arakawa-sakura","municipality":"荒川区","service_name":"コミュニティバスさくら","license":"CC BY 4.0","source_route_id":"4","route_short_name":"南千02-1（土休日）","route_long_name":"さくら南千02-1系統（土休日）右回り","route_desc":null,"route_type":3,"route_url":null,"route_color":null,"route_text_color":null,"directions":["1"],"geometry_source":"shapes.txt"}}]}
