{"type":"FeatureCollection","name":"arakawa-sakura_stops","features":[{"type":"Feature","id":"F029:1_0","geometry":{"type":"Point","coordinates":[139.798597452789,35.7334964017327]},"properties":{"id":"F029:1_0","feed_id":"F029","feed_slug":"arakawa-sakura","municipality":"荒川区","service_name":"コミュニティバスさくら","license":"CC BY 4.0","source_stop_id":"1_0","stop_code":null,"stop_name":"南千住駅西口","stop_desc":null,"zone_id":"1_0","location_type":0,"parent_station":null,"wheelchair_boarding":null}},{"type":"Feature","id":"F029:2_1","geometry":{"type":"Point","coordinates":[139.79722815,35.73505091]},"properties":{"id":"F029:2_1","feed_id":"F029","feed_slug":"arakawa-sakura","municipality":"荒川区","service_name":"コミュニティバスさくら","license":"CC BY 4.0","source_stop_id":"2_1","stop_code":null,"stop_name":"コツ通り","stop_desc":null,"zone_id":"2_1","location_type":0,"parent_station":null,"wheelchair_boarding":null}},{"type":"Feature","id":"F029:2_2","geometry":{"type":"Point","coordinates":[139.797248417342,35.7355393475673]},"properties":{"id":"F029:2_2","feed_id":"F029","feed_slug":"arakawa-sakura","municipality":"荒川区","service_name":"コミュニティバスさくら","license":"CC BY 4.0","source_stop_id":"2_2","stop_code":null,"stop_name":"コツ通り","stop_desc":null,"zone_id":"2_2","location_type":0,"parent_station":null,"wheelchair_boarding":null}},{"type":"Feature","id":"F029:3_1","geometry":{"type":"Point","coordinates":[139.79433774857,35.7370683761328]},"properties":{"id":"F029:3_1","feed_id":"F029","feed_slug":"arakawa-sakura","municipality":"荒川区","service_name":"コミュニティバスさくら","license":"CC BY 4.0","source_stop_id":"3_1","stop_code":null,"stop_name":"南千住図書館（荒川ふるさと文化館）","stop_desc":null,"zone_id":"3_1","location_type":0,"parent_station":null,"wheelchair_boarding":null}},{"type":"Feature","id":"F029:3_2","geometry":{"type":"Point","coordinates":[139.795410606917,35.7370280953764]},"properties":{"id":"F029:3_2","feed_id":"F029","feed_slug":"arakawa-sakura","municipality":"荒川区","service_name":"コミュニティバスさくら","license":"CC BY 4.0","source_stop_id":"3_2","stop_code":null,"stop_name":"南千住図書館（荒川ふるさと文化館）","stop_desc":null,"zone_id":"3_2","location_type":0,"parent_station":null,"wheelchair_boarding":null}},{"type":"Feature","id":"F029:4_1","geometry":{"type":"Point","coordinates":[139.791925097402,35.7369704304475]},"properties":{"id":"F029:4_1","feed_id":"F029","feed_slug":"arakawa-sakura","municipality":"荒川区","service_name":"コミュニティバスさくら","license":"CC BY 4.0","source_stop_id":"4_1","stop_code":null,"stop_name":"南千住野球場","stop_desc":null,"zone_id":"4_1","location_type":0,"parent_station":null,"wheelchair_boarding":null}},{"type":"Feature","id":"F029:4_2","geometry":{"type":"Point","coordinates":[139.792077027734,35.7370254696418]},"properties":{"id":"F029:4_2","feed_id":"F029","feed_slug":"arakawa-sakura","municipality":"荒川区","service_name":"コミュニティバスさくら","license":"CC BY 4.0","source_stop_id":"4_2","stop_code":null,"stop_name":"南千住野球場","stop_desc":null,"zone_id":"4_2","location_type":0,"parent_station":null,"wheelchair_boarding":null}},{"type":"Feature","id":"F029:5_1","geometry":{"type":"Point","coordinates":[139.791316860115,35.7387454668749]},"properties":{"id":"F029:5_1","feed_id":"F029","feed_slug":"arakawa-sakura","municipality":"荒川区","service_name":"コミュニティバスさくら","license":"CC BY 4.0","source_stop_id":"5_1","stop_code":null,"stop_name":"グリーンハイム荒川","stop_desc":null,"zone_id":"5_1","location_type":0,"parent_station":null,"wheelchair_boarding":null}},{"type":"Feature","id":"F029:5_2","geometry":{"type":"Point","coordinates":[139.791229852039,35.7388397622078]},"properties":{"id":"F029:5_2","feed_id":"F029","feed_slug":"arakawa-sakura","municipality":"荒川区","service_name":"コミュニティバスさくら","license":"CC BY 4.0","source_stop_id":"5_2","stop_code":null,"stop_name":"グリーンハイム荒川","stop_desc":null,"zone_id":"5_2","location_type":0,"parent_station":null,"wheelchair_boarding":null}},{"type":"Feature","id":"F029:6_1","geometry":{"type":"Point","coordinates":[139.790359351224,35.7405720800271]},"properties":{"id":"F029:6_1","feed_id":"F029","feed_slug":"arakawa-sakura","municipality":"荒川区","service_name":"コミュニティバスさくら","license":"CC BY 4.0","source_stop_id":"6_1","stop_code":null,"stop_name":"アクロシティ","stop_desc":null,"zone_id":"6_1","location_type":0,"parent_station":null,"wheelchair_boarding":null}},{"type":"Feature","id":"F029:6_2","geometry":{"type":"Point","coordinates":[139.790707041869,35.7409457243407]},"properties":{"id":"F029:6_2","feed_id":"F029","feed_slug":"arakawa-sakura","municipality":"荒川区","service_name":"コミュニティバスさくら","license":"CC BY 4.0","source_stop_id":"6_2","stop_code":null,"stop_name":"アクロシティ","stop_desc":null,"zone_id":"6_2","location_type":0,"parent_station":null,"wheelchair_boarding":null}},{"type":"Feature","id":"F029:7_1","geometry":{"type":"Point","coordinates":[139.784963776418,35.7434265684576]},"properties":{"id":"F029:7_1","feed_id":"F029","feed_slug":"arakawa-sakura","municipality":"荒川区","service_name":"コミュニティバスさくら","license":"CC BY 4.0","source_stop_id":"7_1","stop_code":null,"stop_name":"荒川自然公園入口","stop_desc":null,"zone_id":"7_1","location_type":0,"parent_station":null,"wheelchair_boarding":null}},{"type":"Feature","id":"F029:7_2","geometry":{"type":"Point","coordinates":[139.785463255412,35.743620784371]},"properties":{"id":"F029:7_2","feed_id":"F029","feed_slug":"arakawa-sakura","municipality":"荒川区","service_name":"コミュニティバスさくら","license":"CC BY 4.0","source_stop_id":"7_2","stop_code":null,"stop_name":"荒川自然公園入口","stop_desc":null,"zone_id":"7_2","location_type":0,"parent_station":null,"wheelchair_boarding":null}},{"type":"Feature","id":"F029:8_1","geometry":{"type":"Point","coordinates":[139.782363935446,35.742755607649]},"properties":{"id":"F029:8_1","feed_id":"F029","feed_slug":"arakawa-sakura","municipality":"荒川区","service_name":"コミュニティバスさくら","license":"CC BY 4.0","source_stop_id":"8_1","stop_code":null,"stop_name":"町屋駅","stop_desc":null,"zone_id":"8_1","location_type":0,"parent_station":null,"wheelchair_boarding":null}},{"type":"Feature","id":"F029:8_2","geometry":{"type":"Point","coordinates":[139.7814653197,35.7421923004041]},"properties":{"id":"F029:8_2","feed_id":"F029","feed_slug":"arakawa-sakura","municipality":"荒川区","service_name":"コミュニティバスさくら","license":"CC BY 4.0","source_stop_id":"8_2","stop_code":null,"stop_name":"町屋駅","stop_desc":null,"zone_id":"8_2","location_type":0,"parent_station":null,"wheelchair_boarding":null}},{"type":"Feature","id":"F029:9_1","geometry":{"type":"Point","coordinates":[139.780410031292,35.7413034193659]},"properties":{"id":"F029:9_1","feed_id":"F029","feed_slug":"arakawa-sakura","municipality":"荒川区","service_name":"コミュニティバスさくら","license":"CC BY 4.0","source_stop_id":"9_1","stop_code":null,"stop_name":"花の木","stop_desc":null,"zone_id":"9_1","location_type":0,"parent_station":null,"wheelchair_boarding":null}},{"type":"Feature","id":"F029:9_2","geometry":{"type":"Point","coordinates":[139.779815278435,35.7409412053053]},"properties":{"id":"F029:9_2","feed_id":"F029","feed_slug":"arakawa-sakura","municipality":"荒川区","service_name":"コミュニティバスさくら","license":"CC BY 4.0","source_stop_id":"9_2","stop_code":null,"stop_name":"花の木","stop_desc":null,"zone_id":"9_2","location_type":0,"parent_station":null,"wheelchair_boarding":null}},{"type":"Feature","id":"F029:9-1_1","geometry":{"type":"Point","coordinates":[139.778281272045,35.7393374699583]},"properties":{"id":"F029:9-1_1","feed_id":"F029","feed_slug":"arakawa-sakura","municipality":"荒川区","service_name":"コミュニティバスさくら","license":"CC BY 4.0","source_stop_id":"9-1_1","stop_code":null,"stop_name":"子ども家庭支援センター","stop_desc":null,"zone_id":"9-1_1","location_type":0,"parent_station":null,"wheelchair_boarding":null}},{"type":"Feature","id":"F029:9-1_2","geometry":{"type":"Point","coordinates":[139.777873724969,35.739543300421]},"properties":{"id":"F029:9-1_2","feed_id":"F029","feed_slug":"arakawa-sakura","municipality":"荒川区","service_name":"コミュニティバスさくら","license":"CC BY 4.0","source_stop_id":"9-1_2","stop_code":null,"stop_name":"子ども家庭支援センター","stop_desc":null,"zone_id":"9-1_2","location_type":0,"parent_station":null,"wheelchair_boarding":null}},{"type":"Feature","id":"F029:10_1","geometry":{"type":"Point","coordinates":[139.780017488331,35.7387642534861]},"properties":{"id":"F029:10_1","feed_id":"F029","feed_slug":"arakawa-sakura","municipality":"荒川区","service_name":"コミュニティバスさくら","license":"CC BY 4.0","source_stop_id":"10_1","stop_code":null,"stop_name":"荒川四丁目","stop_desc":null,"zone_id":"10_1","location_type":0,"parent_station":null,"wheelchair_boarding":null}},{"type":"Feature","id":"F029:10_2","geometry":{"type":"Point","coordinates":[139.780105965291,35.7386711410492]},"properties":{"id":"F029:10_2","feed_id":"F029","feed_slug":"arakawa-sakura","municipality":"荒川区","service_name":"コミュニティバスさくら","license":"CC BY 4.0","source_stop_id":"10_2","stop_code":null,"stop_name":"荒川四丁目","stop_desc":null,"zone_id":"10_2","location_type":0,"parent_station":null,"wheelchair_boarding":null}},{"type":"Feature","id":"F029:11_1","geometry":{"type":"Point","coordinates":[139.781752645742,35.7376090694201]},"properties":{"id":"F029:11_1","feed_id":"F029","feed_slug":"arakawa-sakura","municipality":"荒川区","service_name":"コミュニティバスさくら","license":"CC BY 4.0","source_stop_id":"11_1","stop_code":null,"stop_name":"荒川中央通り","stop_desc":null,"zone_id":"11_1","location_type":0,"parent_station":null,"wheelchair_boarding":null}},{"type":"Feature","id":"F029:12_1","geometry":{"type":"Point","coordinates":[139.783242867136,35.7352266688836]},"properties":{"id":"F029:12_1","feed_id":"F029","feed_slug":"arakawa-sakura","municipality":"荒川区","service_name":"コミュニティバスさくら","license":"CC BY 4.0","source_stop_id":"12_1","stop_code":null,"stop_name":"荒川区役所","stop_desc":null,"zone_id":"12_1","location_type":0,"parent_station":null,"wheelchair_boarding":null}},{"type":"Feature","id":"F029:12_2","geometry":{"type":"Point","coordinates":[139.784045166894,35.7348223369624]},"properties":{"id":"F029:12_2","feed_id":"F029","feed_slug":"arakawa-sakura","municipality":"荒川区","service_name":"コミュニティバスさくら","license":"CC BY 4.0","source_stop_id":"12_2","stop_code":null,"stop_name":"荒川区役所","stop_desc":null,"zone_id":"12_2","location_type":0,"parent_station":null,"wheelchair_boarding":null}},{"type":"Feature","id":"F029:11-1_2","geometry":{"type":"Point","coordinates":[139.783234404672,35.7406404675988]},"properties":{"id":"F029:11-1_2","feed_id":"F029","feed_slug":"arakawa-sakura","municipality":"荒川区","service_name":"コミュニティバスさくら","license":"CC BY 4.0","source_stop_id":"11-1_2","stop_code":null,"stop_name":"アクロスあらかわ","stop_desc":null,"zone_id":"11-1_2","location_type":0,"parent_station":null,"wheelchair_boarding":null}},{"type":"Feature","id":"F029:12-1_2","geometry":{"type":"Point","coordinates":[139.784290856904,35.7394702008733]},"properties":{"id":"F029:12-1_2","feed_id":"F029","feed_slug":"arakawa-sakura","municipality":"荒川区","service_name":"コミュニティバスさくら","license":"CC BY 4.0","source_stop_id":"12-1_2","stop_code":null,"stop_name":"ゆいの森あらかわ","stop_desc":null,"zone_id":"12-1_2","location_type":0,"parent_station":null,"wheelchair_boarding":null}},{"type":"Feature","id":"F029:13_1","geometry":{"type":"Point","coordinates":[139.787662426804,35.7355542880521]},"properties":{"id":"F029:13_1","feed_id":"F029","feed_slug":"arakawa-sakura","municipality":"荒川区","service_name":"コミュニティバスさくら","license":"CC BY 4.0","source_stop_id":"13_1","stop_code":null,"stop_name":"千住間道西","stop_desc":null,"zone_id":"13_1","location_type":0,"parent_station":null,"wheelchair_boarding":null}},{"type":"Feature","id":"F029:13_2","geometry":{"type":"Point","coordinates":[139.786867305564,35.7352298431289]},"properties":{"id":"F029:13_2","feed_id":"F029","feed_slug":"arakawa-sakura","municipality":"荒川区","service_name":"コミュニティバスさくら","license":"CC BY 4.0","source_stop_id":"13_2","stop_code":null,"stop_name":"千住間道西","stop_desc":null,"zone_id":"13_2","location_type":0,"parent_station":null,"wheelchair_boarding":null}},{"type":"Feature","id":"F029:14_1","geometry":{"type":"Point","coordinates":[139.791018030518,35.7354482622582]},"properties":{"id":"F029:14_1","feed_id":"F029","feed_slug":"arakawa-sakura","municipality":"荒川区","service_name":"コミュニティバスさくら","license":"CC BY 4.0","source_stop_id":"14_1","stop_code":null,"stop_name":"荒川総合スポーツセンター","stop_desc":null,"zone_id":"14_1","location_type":0,"parent_station":null,"wheelchair_boarding":null}},{"type":"Feature","id":"F029:14_2","geometry":{"type":"Point","coordinates":[139.791172117469,35.7352930944091]},"properties":{"id":"F029:14_2","feed_id":"F029","feed_slug":"arakawa-sakura","municipality":"荒川区","service_name":"コミュニティバスさくら","license":"CC BY 4.0","source_stop_id":"14_2","stop_code":null,"stop_name":"荒川総合スポーツセンター","stop_desc":null,"zone_id":"14_2","location_type":0,"parent_station":null,"wheelchair_boarding":null}},{"type":"Feature","id":"F029:14-1_1","geometry":{"type":"Point","coordinates":[139.797114499461,35.7339414593723]},"properties":{"id":"F029:14-1_1","feed_id":"F029","feed_slug":"arakawa-sakura","municipality":"荒川区","service_name":"コミュニティバスさくら","license":"CC BY 4.0","source_stop_id":"14-1_1","stop_code":null,"stop_name":"南千住五丁目","stop_desc":null,"zone_id":"14-1_1","location_type":0,"parent_station":null,"wheelchair_boarding":null}},{"type":"Feature","id":"F029:14-1_2","geometry":{"type":"Point","coordinates":[139.796242313637,35.7338272735753]},"properties":{"id":"F029:14-1_2","feed_id":"F029","feed_slug":"arakawa-sakura","municipality":"荒川区","service_name":"コミュニティバスさくら","license":"CC BY 4.0","source_stop_id":"14-1_2","stop_code":null,"stop_name":"南千住五丁目","stop_desc":null,"zone_id":"14-1_2","location_type":0,"parent_station":null,"wheelchair_boarding":null}}]}
