{"type":"FeatureCollection","name":"chiyoda-kazaguruma_routes","features":[{"type":"Feature","id":"F021:000001:000001","geometry":{"type":"LineString","coordinates":[[139.753241,35.694049],[139.753202,35.694061],[139.753184,35.694067],[139.75317,35.694061],[139.752967,35.693825],[139.752923,35.693804],[139.75287,35.693809],[139.752564,35.693995],[139.752526,35.694005],[139.752431,35.693915],[139.752407,35.693913],[139.752056,35.694126],[139.752046,35.694148],[139.752091,35.694243],[139.752085,35.694255],[139.751757,35.694481],[139.751539,35.694867],[139.751375,35.695264],[139.751332,35.695328],[139.751233,35.69535],[139.750424,35.695247],[139.749363,35.695088],[139.747858,35.694651],[139.74644,35.694263],[139.745319,35.693927],[139.743964,35.693386],[139.74392,35.693348],[139.7439,35.693294],[139.743798,35.692603],[139.743698,35.692052],[139.743543,35.69144],[139.742674,35.689188],[139.742264,35.688157],[139.741901,35.687192],[139.741866,35.687104],[139.741711,35.68577],[139.741673,35.685732],[139.7416,35.685712],[139.740764,35.685786],[139.740233,35.685807],[139.739261,35.685739],[139.739233,35.685725],[139.739222,35.685694],[139.739445,35.684656],[139.739481,35.684622],[139.739536,35.684621],[139.740376,35.684744],[139.740795,35.684786],[139.74144,35.684782],[139.741515,35.684763],[139.741569,35.684692],[139.741532,35.68436],[139.741765,35.683105],[139.741845,35.682738],[139.741894,35.681826],[139.741844,35.681778],[139.741759,35.681763],[139.741317,35.681795],[139.740445,35.682186],[139.740402,35.682207],[139.740344,35.682212],[139.739498,35.682205],[139.739449,35.682189],[139.739428,35.682139],[139.739428,35.68183],[139.739446,35.681799],[139.739503,35.681779],[139.740873,35.681447],[139.741749,35.681235],[139.741812,35.681238],[139.741847,35.681264],[139.741809,35.682168],[139.741772,35.682715],[139.741698,35.683089],[139.741518,35.684001],[139.741449,35.684086],[139.741349,35.684116],[139.740768,35.684128],[139.738777,35.683924],[139.737652,35.683816],[139.737015,35.683809],[139.734996,35.683955],[139.734396,35.684114],[139.733494,35.684584],[139.732943,35.684882],[139.732469,35.685059],[139.731188,35.685521],[139.731041,35.685609],[139.731012,35.685755],[139.731104,35.685987],[139.731086,35.686061],[139.731011,35.686106],[139.729906,35.686537],[139.729851,35.686529],[139.729813,35.686498],[139.729679,35.68597],[139.729714,35.685923],[139.729778,35.685882],[139.731466,35.685644],[139.731626,35.6856],[139.733113,35.685008],[139.734475,35.684273],[139.734842,35.684173],[139.735228,35.684108],[139.736816,35.683992],[139.737464,35.684],[139.737567,35.684027],[139.737593,35.684098],[139.736725,35.686133],[139.736784,35.686214],[139.737694,35.686568],[139.738586,35.686942],[139.738938,35.687066],[139.739291,35.68719],[139.73953,35.68728],[139.739574,35.687266],[139.739579,35.687226],[139.739528,35.687197],[139.739342,35.687131],[139.739284,35.687153],[139.739291,35.68719],[139.73953,35.68728],[139.739976,35.687449],[139.740618,35.687693],[139.740815,35.687776],[139.742199,35.688186],[139.742245,35.688218],[139.743129,35.690515],[139.74346,35.691402],[139.74363,35.692047],[139.743604,35.692087],[139.743559,35.692092],[139.742014,35.691629],[139.739528,35.690893],[139.738479,35.69049],[139.737101,35.689995],[139.735501,35.689417],[139.735406,35.689436],[139.735382,35.689525],[139.735886,35.691078],[139.736005,35.69117],[139.736175,35.691216],[139.737051,35.691445],[139.737993,35.691719],[139.740812,35.69254],[139.740851,35.69257],[139.740843,35.692617],[139.739952,35.694689],[139.739945,35.69482],[139.739992,35.69491],[139.740607,35.695888],[139.741212,35.696535],[139.741522,35.696874],[139.741643,35.696999],[139.741838,35.697309],[139.741899,35.697314],[139.741992,35.697286],[139.742077,35.697129],[139.74212,35.697003],[139.742001,35.69694],[139.741725,35.696916],[139.741649,35.696963],[139.741643,35.696999],[139.741884,35.697381],[139.742186,35.697885],[139.742371,35.698147],[139.742575,35.698353],[139.74301,35.698783],[139.743329,35.699094],[139.743494,35.699367],[139.743745,35.699635],[139.74394,35.699798],[139.744064,35.699928],[139.744153,35.700071],[139.744253,35.700268],[139.744362,35.700552],[139.74452,35.70105],[139.744683,35.701283],[139.744868,35.701444],[139.745142,35.701641],[139.745441,35.701838],[139.745609,35.701904],[139.745782,35.7019],[139.745857,35.701849],[139.7459,35.701837],[139.74594,35.701853],[139.745978,35.7019],[139.746053,35.70192],[139.747717,35.701661],[139.747767,35.701666],[139.747799,35.701687],[139.747887,35.702004],[139.747937,35.702026],[139.748007,35.702021],[139.748338,35.701868],[139.748713,35.701638],[139.74884,35.70154],[139.748986,35.701488],[139.749373,35.701384],[139.749761,35.701339],[139.749938,35.701328],[139.750015,35.701343],[139.750095,35.701366],[139.75041,35.701508],[139.750512,35.701501],[139.750573,35.701449],[139.750609,35.70132],[139.750748,35.701056],[139.750958,35.700673],[139.751218,35.700204],[139.751206,35.700142],[139.751147,35.700113],[139.750076,35.699731],[139.749073,35.699384],[139.749053,35.699343],[139.749056,35.699296],[139.749847,35.698492],[139.750232,35.698055],[139.750561,35.697705],[139.750725,35.697488],[139.75079,35.697384],[139.75107,35.696735],[139.751118,35.696534],[139.751424,35.695569],[139.75153,35.695285],[139.751671,35.694873],[139.7518,35.694566],[139.751986,35.694427],[139.752882,35.693894],[139.752921,35.693884],[139.752962,35.693906],[139.753146,35.694099],[139.753175,35.694104],[139.753202,35.694096],[139.753243,35.694079],[139.753249,35.694064],[139.75324,35.694049]]},"properties":{"id":"F021:000001:000001","feed_id":"F021","feed_slug":"chiyoda-kazaguruma","municipality":"千代田区","service_name":"風ぐるま","license":"CC BY 4.0","source_route_id":"000001","route_short_name":null,"route_long_name":"麹町ルート","route_desc":null,"route_type":3,"route_url":null,"route_color":"FF0000","route_text_color":"FFFFFF","directions":[],"geometry_source":"shapes.txt"}},{"type":"Feature","id":"F021:000002:000002","geometry":{"type":"LineString","coordinates":[[139.753241,35.694049],[139.753184,35.694067],[139.75317,35.694061],[139.752967,35.693825],[139.752923,35.693804],[139.75287,35.693809],[139.752564,35.693995],[139.752526,35.694005],[139.752431,35.693915],[139.752407,35.693913],[139.752056,35.694126],[139.752046,35.694148],[139.752091,35.694243],[139.751752,35.694512],[139.751527,35.694896],[139.751375,35.695274],[139.751364,35.695392],[139.751414,35.695505],[139.752341,35.695664],[139.752367,35.695703],[139.752187,35.696752],[139.751979,35.697943],[139.752024,35.697967],[139.754277,35.697622],[139.754422,35.69758],[139.75455,35.697482],[139.755098,35.696475],[139.755762,35.695235],[139.755804,35.694973],[139.755845,35.694641],[139.755878,35.69419],[139.756002,35.69386],[139.756099,35.693562],[139.756289,35.693123],[139.756354,35.693076],[139.756457,35.693059],[139.757218,35.692961],[139.758657,35.692854],[139.759696,35.692864],[139.761071,35.692914],[139.762093,35.692789],[139.763664,35.692575],[139.764814,35.692455],[139.7657,35.692377],[139.767378,35.692201],[139.767643,35.692186],[139.769333,35.692632],[139.770865,35.693058],[139.772957,35.693642],[139.775007,35.694198],[139.776361,35.69459],[139.777425,35.694848],[139.777492,35.694822],[139.777882,35.693864],[139.777924,35.693852],[139.778771,35.694093],[139.778797,35.694126],[139.778613,35.694555],[139.77838,35.695068],[139.778408,35.695114],[139.778518,35.695167],[139.778708,35.695319],[139.778822,35.695429],[139.778953,35.695468],[139.779921,35.695424],[139.779993,35.695464],[139.780023,35.696463],[139.780066,35.697167],[139.780145,35.697873],[139.780259,35.698618],[139.780231,35.698658],[139.778963,35.698699],[139.775748,35.698777],[139.775693,35.69876],[139.775673,35.698715],[139.775653,35.697615],[139.775612,35.697555],[139.775505,35.697489],[139.775348,35.697464],[139.774012,35.697474],[139.773916,35.69749],[139.773841,35.69755],[139.773826,35.697598],[139.773983,35.69799],[139.774135,35.698478],[139.774143,35.69857],[139.774123,35.698611],[139.774066,35.69863],[139.773759,35.69867],[139.773703,35.698709],[139.773685,35.698761],[139.773729,35.699068],[139.773751,35.69909],[139.773783,35.699098],[139.773935,35.699083],[139.773986,35.699059],[139.774008,35.699012],[139.773982,35.698825],[139.773998,35.698793],[139.774035,35.698777],[139.774153,35.698764],[139.774182,35.698779],[139.774195,35.698809],[139.774294,35.699435],[139.774365,35.700064],[139.77444,35.700699],[139.774441,35.700927],[139.774418,35.701148],[139.774403,35.701648],[139.774349,35.702154],[139.774345,35.70262],[139.774305,35.702669],[139.774238,35.702688],[139.773467,35.702745],[139.772691,35.702825],[139.77193,35.702886],[139.771766,35.702884],[139.771691,35.7029],[139.77164,35.702947],[139.771625,35.703006],[139.771753,35.704003],[139.771796,35.704424],[139.77178,35.704477],[139.771739,35.704497],[139.769971,35.704658],[139.769912,35.704634],[139.769881,35.704594],[139.769858,35.704125],[139.769829,35.703694],[139.769639,35.702899],[139.769424,35.702091],[139.769335,35.701302],[139.769269,35.700361],[139.769237,35.69991],[139.769199,35.699851],[139.769151,35.699815],[139.769045,35.699776],[139.768609,35.6998],[139.768556,35.699795],[139.768514,35.699776],[139.768489,35.699734],[139.768272,35.699153],[139.768233,35.699116],[139.768158,35.699097],[139.768082,35.69911],[139.767598,35.699355],[139.767043,35.699602],[139.766679,35.69971],[139.765837,35.699917],[139.765394,35.700051],[139.763839,35.700586],[139.763791,35.700564],[139.763328,35.699712],[139.762839,35.698797],[139.762739,35.698789],[139.76135,35.699257],[139.759954,35.699755],[139.759924,35.699801],[139.760355,35.700757],[139.760405,35.70078],[139.760658,35.700697],[139.76096,35.700595],[139.763297,35.699777],[139.763328,35.699712],[139.762839,35.698797],[139.762277,35.697768],[139.761755,35.69687],[139.761712,35.696739],[139.76136,35.695587],[139.761222,35.695556],[139.760773,35.695848],[139.760511,35.695964],[139.759048,35.695934],[139.755713,35.695847],[139.753943,35.695734],[139.752375,35.69553],[139.751563,35.695417],[139.75149,35.695358],[139.751497,35.69526],[139.751622,35.694923],[139.751852,35.694504],[139.752338,35.694185],[139.752844,35.693899],[139.752915,35.69389],[139.752981,35.693921],[139.753142,35.694102],[139.753166,35.69411],[139.753189,35.694109],[139.753251,35.694076],[139.753257,35.694066],[139.753237,35.69405]]},"properties":{"id":"F021:000002:000002","feed_id":"F021","feed_slug":"chiyoda-kazaguruma","municipality":"千代田区","service_name":"風ぐるま","license":"CC BY 4.0","source_route_id":"000002","route_short_name":null,"route_long_name":"秋葉原ルート","route_desc":null,"route_type":3,"route_url":null,"route_color":"0080C0","route_text_color":"FFFFFF","directions":[],"geometry_source":"shapes.txt"}},{"type":"Feature","id":"F021:000003:000003","geometry":{"type":"LineString","coordinates":[[139.753241,35.694049],[139.753184,35.694067],[139.75317,35.694061],[139.752967,35.693825],[139.752923,35.693804],[139.75287,35.693809],[139.752564,35.693995],[139.752526,35.694005],[139.752431,35.693915],[139.752407,35.693913],[139.752056,35.694126],[139.752046,35.694148],[139.7521,35.69423],[139.752078,35.694259],[139.751751,35.694469],[139.751624,35.694627],[139.751335,35.695327],[139.751349,35.695411],[139.751406,35.695487],[139.751474,35.695543],[139.751555,35.695582],[139.752274,35.695692],[139.752326,35.695709],[139.752358,35.69575],[139.752353,35.695805],[139.751985,35.697852],[139.752017,35.697921],[139.752083,35.697965],[139.752171,35.697983],[139.753386,35.697792],[139.753444,35.697803],[139.753479,35.697847],[139.753523,35.698132],[139.753528,35.6982],[139.753512,35.698235],[139.753119,35.698959],[139.753121,35.699011],[139.753168,35.699059],[139.753503,35.699146],[139.753588,35.699142],[139.753668,35.699087],[139.754058,35.698424],[139.754082,35.698394],[139.754128,35.698382],[139.754188,35.698396],[139.756303,35.699077],[139.756419,35.699088],[139.756516,35.699065],[139.756601,35.698995],[139.757302,35.697738],[139.758028,35.696486],[139.758118,35.696127],[139.758134,35.696087],[139.7582,35.696037],[139.75827,35.696025],[139.760372,35.696101],[139.760507,35.696103],[139.760659,35.69608],[139.760801,35.696013],[139.761161,35.695761],[139.761225,35.695737],[139.761298,35.695747],[139.761346,35.695792],[139.76156,35.696546],[139.761657,35.69683],[139.761757,35.697001],[139.762186,35.697793],[139.762707,35.698698],[139.76271,35.698749],[139.762685,35.698776],[139.761312,35.69924],[139.760468,35.699531],[139.75996,35.699711],[139.759894,35.699753],[139.759889,35.699815],[139.760298,35.700694],[139.760387,35.700743],[139.760498,35.700744],[139.763221,35.699824],[139.763293,35.699788],[139.763343,35.699731],[139.763353,35.699664],[139.761815,35.69687],[139.761751,35.69677],[139.761704,35.696635],[139.761416,35.69559],[139.761443,35.695533],[139.761525,35.695473],[139.762543,35.694718],[139.762697,35.694612],[139.762887,35.694534],[139.763084,35.694501],[139.764013,35.694431],[139.764688,35.69455],[139.765227,35.69464],[139.765535,35.694731],[139.767331,35.69541],[139.768386,35.69583],[139.768578,35.695871],[139.768642,35.695922],[139.768598,35.696012],[139.768428,35.696296],[139.768403,35.696371],[139.768416,35.696442],[139.768448,35.696493],[139.769169,35.697543],[139.769217,35.697571],[139.7693,35.697563],[139.769374,35.6975],[139.769489,35.697391],[139.769537,35.697313],[139.769824,35.696551],[139.76986,35.696523],[139.769946,35.696519],[139.770582,35.69672],[139.770741,35.69671],[139.770806,35.696735],[139.771138,35.697574],[139.771108,35.697626],[139.770184,35.698075],[139.769249,35.69855],[139.769121,35.698578],[139.769002,35.698523],[139.768788,35.698196],[139.768681,35.698045],[139.768246,35.697449],[139.76791,35.696983],[139.767727,35.696736],[139.767621,35.696461],[139.767497,35.696116],[139.76748,35.695959],[139.767491,35.694459],[139.767493,35.693386],[139.767475,35.692255],[139.767522,35.692203],[139.767652,35.692201],[139.769079,35.692584],[139.772912,35.693634],[139.775951,35.694476],[139.777408,35.694845],[139.777485,35.694827],[139.77788,35.693877],[139.777937,35.693856],[139.778773,35.694103],[139.778799,35.694129],[139.778391,35.695054],[139.77841,35.695101],[139.778538,35.695128],[139.778588,35.695108],[139.778712,35.695133],[139.778765,35.695109],[139.779196,35.69419],[139.779337,35.694005],[139.779338,35.693929],[139.778883,35.693529],[139.778142,35.692985],[139.776308,35.692223],[139.774744,35.691642],[139.772274,35.690924],[139.770092,35.690311],[139.769972,35.690286],[139.769881,35.690235],[139.768637,35.689344],[139.7685,35.689325],[139.768338,35.68932],[139.764983,35.689791],[139.763551,35.690305],[139.762488,35.690493],[139.762028,35.690654],[139.761931,35.690736],[139.761434,35.691219],[139.761256,35.691377],[139.761052,35.691493],[139.760935,35.691607],[139.760897,35.691768],[139.761084,35.693744],[139.761051,35.693799],[139.760999,35.69382],[139.758718,35.693815],[139.758576,35.693819],[139.758487,35.693861],[139.758445,35.693904],[139.758062,35.695777],[139.758004,35.695842],[139.757915,35.695861],[139.75567,35.695824],[139.75421,35.695741],[139.753204,35.695628],[139.752481,35.695518],[139.751618,35.695398],[139.751534,35.695363],[139.751512,35.695293],[139.751768,35.694661],[139.751815,35.694554],[139.75192,35.694464],[139.75285,35.6939],[139.752926,35.693892],[139.752984,35.693925],[139.75311,35.694072],[139.753147,35.694102],[139.753187,35.69412],[139.753235,35.694114],[139.753269,35.694098],[139.753277,35.694083],[139.753237,35.694052]]},"properties":{"id":"F021:000003:000003","feed_id":"F021","feed_slug":"chiyoda-kazaguruma","municipality":"千代田区","service_name":"風ぐるま","license":"CC BY 4.0","source_route_id":"000003","route_short_name":null,"route_long_name":"内神田ルート","route_desc":null,"route_type":3,"route_url":null,"route_color":"F18300","route_text_color":"FFFFFF","directions":[],"geometry_source":"shapes.txt"}},{"type":"Feature","id":"F021:000004:000004","geometry":{"type":"LineString","coordinates":[[139.753241,35.694049],[139.753202,35.694061],[139.753184,35.694067],[139.75317,35.694061],[139.752967,35.693825],[139.752923,35.693804],[139.75287,35.693809],[139.752564,35.693995],[139.752526,35.694005],[139.752431,35.693915],[139.752407,35.693913],[139.752056,35.694126],[139.752046,35.694148],[139.752091,35.694243],[139.75172,35.694577],[139.751447,35.695165],[139.751161,35.696109],[139.750807,35.697145],[139.750537,35.697627],[139.750357,35.697846],[139.749995,35.698207],[139.74932,35.698904],[139.749278,35.698912],[139.749178,35.698885],[139.748482,35.69905],[139.747387,35.69935],[139.746793,35.699548],[139.746444,35.69959],[139.746394,35.699594],[139.745786,35.699562],[139.745749,35.69954],[139.74574,35.699499],[139.745827,35.699137],[139.745846,35.69911],[139.74589,35.699102],[139.745929,35.699112],[139.746444,35.69952],[139.746477,35.699544],[139.746469,35.699578],[139.746444,35.69959],[139.746394,35.699594],[139.745785,35.699562],[139.745727,35.699588],[139.7457,35.69986],[139.745724,35.700119],[139.745915,35.700623],[139.746091,35.70094],[139.746379,35.701289],[139.746404,35.701327],[139.746396,35.701368],[139.746367,35.701393],[139.745651,35.701821],[139.745611,35.701845],[139.74557,35.701847],[139.745534,35.701837],[139.745262,35.701659],[139.745063,35.701529],[139.744935,35.701441],[139.744765,35.701293],[139.744605,35.701116],[139.744557,35.70104],[139.744463,35.700767],[139.744291,35.700299],[139.744103,35.69991],[139.743783,35.699616],[139.743543,35.69938],[139.743293,35.699018],[139.742724,35.698476],[139.74229,35.698044],[139.741999,35.697543],[139.741887,35.697352],[139.741899,35.697318],[139.742033,35.697237],[139.742085,35.696996],[139.741784,35.696925],[139.741666,35.696956],[139.741605,35.696942],[139.740784,35.696046],[139.740532,35.695729],[139.74034,35.695423],[139.739999,35.694889],[139.739959,35.694839],[139.739944,35.694737],[139.74004,35.694538],[139.740299,35.693923],[139.740459,35.693546],[139.740598,35.69322],[139.740945,35.692417],[139.741326,35.69146],[139.741312,35.69142],[139.739518,35.690887],[139.738267,35.690408],[139.736757,35.689863],[139.735767,35.689516],[139.735487,35.689419],[139.735439,35.689391],[139.735426,35.689329],[139.736233,35.687384],[139.736732,35.686251],[139.736766,35.686219],[139.736826,35.686222],[139.738435,35.686885],[139.738938,35.687066],[139.739291,35.68719],[139.73953,35.68728],[139.739574,35.687266],[139.739579,35.687226],[139.739528,35.687197],[139.739342,35.687131],[139.739284,35.687153],[139.739291,35.68719],[139.73953,35.68728],[139.739976,35.687449],[139.740706,35.687718],[139.74081,35.68779],[139.742125,35.688185],[139.742192,35.688217],[139.74223,35.688285],[139.742876,35.689875],[139.74344,35.691357],[139.74358,35.691892],[139.743671,35.69237],[139.743839,35.693303],[139.743873,35.693406],[139.743944,35.693497],[139.744022,35.693553],[139.745151,35.694016],[139.745207,35.694049],[139.745228,35.694089],[139.74497,35.694845],[139.744921,35.694876],[139.744857,35.694863],[139.744204,35.694676],[139.744141,35.694684],[139.744098,35.694718],[139.743791,35.695739],[139.743807,35.6958],[139.743866,35.695845],[139.744931,35.696099],[139.745022,35.696079],[139.745924,35.696268],[139.746593,35.696408],[139.747076,35.696531],[139.747223,35.696538],[139.747366,35.6965],[139.74825,35.695763],[139.748385,35.69565],[139.748617,35.695547],[139.748746,35.695438],[139.748846,35.695199],[139.748902,35.695143],[139.749005,35.695123],[139.749571,35.695259],[139.750755,35.695443],[139.751717,35.695598],[139.752278,35.695678],[139.752339,35.695703],[139.752358,35.69576],[139.752148,35.696894],[139.751972,35.697865],[139.752016,35.697949],[139.75211,35.697997],[139.7534,35.697795],[139.753439,35.697803],[139.753458,35.69784],[139.753519,35.698118],[139.753514,35.698241],[139.753125,35.698941],[139.75312,35.699008],[139.753167,35.699061],[139.753452,35.699145],[139.753575,35.69915],[139.753681,35.699074],[139.754035,35.698402],[139.754081,35.69837],[139.754141,35.698376],[139.755333,35.698768],[139.756401,35.699097],[139.756538,35.699035],[139.756799,35.698579],[139.757099,35.698034],[139.757391,35.697526],[139.757969,35.696586],[139.758123,35.696114],[139.758169,35.696056],[139.758252,35.696028],[139.760162,35.696091],[139.760523,35.696095],[139.760737,35.696058],[139.761148,35.695766],[139.761201,35.695742],[139.761274,35.69574],[139.76133,35.695773],[139.761439,35.696157],[139.761563,35.696575],[139.761758,35.696996],[139.761979,35.6974],[139.7622,35.697804],[139.762498,35.698346],[139.762701,35.698693],[139.762704,35.698741],[139.762676,35.698767],[139.761261,35.699257],[139.759942,35.699711],[139.759888,35.699745],[139.759884,35.699811],[139.760297,35.700722],[139.760342,35.700759],[139.760426,35.700769],[139.763301,35.699794],[139.763336,35.699804],[139.763776,35.700601],[139.763767,35.700648],[139.763253,35.700838],[139.762607,35.701544],[139.762008,35.701796],[139.761093,35.701939],[139.759938,35.701978],[139.759228,35.70198],[139.758042,35.701947],[139.757395,35.70195],[139.756856,35.702008],[139.756458,35.702097],[139.755757,35.702269],[139.755573,35.702275],[139.755512,35.702251],[139.75539,35.701884],[139.755354,35.701646],[139.755475,35.701201],[139.755594,35.700811],[139.756414,35.699275],[139.756538,35.699035],[139.756799,35.698579],[139.756728,35.698501],[139.754603,35.697635],[139.754551,35.697592],[139.754532,35.697519],[139.755129,35.696425],[139.755304,35.69611],[139.75534,35.696015],[139.755306,35.695896],[139.755166,35.695816],[139.753993,35.69573],[139.751624,35.695413],[139.751518,35.695362],[139.751518,35.695259],[139.751805,35.694567],[139.751893,35.694474],[139.752087,35.694346],[139.752865,35.693906],[139.752927,35.693898],[139.752978,35.693924],[139.753129,35.694095],[139.753153,35.694112],[139.753183,35.694111],[139.753247,35.694084],[139.753255,35.694072],[139.753242,35.69405]]},"properties":{"id":"F021:000004:000004","feed_id":"F021","feed_slug":"chiyoda-kazaguruma","municipality":"千代田区","service_name":"風ぐるま","license":"CC BY 4.0","source_route_id":"000004","route_short_name":null,"route_long_name":"富士見・神保町ルート","route_desc":null,"route_type":3,"route_url":null,"route_color":"009950","route_text_color":"FFFFFF","directions":[],"geometry_source":"shapes.txt"}},{"type":"Feature","id":"F021:000005:000005","geometry":{"type":"LineString","coordinates":[[139.753241,35.694049],[139.753202,35.694061],[139.753184,35.694067],[139.75317,35.694061],[139.752967,35.693825],[139.752923,35.693804],[139.75287,35.693809],[139.752564,35.693995],[139.752526,35.694005],[139.752431,35.693915],[139.752407,35.693913],[139.752056,35.694126],[139.752046,35.694148],[139.752091,35.694243],[139.751723,35.694534],[139.751528,35.694862],[139.751337,35.695282],[139.751292,35.695328],[139.751195,35.695356],[139.749243,35.695084],[139.747145,35.694465],[139.746252,35.694216],[139.745227,35.693935],[139.743996,35.693392],[139.743926,35.693331],[139.74379,35.692583],[139.743586,35.691597],[139.743108,35.690324],[139.742497,35.688858],[139.741882,35.687147],[139.741861,35.686988],[139.741636,35.685262],[139.741531,35.684423],[139.741507,35.684236],[139.741375,35.684137],[139.740895,35.684165],[139.740162,35.684108],[139.739487,35.68405],[139.738108,35.683898],[139.737202,35.683859],[139.735882,35.683911],[139.734831,35.684024],[139.73445,35.684129],[139.733302,35.684734],[139.733109,35.684852],[139.731091,35.685607],[139.731022,35.685693],[139.731018,35.685778],[139.731128,35.686015],[139.731073,35.686108],[139.729878,35.686583],[139.729808,35.686528],[139.729664,35.686028],[139.729695,35.685924],[139.730887,35.685722],[139.731203,35.685644],[139.73175,35.68546],[139.733005,35.685029],[139.733515,35.684772],[139.734459,35.68428],[139.734791,35.684158],[139.735961,35.684014],[139.737044,35.683957],[139.73808,35.684014],[139.739305,35.684129],[139.740883,35.684286],[139.741373,35.684281],[139.741472,35.684353],[139.741571,35.685491],[139.741727,35.687094],[139.742177,35.688192],[139.743122,35.690509],[139.743534,35.691715],[139.74369,35.692495],[139.743855,35.693344],[139.743936,35.693502],[139.745151,35.694001],[139.74517,35.694155],[139.744939,35.694777],[139.744795,35.694864],[139.744255,35.694702],[139.744132,35.694729],[139.743794,35.695785],[139.74384,35.695846],[139.744888,35.696121],[139.745026,35.696102],[139.745047,35.696098],[139.745331,35.696145],[139.745753,35.696226],[139.746356,35.696348],[139.747204,35.696579],[139.747359,35.696548],[139.747654,35.696313],[139.748561,35.696405],[139.748776,35.696413],[139.749457,35.696487],[139.750423,35.696601],[139.750852,35.696679],[139.751069,35.696617],[139.75131,35.695838],[139.751554,35.695206],[139.751876,35.694581],[139.75222,35.694334],[139.752869,35.693959],[139.752965,35.69395],[139.753094,35.694074],[139.753177,35.69411],[139.75327,35.694101],[139.753283,35.694082],[139.753263,35.694061],[139.753237,35.69406],[139.753206,35.694067]]},"properties":{"id":"F021:000005:000005","feed_id":"F021","feed_slug":"chiyoda-kazaguruma","municipality":"千代田区","service_name":"風ぐるま","license":"CC BY 4.0","source_route_id":"000005","route_short_name":null,"route_long_name":"四谷ルート","route_desc":null,"route_type":3,"route_url":null,"route_color":"731485","route_text_color":"FFFFFF","directions":[],"geometry_source":"shapes.txt"}},{"type":"Feature","id":"F021:000006:000006","geometry":{"type":"LineString","coordinates":[[139.753241,35.694049],[139.753187,35.694087],[139.753156,35.694078],[139.753017,35.693891],[139.753025,35.693813],[139.753308,35.693639],[139.754265,35.693285],[139.755239,35.692893],[139.755427,35.692813],[139.75551,35.692721],[139.755866,35.692132],[139.755912,35.692106],[139.756136,35.691971],[139.756152,35.691944],[139.756112,35.691613],[139.756147,35.69145],[139.756289,35.691157],[139.756384,35.690911],[139.756534,35.690827],[139.756728,35.690776],[139.75707,35.690731],[139.758063,35.690589],[139.758615,35.690481],[139.758771,35.690567],[139.758816,35.690952],[139.758913,35.692006],[139.758748,35.692749],[139.75885,35.692871],[139.759465,35.692909],[139.760993,35.69296],[139.761193,35.692956],[139.762764,35.692735],[139.765511,35.692438],[139.76741,35.692255],[139.76771,35.692247],[139.770918,35.693135],[139.770995,35.693283],[139.77059,35.694313],[139.770227,35.695259],[139.770222,35.695389],[139.770262,35.695546],[139.771099,35.697589],[139.771264,35.697647],[139.771404,35.697604],[139.771828,35.697595],[139.773807,35.697593],[139.773869,35.697628],[139.774065,35.698282],[139.774152,35.698623],[139.77412,35.698642],[139.773761,35.698685],[139.773731,35.698701],[139.773719,35.698733],[139.77375,35.699034],[139.773783,35.699064],[139.773841,35.69908],[139.773942,35.699067],[139.773975,35.699046],[139.773986,35.699016],[139.773982,35.69885],[139.774001,35.698797],[139.774041,35.69877],[139.774156,35.698752],[139.774205,35.698807],[139.774287,35.699407],[139.774412,35.699465],[139.775477,35.699415],[139.775656,35.699304],[139.775656,35.698859],[139.775631,35.698783],[139.775629,35.698149],[139.775617,35.697615],[139.775569,35.697559],[139.775489,35.697524],[139.775315,35.697472],[139.774821,35.69748],[139.773996,35.697493],[139.772359,35.697527],[139.771404,35.697536],[139.77127,35.697536],[139.771217,35.697501],[139.771162,35.697385],[139.770879,35.696726],[139.770396,35.695541],[139.770364,35.695419],[139.770353,35.695301],[139.77068,35.694452],[139.771201,35.693158],[139.773348,35.687927],[139.773459,35.687573],[139.773403,35.687492],[139.772166,35.687063],[139.772094,35.687107],[139.771479,35.688615],[139.770996,35.689787],[139.770677,35.690486],[139.770623,35.690498],[139.769944,35.690295],[139.768673,35.689411],[139.768512,35.689368],[139.768266,35.689381],[139.766335,35.689634],[139.765047,35.689817],[139.76487,35.689852],[139.76413,35.690214],[139.763213,35.690401],[139.762247,35.690623],[139.762006,35.690706],[139.761346,35.691329],[139.761085,35.691531],[139.760841,35.691613],[139.760581,35.691633],[139.759093,35.691568],[139.758983,35.691509],[139.758908,35.69054],[139.758634,35.690323],[139.75803,35.690424],[139.756947,35.690553],[139.756445,35.690636],[139.756362,35.690682],[139.75617,35.691066],[139.756042,35.691473],[139.755975,35.691506],[139.755909,35.691764],[139.755836,35.691911],[139.755396,35.692677],[139.755274,35.692764],[139.754944,35.692909],[139.754868,35.692982],[139.753877,35.693351],[139.753259,35.693589],[139.752957,35.693744],[139.752917,35.693857],[139.753146,35.694098],[139.7532,35.694131],[139.753222,35.694125],[139.753265,35.694094],[139.753275,35.694075],[139.753256,35.69405],[139.753241,35.694049]]},"properties":{"id":"F021:000006:000006","feed_id":"F021","feed_slug":"chiyoda-kazaguruma","municipality":"千代田区","service_name":"風ぐるま","license":"CC BY 4.0","source_route_id":"000006","route_short_name":null,"route_long_name":"神田ルート","route_desc":null,"route_type":3,"route_url":null,"route_color":"E74388","route_text_color":"FFFFFF","directions":[],"geometry_source":"shapes.txt"}}]}
