{"type":"FeatureCollection","name":"chiyoda-kazaguruma_stops","features":[{"type":"Feature","id":"F021:STP_000001_001","geometry":{"type":"Point","coordinates":[139.753241,35.694049]},"properties":{"id":"F021:STP_000001_001","feed_id":"F021","feed_slug":"chiyoda-kazaguruma","municipality":"千代田区","service_name":"風ぐるま","license":"CC BY 4.0","source_stop_id":"STP_000001_001","stop_code":null,"stop_name":"千代田区役所","stop_desc":null,"zone_id":"000001_001","location_type":0,"parent_station":null,"wheelchair_boarding":null}},{"type":"Feature","id":"F021:STP_000001_002","geometry":{"type":"Point","coordinates":[139.752067,35.694076]},"properties":{"id":"F021:STP_000001_002","feed_id":"F021","feed_slug":"chiyoda-kazaguruma","municipality":"千代田区","service_name":"風ぐるま","license":"CC BY 4.0","source_stop_id":"STP_000001_002","stop_code":null,"stop_name":"かがやきプラザ（九段坂病院）","stop_desc":null,"zone_id":"000001_002","location_type":0,"parent_station":null,"wheelchair_boarding":null}},{"type":"Feature","id":"F021:STP_000001_003","geometry":{"type":"Point","coordinates":[139.745747,35.694005]},"properties":{"id":"F021:STP_000001_003","feed_id":"F021","feed_slug":"chiyoda-kazaguruma","municipality":"千代田区","service_name":"風ぐるま","license":"CC BY 4.0","source_stop_id":"STP_000001_003","stop_code":null,"stop_name":"九段上","stop_desc":null,"zone_id":"000001_003","location_type":0,"parent_station":null,"wheelchair_boarding":null}},{"type":"Feature","id":"F021:STP_000001_004","geometry":{"type":"Point","coordinates":[139.743839,35.692685]},"properties":{"id":"F021:STP_000001_004","feed_id":"F021","feed_slug":"chiyoda-kazaguruma","municipality":"千代田区","service_name":"風ぐるま","license":"CC BY 4.0","source_stop_id":"STP_000001_004","stop_code":null,"stop_name":"九段さくら館","stop_desc":null,"zone_id":"000001_004","location_type":0,"parent_station":null,"wheelchair_boarding":null}},{"type":"Feature","id":"F021:STP_000001_005","geometry":{"type":"Point","coordinates":[139.742435,35.688581]},"properties":{"id":"F021:STP_000001_005","feed_id":"F021","feed_slug":"chiyoda-kazaguruma","municipality":"千代田区","service_name":"風ぐるま","license":"CC BY 4.0","source_stop_id":"STP_000001_005","stop_code":null,"stop_name":"五味坂交番","stop_desc":null,"zone_id":"000001_005","location_type":0,"parent_station":null,"wheelchair_boarding":null}},{"type":"Feature","id":"F021:STP_000001_006","geometry":{"type":"Point","coordinates":[139.742092,35.687652]},"properties":{"id":"F021:STP_000001_006","feed_id":"F021","feed_slug":"chiyoda-kazaguruma","municipality":"千代田区","service_name":"風ぐるま","license":"CC BY 4.0","source_stop_id":"STP_000001_006","stop_code":null,"stop_name":"一番町交差点","stop_desc":null,"zone_id":"000001_006","location_type":0,"parent_station":null,"wheelchair_boarding":null}},{"type":"Feature","id":"F021:STP_000001_007","geometry":{"type":"Point","coordinates":[139.741782,35.686142]},"properties":{"id":"F021:STP_000001_007","feed_id":"F021","feed_slug":"chiyoda-kazaguruma","municipality":"千代田区","service_name":"風ぐるま","license":"CC BY 4.0","source_stop_id":"STP_000001_007","stop_code":null,"stop_name":"ジロール麹町入口（半蔵門駅）","stop_desc":null,"zone_id":"000001_007","location_type":0,"parent_station":null,"wheelchair_boarding":null}},{"type":"Feature","id":"F021:STP_000001_008","geometry":{"type":"Point","coordinates":[139.739865,35.68577]},"properties":{"id":"F021:STP_000001_008","feed_id":"F021","feed_slug":"chiyoda-kazaguruma","municipality":"千代田区","service_name":"風ぐるま","license":"CC BY 4.0","source_stop_id":"STP_000001_008","stop_code":null,"stop_name":"麹町出張所","stop_desc":null,"zone_id":"000001_008","location_type":0,"parent_station":null,"wheelchair_boarding":null}},{"type":"Feature","id":"F021:STP_000001_009","geometry":{"type":"Point","coordinates":[139.741906,35.681963]},"properties":{"id":"F021:STP_000001_009","feed_id":"F021","feed_slug":"chiyoda-kazaguruma","municipality":"千代田区","service_name":"風ぐるま","license":"CC BY 4.0","source_stop_id":"STP_000001_009","stop_code":null,"stop_name":"平河天満宮前","stop_desc":null,"zone_id":"000001_009","location_type":0,"parent_station":null,"wheelchair_boarding":null}},{"type":"Feature","id":"F021:STP_000001_010","geometry":{"type":"Point","coordinates":[139.740513,35.684066]},"properties":{"id":"F021:STP_000001_010","feed_id":"F021","feed_slug":"chiyoda-kazaguruma","municipality":"千代田区","service_name":"風ぐるま","license":"CC BY 4.0","source_stop_id":"STP_000001_010","stop_code":null,"stop_name":"麹町二丁目","stop_desc":null,"zone_id":"000001_010","location_type":0,"parent_station":null,"wheelchair_boarding":null}},{"type":"Feature","id":"F021:STP_000001_011","geometry":{"type":"Point","coordinates":[139.73881,35.683878]},"properties":{"id":"F021:STP_000001_011","feed_id":"F021","feed_slug":"chiyoda-kazaguruma","municipality":"千代田区","service_name":"風ぐるま","license":"CC BY 4.0","source_stop_id":"STP_000001_011","stop_code":null,"stop_name":"麹町四丁目","stop_desc":null,"zone_id":"000001_011","location_type":0,"parent_station":null,"wheelchair_boarding":null}},{"type":"Feature","id":"F021:STP_000001_012","geometry":{"type":"Point","coordinates":[139.733553,35.684509]},"properties":{"id":"F021:STP_000001_012","feed_id":"F021","feed_slug":"chiyoda-kazaguruma","municipality":"千代田区","service_name":"風ぐるま","license":"CC BY 4.0","source_stop_id":"STP_000001_012","stop_code":null,"stop_name":"麹町五丁目","stop_desc":null,"zone_id":"000001_012","location_type":0,"parent_station":null,"wheelchair_boarding":null}},{"type":"Feature","id":"F021:STP_000001_013","geometry":{"type":"Point","coordinates":[139.731687,35.685585]},"properties":{"id":"F021:STP_000001_013","feed_id":"F021","feed_slug":"chiyoda-kazaguruma","municipality":"千代田区","service_name":"風ぐるま","license":"CC BY 4.0","source_stop_id":"STP_000001_013","stop_code":null,"stop_name":"四谷駅","stop_desc":null,"zone_id":"000001_013","location_type":0,"parent_station":null,"wheelchair_boarding":null}},{"type":"Feature","id":"F021:STP_000001_014","geometry":{"type":"Point","coordinates":[139.734119,35.6845]},"properties":{"id":"F021:STP_000001_014","feed_id":"F021","feed_slug":"chiyoda-kazaguruma","municipality":"千代田区","service_name":"風ぐるま","license":"CC BY 4.0","source_stop_id":"STP_000001_014","stop_code":null,"stop_name":"麹町五丁目","stop_desc":null,"zone_id":"000001_014","location_type":0,"parent_station":null,"wheelchair_boarding":null}},{"type":"Feature","id":"F021:STP_000001_015","geometry":{"type":"Point","coordinates":[139.736897,35.683993]},"properties":{"id":"F021:STP_000001_015","feed_id":"F021","feed_slug":"chiyoda-kazaguruma","municipality":"千代田区","service_name":"風ぐるま","license":"CC BY 4.0","source_stop_id":"STP_000001_015","stop_code":null,"stop_name":"麹町四丁目","stop_desc":null,"zone_id":"000001_015","location_type":0,"parent_station":null,"wheelchair_boarding":null}},{"type":"Feature","id":"F021:STP_000001_016","geometry":{"type":"Point","coordinates":[139.739422,35.687201]},"properties":{"id":"F021:STP_000001_016","feed_id":"F021","feed_slug":"chiyoda-kazaguruma","municipality":"千代田区","service_name":"風ぐるま","license":"CC BY 4.0","source_stop_id":"STP_000001_016","stop_code":null,"stop_name":"いきいきプラザ一番町","stop_desc":null,"zone_id":"000001_016","location_type":0,"parent_station":null,"wheelchair_boarding":null}},{"type":"Feature","id":"F021:STP_000001_017","geometry":{"type":"Point","coordinates":[139.742334,35.68862]},"properties":{"id":"F021:STP_000001_017","feed_id":"F021","feed_slug":"chiyoda-kazaguruma","municipality":"千代田区","service_name":"風ぐるま","license":"CC BY 4.0","source_stop_id":"STP_000001_017","stop_code":null,"stop_name":"五味坂","stop_desc":null,"zone_id":"000001_017","location_type":0,"parent_station":null,"wheelchair_boarding":null}},{"type":"Feature","id":"F021:STP_000001_018","geometry":{"type":"Point","coordinates":[139.742042,35.691608]},"properties":{"id":"F021:STP_000001_018","feed_id":"F021","feed_slug":"chiyoda-kazaguruma","municipality":"千代田区","service_name":"風ぐるま","license":"CC BY 4.0","source_stop_id":"STP_000001_018","stop_code":null,"stop_name":"東京家政学院前","stop_desc":null,"zone_id":"000001_018","location_type":0,"parent_station":null,"wheelchair_boarding":null}},{"type":"Feature","id":"F021:STP_000001_019","geometry":{"type":"Point","coordinates":[139.736828,35.689858]},"properties":{"id":"F021:STP_000001_019","feed_id":"F021","feed_slug":"chiyoda-kazaguruma","municipality":"千代田区","service_name":"風ぐるま","license":"CC BY 4.0","source_stop_id":"STP_000001_019","stop_code":null,"stop_name":"都営四番町アパート","stop_desc":null,"zone_id":"000001_019","location_type":0,"parent_station":null,"wheelchair_boarding":null}},{"type":"Feature","id":"F021:STP_000001_020","geometry":{"type":"Point","coordinates":[139.736734,35.69135]},"properties":{"id":"F021:STP_000001_020","feed_id":"F021","feed_slug":"chiyoda-kazaguruma","municipality":"千代田区","service_name":"風ぐるま","license":"CC BY 4.0","source_stop_id":"STP_000001_020","stop_code":null,"stop_name":"市ヶ谷駅","stop_desc":null,"zone_id":"000001_020","location_type":0,"parent_station":null,"wheelchair_boarding":null}},{"type":"Feature","id":"F021:STP_000001_021","geometry":{"type":"Point","coordinates":[139.740551,35.692491]},"properties":{"id":"F021:STP_000001_021","feed_id":"F021","feed_slug":"chiyoda-kazaguruma","municipality":"千代田区","service_name":"風ぐるま","license":"CC BY 4.0","source_stop_id":"STP_000001_021","stop_code":null,"stop_name":"一口坂","stop_desc":null,"zone_id":"000001_021","location_type":0,"parent_station":null,"wheelchair_boarding":null}},{"type":"Feature","id":"F021:STP_000001_022","geometry":{"type":"Point","coordinates":[139.742123,35.697071]},"properties":{"id":"F021:STP_000001_022","feed_id":"F021","feed_slug":"chiyoda-kazaguruma","municipality":"千代田区","service_name":"風ぐるま","license":"CC BY 4.0","source_stop_id":"STP_000001_022","stop_code":null,"stop_name":"東京逓信病院","stop_desc":null,"zone_id":"000001_022","location_type":0,"parent_station":null,"wheelchair_boarding":null}},{"type":"Feature","id":"F021:STP_000001_023","geometry":{"type":"Point","coordinates":[139.746213,35.701897]},"properties":{"id":"F021:STP_000001_023","feed_id":"F021","feed_slug":"chiyoda-kazaguruma","municipality":"千代田区","service_name":"風ぐるま","license":"CC BY 4.0","source_stop_id":"STP_000001_023","stop_code":null,"stop_name":"地下鉄飯田橋駅東口","stop_desc":null,"zone_id":"000001_023","location_type":0,"parent_station":null,"wheelchair_boarding":null}},{"type":"Feature","id":"F021:STP_000001_024","geometry":{"type":"Point","coordinates":[139.748637,35.701703]},"properties":{"id":"F021:STP_000001_024","feed_id":"F021","feed_slug":"chiyoda-kazaguruma","municipality":"千代田区","service_name":"風ぐるま","license":"CC BY 4.0","source_stop_id":"STP_000001_024","stop_code":null,"stop_name":"飯田橋清掃車庫","stop_desc":null,"zone_id":"000001_024","location_type":0,"parent_station":null,"wheelchair_boarding":null}},{"type":"Feature","id":"F021:STP_000001_025","geometry":{"type":"Point","coordinates":[139.750623,35.699886]},"properties":{"id":"F021:STP_000001_025","feed_id":"F021","feed_slug":"chiyoda-kazaguruma","municipality":"千代田区","service_name":"風ぐるま","license":"CC BY 4.0","source_stop_id":"STP_000001_025","stop_code":null,"stop_name":"東京しごとセンター","stop_desc":null,"zone_id":"000001_025","location_type":0,"parent_station":null,"wheelchair_boarding":null}},{"type":"Feature","id":"F021:STP_000001_026","geometry":{"type":"Point","coordinates":[139.75067,35.697586]},"properties":{"id":"F021:STP_000001_026","feed_id":"F021","feed_slug":"chiyoda-kazaguruma","municipality":"千代田区","service_name":"風ぐるま","license":"CC BY 4.0","source_stop_id":"STP_000001_026","stop_code":null,"stop_name":"九段北一丁目","stop_desc":null,"zone_id":"000001_026","location_type":0,"parent_station":null,"wheelchair_boarding":null}},{"type":"Feature","id":"F021:STP_000002_003","geometry":{"type":"Point","coordinates":[139.752283,35.696042]},"properties":{"id":"F021:STP_000002_003","feed_id":"F021","feed_slug":"chiyoda-kazaguruma","municipality":"千代田区","service_name":"風ぐるま","license":"CC BY 4.0","source_stop_id":"STP_000002_003","stop_code":null,"stop_name":"千代田保健所(九段下駅）","stop_desc":null,"zone_id":"000002_003","location_type":0,"parent_station":null,"wheelchair_boarding":null}},{"type":"Feature","id":"F021:STP_000002_004","geometry":{"type":"Point","coordinates":[139.753183,35.69786]},"properties":{"id":"F021:STP_000002_004","feed_id":"F021","feed_slug":"chiyoda-kazaguruma","municipality":"千代田区","service_name":"風ぐるま","license":"CC BY 4.0","source_stop_id":"STP_000002_004","stop_code":null,"stop_name":"西神田三丁目","stop_desc":null,"zone_id":"000002_004","location_type":0,"parent_station":null,"wheelchair_boarding":null}},{"type":"Feature","id":"F021:STP_000002_005","geometry":{"type":"Point","coordinates":[139.754978,35.696794]},"properties":{"id":"F021:STP_000002_005","feed_id":"F021","feed_slug":"chiyoda-kazaguruma","municipality":"千代田区","service_name":"風ぐるま","license":"CC BY 4.0","source_stop_id":"STP_000002_005","stop_code":null,"stop_name":"専修大学法科大学院前","stop_desc":null,"zone_id":"000002_005","location_type":0,"parent_station":null,"wheelchair_boarding":null}},{"type":"Feature","id":"F021:STP_000002_006","geometry":{"type":"Point","coordinates":[139.75591,35.69464]},"properties":{"id":"F021:STP_000002_006","feed_id":"F021","feed_slug":"chiyoda-kazaguruma","municipality":"千代田区","service_name":"風ぐるま","license":"CC BY 4.0","source_stop_id":"STP_000002_006","stop_code":null,"stop_name":"専大前交差点","stop_desc":null,"zone_id":"000002_006","location_type":0,"parent_station":null,"wheelchair_boarding":null}},{"type":"Feature","id":"F021:STP_000002_007","geometry":{"type":"Point","coordinates":[139.762107,35.692857]},"properties":{"id":"F021:STP_000002_007","feed_id":"F021","feed_slug":"chiyoda-kazaguruma","municipality":"千代田区","service_name":"風ぐるま","license":"CC BY 4.0","source_stop_id":"STP_000002_007","stop_code":null,"stop_name":"神田錦町三丁目","stop_desc":null,"zone_id":"000002_007","location_type":0,"parent_station":null,"wheelchair_boarding":null}},{"type":"Feature","id":"F021:STP_000002_009","geometry":{"type":"Point","coordinates":[139.768259,35.692423]},"properties":{"id":"F021:STP_000002_009","feed_id":"F021","feed_slug":"chiyoda-kazaguruma","municipality":"千代田区","service_name":"風ぐるま","license":"CC BY 4.0","source_stop_id":"STP_000002_009","stop_code":null,"stop_name":"神田公園出張所","stop_desc":null,"zone_id":"000002_009","location_type":0,"parent_station":null,"wheelchair_boarding":null}},{"type":"Feature","id":"F021:STP_000002_010","geometry":{"type":"Point","coordinates":[139.772935,35.693686]},"properties":{"id":"F021:STP_000002_010","feed_id":"F021","feed_slug":"chiyoda-kazaguruma","municipality":"千代田区","service_name":"風ぐるま","license":"CC BY 4.0","source_stop_id":"STP_000002_010","stop_code":null,"stop_name":"東日本銀行神田支店","stop_desc":null,"zone_id":"000002_010","location_type":0,"parent_station":null,"wheelchair_boarding":null}},{"type":"Feature","id":"F021:STP_000002_011","geometry":{"type":"Point","coordinates":[139.777766,35.694181]},"properties":{"id":"F021:STP_000002_011","feed_id":"F021","feed_slug":"chiyoda-kazaguruma","municipality":"千代田区","service_name":"風ぐるま","license":"CC BY 4.0","source_stop_id":"STP_000002_011","stop_code":null,"stop_name":"岩本町ほほえみプラザ","stop_desc":null,"zone_id":"000002_011","location_type":0,"parent_station":null,"wheelchair_boarding":null}},{"type":"Feature","id":"F021:STP_000002_012","geometry":{"type":"Point","coordinates":[139.779926,35.696157]},"properties":{"id":"F021:STP_000002_012","feed_id":"F021","feed_slug":"chiyoda-kazaguruma","municipality":"千代田区","service_name":"風ぐるま","license":"CC BY 4.0","source_stop_id":"STP_000002_012","stop_code":null,"stop_name":"美倉橋南","stop_desc":null,"zone_id":"000002_012","location_type":0,"parent_station":null,"wheelchair_boarding":null}},{"type":"Feature","id":"F021:STP_000002_013","geometry":{"type":"Point","coordinates":[139.779078,35.698653]},"properties":{"id":"F021:STP_000002_013","feed_id":"F021","feed_slug":"chiyoda-kazaguruma","municipality":"千代田区","service_name":"風ぐるま","license":"CC BY 4.0","source_stop_id":"STP_000002_013","stop_code":null,"stop_name":"和泉公園入口前","stop_desc":null,"zone_id":"000002_013","location_type":0,"parent_station":null,"wheelchair_boarding":null}},{"type":"Feature","id":"F021:STP_000002_014","geometry":{"type":"Point","coordinates":[139.774907,35.697427]},"properties":{"id":"F021:STP_000002_014","feed_id":"F021","feed_slug":"chiyoda-kazaguruma","municipality":"千代田区","service_name":"風ぐるま","license":"CC BY 4.0","source_stop_id":"STP_000002_014","stop_code":null,"stop_name":"和泉橋出張所","stop_desc":null,"zone_id":"000002_014","location_type":0,"parent_station":null,"wheelchair_boarding":null}},{"type":"Feature","id":"F021:STP_000002_015","geometry":{"type":"Point","coordinates":[139.773905,35.698638]},"properties":{"id":"F021:STP_000002_015","feed_id":"F021","feed_slug":"chiyoda-kazaguruma","municipality":"千代田区","service_name":"風ぐるま","license":"CC BY 4.0","source_stop_id":"STP_000002_015","stop_code":null,"stop_name":"秋葉原駅中央口","stop_desc":null,"zone_id":"000002_015","location_type":0,"parent_station":null,"wheelchair_boarding":null}},{"type":"Feature","id":"F021:STP_000002_016","geometry":{"type":"Point","coordinates":[139.774359,35.70111]},"properties":{"id":"F021:STP_000002_016","feed_id":"F021","feed_slug":"chiyoda-kazaguruma","municipality":"千代田区","service_name":"風ぐるま","license":"CC BY 4.0","source_stop_id":"STP_000002_016","stop_code":null,"stop_name":"神田練塀町","stop_desc":null,"zone_id":"000002_016","location_type":0,"parent_station":null,"wheelchair_boarding":null}},{"type":"Feature","id":"F021:STP_000002_017","geometry":{"type":"Point","coordinates":[139.771727,35.704001]},"properties":{"id":"F021:STP_000002_017","feed_id":"F021","feed_slug":"chiyoda-kazaguruma","municipality":"千代田区","service_name":"風ぐるま","license":"CC BY 4.0","source_stop_id":"STP_000002_017","stop_code":null,"stop_name":"アーツ千代田3331","stop_desc":null,"zone_id":"000002_017","location_type":0,"parent_station":null,"wheelchair_boarding":null}},{"type":"Feature","id":"F021:STP_000002_018","geometry":{"type":"Point","coordinates":[139.769904,35.704414]},"properties":{"id":"F021:STP_000002_018","feed_id":"F021","feed_slug":"chiyoda-kazaguruma","municipality":"千代田区","service_name":"風ぐるま","license":"CC BY 4.0","source_stop_id":"STP_000002_018","stop_code":null,"stop_name":"外神田六丁目","stop_desc":null,"zone_id":"000002_018","location_type":0,"parent_station":null,"wheelchair_boarding":null}},{"type":"Feature","id":"F021:STP_000002_019","geometry":{"type":"Point","coordinates":[139.769388,35.701587]},"properties":{"id":"F021:STP_000002_019","feed_id":"F021","feed_slug":"chiyoda-kazaguruma","municipality":"千代田区","service_name":"風ぐるま","license":"CC BY 4.0","source_stop_id":"STP_000002_019","stop_code":null,"stop_name":"昌平童夢館入口","stop_desc":null,"zone_id":"000002_019","location_type":0,"parent_station":null,"wheelchair_boarding":null}},{"type":"Feature","id":"F021:STP_000002_020","geometry":{"type":"Point","coordinates":[139.767623,35.69929]},"properties":{"id":"F021:STP_000002_020","feed_id":"F021","feed_slug":"chiyoda-kazaguruma","municipality":"千代田区","service_name":"風ぐるま","license":"CC BY 4.0","source_stop_id":"STP_000002_020","stop_code":null,"stop_name":"外神田二丁目","stop_desc":null,"zone_id":"000002_020","location_type":0,"parent_station":null,"wheelchair_boarding":null}},{"type":"Feature","id":"F021:STP_000002_021","geometry":{"type":"Point","coordinates":[139.764325,35.700364]},"properties":{"id":"F021:STP_000002_021","feed_id":"F021","feed_slug":"chiyoda-kazaguruma","municipality":"千代田区","service_name":"風ぐるま","license":"CC BY 4.0","source_stop_id":"STP_000002_021","stop_code":null,"stop_name":"御茶ノ水駅","stop_desc":null,"zone_id":"000002_021","location_type":0,"parent_station":null,"wheelchair_boarding":null}},{"type":"Feature","id":"F021:STP_000002_022","geometry":{"type":"Point","coordinates":[139.760652,35.700682]},"properties":{"id":"F021:STP_000002_022","feed_id":"F021","feed_slug":"chiyoda-kazaguruma","municipality":"千代田区","service_name":"風ぐるま","license":"CC BY 4.0","source_stop_id":"STP_000002_022","stop_code":null,"stop_name":"神田駿河台二丁目","stop_desc":null,"zone_id":"000002_022","location_type":0,"parent_station":null,"wheelchair_boarding":null}},{"type":"Feature","id":"F021:STP_000002_023","geometry":{"type":"Point","coordinates":[139.760955,35.70053]},"properties":{"id":"F021:STP_000002_023","feed_id":"F021","feed_slug":"chiyoda-kazaguruma","municipality":"千代田区","service_name":"風ぐるま","license":"CC BY 4.0","source_stop_id":"STP_000002_023","stop_code":null,"stop_name":"障害者福祉センター「えみふる」","stop_desc":null,"zone_id":"000002_023","location_type":0,"parent_station":null,"wheelchair_boarding":null}},{"type":"Feature","id":"F021:STP_000002_024","geometry":{"type":"Point","coordinates":[139.762089,35.697275]},"properties":{"id":"F021:STP_000002_024","feed_id":"F021","feed_slug":"chiyoda-kazaguruma","municipality":"千代田区","service_name":"風ぐるま","license":"CC BY 4.0","source_stop_id":"STP_000002_024","stop_code":null,"stop_name":"日大病院","stop_desc":null,"zone_id":"000002_024","location_type":0,"parent_station":null,"wheelchair_boarding":null}},{"type":"Feature","id":"F021:STP_000002_025","geometry":{"type":"Point","coordinates":[139.752405,35.695417]},"properties":{"id":"F021:STP_000002_025","feed_id":"F021","feed_slug":"chiyoda-kazaguruma","municipality":"千代田区","service_name":"風ぐるま","license":"CC BY 4.0","source_stop_id":"STP_000002_025","stop_code":null,"stop_name":"九段下","stop_desc":null,"zone_id":"000002_025","location_type":0,"parent_station":null,"wheelchair_boarding":null}},{"type":"Feature","id":"F021:STP_000003_005","geometry":{"type":"Point","coordinates":[139.754934,35.698652]},"properties":{"id":"F021:STP_000003_005","feed_id":"F021","feed_slug":"chiyoda-kazaguruma","municipality":"千代田区","service_name":"風ぐるま","license":"CC BY 4.0","source_stop_id":"STP_000003_005","stop_code":null,"stop_name":"西神田コスモス館","stop_desc":null,"zone_id":"000003_005","location_type":0,"parent_station":null,"wheelchair_boarding":null}},{"type":"Feature","id":"F021:STP_000003_006","geometry":{"type":"Point","coordinates":[139.757749,35.697049]},"properties":{"id":"F021:STP_000003_006","feed_id":"F021","feed_slug":"chiyoda-kazaguruma","municipality":"千代田区","service_name":"風ぐるま","license":"CC BY 4.0","source_stop_id":"STP_000003_006","stop_code":null,"stop_name":"神保町交差点北","stop_desc":null,"zone_id":"000003_006","location_type":0,"parent_station":null,"wheelchair_boarding":null}},{"type":"Feature","id":"F021:STP_000003_007","geometry":{"type":"Point","coordinates":[139.76146,35.696329]},"properties":{"id":"F021:STP_000003_007","feed_id":"F021","feed_slug":"chiyoda-kazaguruma","municipality":"千代田区","service_name":"風ぐるま","license":"CC BY 4.0","source_stop_id":"STP_000003_007","stop_code":null,"stop_name":"駿河台下","stop_desc":null,"zone_id":"000003_007","location_type":0,"parent_station":null,"wheelchair_boarding":null}},{"type":"Feature","id":"F021:STP_000003_011","geometry":{"type":"Point","coordinates":[139.765901,35.694948]},"properties":{"id":"F021:STP_000003_011","feed_id":"F021","feed_slug":"chiyoda-kazaguruma","municipality":"千代田区","service_name":"風ぐるま","license":"CC BY 4.0","source_stop_id":"STP_000003_011","stop_code":null,"stop_name":"小川町交差点","stop_desc":null,"zone_id":"000003_011","location_type":0,"parent_station":null,"wheelchair_boarding":null}},{"type":"Feature","id":"F021:STP_000003_012","geometry":{"type":"Point","coordinates":[139.768502,35.696587]},"properties":{"id":"F021:STP_000003_012","feed_id":"F021","feed_slug":"chiyoda-kazaguruma","municipality":"千代田区","service_name":"風ぐるま","license":"CC BY 4.0","source_stop_id":"STP_000003_012","stop_code":null,"stop_name":"かんだ連雀","stop_desc":null,"zone_id":"000003_012","location_type":0,"parent_station":null,"wheelchair_boarding":null}},{"type":"Feature","id":"F021:STP_000003_013","geometry":{"type":"Point","coordinates":[139.770262,35.697976]},"properties":{"id":"F021:STP_000003_013","feed_id":"F021","feed_slug":"chiyoda-kazaguruma","municipality":"千代田区","service_name":"風ぐるま","license":"CC BY 4.0","source_stop_id":"STP_000003_013","stop_code":null,"stop_name":"万世橋出張所","stop_desc":null,"zone_id":"000003_013","location_type":0,"parent_station":null,"wheelchair_boarding":null}},{"type":"Feature","id":"F021:STP_000003_014","geometry":{"type":"Point","coordinates":[139.768282,35.697392]},"properties":{"id":"F021:STP_000003_014","feed_id":"F021","feed_slug":"chiyoda-kazaguruma","municipality":"千代田区","service_name":"風ぐるま","license":"CC BY 4.0","source_stop_id":"STP_000003_014","stop_code":null,"stop_name":"ワテラス前","stop_desc":null,"zone_id":"000003_014","location_type":0,"parent_station":null,"wheelchair_boarding":null}},{"type":"Feature","id":"F021:STP_000003_018","geometry":{"type":"Point","coordinates":[139.77751,35.692669]},"properties":{"id":"F021:STP_000003_018","feed_id":"F021","feed_slug":"chiyoda-kazaguruma","municipality":"千代田区","service_name":"風ぐるま","license":"CC BY 4.0","source_stop_id":"STP_000003_018","stop_code":null,"stop_name":"岩本町一丁目","stop_desc":null,"zone_id":"000003_018","location_type":0,"parent_station":null,"wheelchair_boarding":null}},{"type":"Feature","id":"F021:STP_000003_019","geometry":{"type":"Point","coordinates":[139.773131,35.69114]},"properties":{"id":"F021:STP_000003_019","feed_id":"F021","feed_slug":"chiyoda-kazaguruma","municipality":"千代田区","service_name":"風ぐるま","license":"CC BY 4.0","source_stop_id":"STP_000003_019","stop_code":null,"stop_name":"鍛冶町一丁目","stop_desc":null,"zone_id":"000003_019","location_type":0,"parent_station":null,"wheelchair_boarding":null}},{"type":"Feature","id":"F021:STP_000003_020","geometry":{"type":"Point","coordinates":[139.76754,35.689396]},"properties":{"id":"F021:STP_000003_020","feed_id":"F021","feed_slug":"chiyoda-kazaguruma","municipality":"千代田区","service_name":"風ぐるま","license":"CC BY 4.0","source_stop_id":"STP_000003_020","stop_code":null,"stop_name":"スポーツセンター","stop_desc":null,"zone_id":"000003_020","location_type":0,"parent_station":null,"wheelchair_boarding":null}},{"type":"Feature","id":"F021:STP_000003_021","geometry":{"type":"Point","coordinates":[139.765849,35.689616]},"properties":{"id":"F021:STP_000003_021","feed_id":"F021","feed_slug":"chiyoda-kazaguruma","municipality":"千代田区","service_name":"風ぐるま","license":"CC BY 4.0","source_stop_id":"STP_000003_021","stop_code":null,"stop_name":"区営内神田住宅","stop_desc":null,"zone_id":"000003_021","location_type":0,"parent_station":null,"wheelchair_boarding":null}},{"type":"Feature","id":"F021:STP_000003_022","geometry":{"type":"Point","coordinates":[139.760901,35.692325]},"properties":{"id":"F021:STP_000003_022","feed_id":"F021","feed_slug":"chiyoda-kazaguruma","municipality":"千代田区","service_name":"風ぐるま","license":"CC BY 4.0","source_stop_id":"STP_000003_022","stop_code":null,"stop_name":"ちよだプラットホームスクエア入口","stop_desc":null,"zone_id":"000003_022","location_type":0,"parent_station":null,"wheelchair_boarding":null}},{"type":"Feature","id":"F021:STP_000003_023","geometry":{"type":"Point","coordinates":[139.76099,35.693314]},"properties":{"id":"F021:STP_000003_023","feed_id":"F021","feed_slug":"chiyoda-kazaguruma","municipality":"千代田区","service_name":"風ぐるま","license":"CC BY 4.0","source_stop_id":"STP_000003_023","stop_code":null,"stop_name":"神田錦町","stop_desc":null,"zone_id":"000003_023","location_type":0,"parent_station":null,"wheelchair_boarding":null}},{"type":"Feature","id":"F021:STP_000003_024","geometry":{"type":"Point","coordinates":[139.758191,35.694811]},"properties":{"id":"F021:STP_000003_024","feed_id":"F021","feed_slug":"chiyoda-kazaguruma","municipality":"千代田区","service_name":"風ぐるま","license":"CC BY 4.0","source_stop_id":"STP_000003_024","stop_code":null,"stop_name":"神保町交番前","stop_desc":null,"zone_id":"000003_024","location_type":0,"parent_station":null,"wheelchair_boarding":null}},{"type":"Feature","id":"F021:STP_000004_003","geometry":{"type":"Point","coordinates":[139.74639,35.699459]},"properties":{"id":"F021:STP_000004_003","feed_id":"F021","feed_slug":"chiyoda-kazaguruma","municipality":"千代田区","service_name":"風ぐるま","license":"CC BY 4.0","source_stop_id":"STP_000004_003","stop_code":null,"stop_name":"富士見出張所","stop_desc":null,"zone_id":"000004_003","location_type":0,"parent_station":null,"wheelchair_boarding":null}},{"type":"Feature","id":"F021:STP_000004_004","geometry":{"type":"Point","coordinates":[139.746004,35.701553]},"properties":{"id":"F021:STP_000004_004","feed_id":"F021","feed_slug":"chiyoda-kazaguruma","municipality":"千代田区","service_name":"風ぐるま","license":"CC BY 4.0","source_stop_id":"STP_000004_004","stop_code":null,"stop_name":"飯田橋駅前","stop_desc":null,"zone_id":"000004_004","location_type":0,"parent_station":null,"wheelchair_boarding":null}},{"type":"Feature","id":"F021:STP_000004_006","geometry":{"type":"Point","coordinates":[139.740627,35.693221]},"properties":{"id":"F021:STP_000004_006","feed_id":"F021","feed_slug":"chiyoda-kazaguruma","municipality":"千代田区","service_name":"風ぐるま","license":"CC BY 4.0","source_stop_id":"STP_000004_006","stop_code":null,"stop_name":"一口坂手前","stop_desc":null,"zone_id":"000004_006","location_type":0,"parent_station":null,"wheelchair_boarding":null}},{"type":"Feature","id":"F021:STP_000004_008","geometry":{"type":"Point","coordinates":[139.736195,35.687531]},"properties":{"id":"F021:STP_000004_008","feed_id":"F021","feed_slug":"chiyoda-kazaguruma","municipality":"千代田区","service_name":"風ぐるま","license":"CC BY 4.0","source_stop_id":"STP_000004_008","stop_code":null,"stop_name":"番町","stop_desc":null,"zone_id":"000004_008","location_type":0,"parent_station":null,"wheelchair_boarding":null}},{"type":"Feature","id":"F021:STP_000004_011","geometry":{"type":"Point","coordinates":[139.743731,35.692675]},"properties":{"id":"F021:STP_000004_011","feed_id":"F021","feed_slug":"chiyoda-kazaguruma","municipality":"千代田区","service_name":"風ぐるま","license":"CC BY 4.0","source_stop_id":"STP_000004_011","stop_code":null,"stop_name":"さくら館前","stop_desc":null,"zone_id":"000004_011","location_type":0,"parent_station":null,"wheelchair_boarding":null}},{"type":"Feature","id":"F021:STP_000004_012","geometry":{"type":"Point","coordinates":[139.745232,35.696135]},"properties":{"id":"F021:STP_000004_012","feed_id":"F021","feed_slug":"chiyoda-kazaguruma","municipality":"千代田区","service_name":"風ぐるま","license":"CC BY 4.0","source_stop_id":"STP_000004_012","stop_code":null,"stop_name":"富士見あんず館","stop_desc":null,"zone_id":"000004_012","location_type":0,"parent_station":null,"wheelchair_boarding":null}},{"type":"Feature","id":"F021:STP_000004_020","geometry":{"type":"Point","coordinates":[139.763462,35.700166]},"properties":{"id":"F021:STP_000004_020","feed_id":"F021","feed_slug":"chiyoda-kazaguruma","municipality":"千代田区","service_name":"風ぐるま","license":"CC BY 4.0","source_stop_id":"STP_000004_020","stop_code":null,"stop_name":"御茶ノ水駅前","stop_desc":null,"zone_id":"000004_020","location_type":0,"parent_station":null,"wheelchair_boarding":null}},{"type":"Feature","id":"F021:STP_000004_021","geometry":{"type":"Point","coordinates":[139.755581,35.701203]},"properties":{"id":"F021:STP_000004_021","feed_id":"F021","feed_slug":"chiyoda-kazaguruma","municipality":"千代田区","service_name":"風ぐるま","license":"CC BY 4.0","source_stop_id":"STP_000004_021","stop_code":null,"stop_name":"水道橋駅前","stop_desc":null,"zone_id":"000004_021","location_type":0,"parent_station":null,"wheelchair_boarding":null}},{"type":"Feature","id":"F021:STP_000004_022","geometry":{"type":"Point","coordinates":[139.756453,35.699333]},"properties":{"id":"F021:STP_000004_022","feed_id":"F021","feed_slug":"chiyoda-kazaguruma","municipality":"千代田区","service_name":"風ぐるま","license":"CC BY 4.0","source_stop_id":"STP_000004_022","stop_code":null,"stop_name":"西神田一丁目","stop_desc":null,"zone_id":"000004_022","location_type":0,"parent_station":null,"wheelchair_boarding":null}},{"type":"Feature","id":"F021:STP_000005_014","geometry":{"type":"Point","coordinates":[139.739927,35.684263]},"properties":{"id":"F021:STP_000005_014","feed_id":"F021","feed_slug":"chiyoda-kazaguruma","municipality":"千代田区","service_name":"風ぐるま","license":"CC BY 4.0","source_stop_id":"STP_000005_014","stop_code":null,"stop_name":"麹町二丁目","stop_desc":null,"zone_id":"000005_014","location_type":0,"parent_station":null,"wheelchair_boarding":null}},{"type":"Feature","id":"F021:STP_000006_002","geometry":{"type":"Point","coordinates":[139.757841,35.690651]},"properties":{"id":"F021:STP_000006_002","feed_id":"F021","feed_slug":"chiyoda-kazaguruma","municipality":"千代田区","service_name":"風ぐるま","license":"CC BY 4.0","source_stop_id":"STP_000006_002","stop_code":null,"stop_name":"毎日新聞","stop_desc":null,"zone_id":"000006_002","location_type":0,"parent_station":null,"wheelchair_boarding":null}},{"type":"Feature","id":"F021:STP_000006_004","geometry":{"type":"Point","coordinates":[139.765679,35.692438]},"properties":{"id":"F021:STP_000006_004","feed_id":"F021","feed_slug":"chiyoda-kazaguruma","municipality":"千代田区","service_name":"風ぐるま","license":"CC BY 4.0","source_stop_id":"STP_000006_004","stop_code":null,"stop_name":"神田美士代町","stop_desc":null,"zone_id":"000006_004","location_type":0,"parent_station":null,"wheelchair_boarding":null}},{"type":"Feature","id":"F021:STP_000006_006","geometry":{"type":"Point","coordinates":[139.77025,35.694975]},"properties":{"id":"F021:STP_000006_006","feed_id":"F021","feed_slug":"chiyoda-kazaguruma","municipality":"千代田区","service_name":"風ぐるま","license":"CC BY 4.0","source_stop_id":"STP_000006_006","stop_code":null,"stop_name":"須田町(秋葉原駅行き)","stop_desc":null,"zone_id":"000006_006","location_type":0,"parent_station":null,"wheelchair_boarding":null}},{"type":"Feature","id":"F021:STP_000006_009","geometry":{"type":"Point","coordinates":[139.770795,35.696315]},"properties":{"id":"F021:STP_000006_009","feed_id":"F021","feed_slug":"chiyoda-kazaguruma","municipality":"千代田区","service_name":"風ぐるま","license":"CC BY 4.0","source_stop_id":"STP_000006_009","stop_code":null,"stop_name":"須田町(神田駅行き)","stop_desc":null,"zone_id":"000006_009","location_type":0,"parent_station":null,"wheelchair_boarding":null}},{"type":"Feature","id":"F021:STP_000006_010","geometry":{"type":"Point","coordinates":[139.77092,35.693883]},"properties":{"id":"F021:STP_000006_010","feed_id":"F021","feed_slug":"chiyoda-kazaguruma","municipality":"千代田区","service_name":"風ぐるま","license":"CC BY 4.0","source_stop_id":"STP_000006_010","stop_code":null,"stop_name":"神田駅前","stop_desc":null,"zone_id":"000006_010","location_type":0,"parent_station":null,"wheelchair_boarding":null}},{"type":"Feature","id":"F021:STP_000006_011","geometry":{"type":"Point","coordinates":[139.773242,35.688232]},"properties":{"id":"F021:STP_000006_011","feed_id":"F021","feed_slug":"chiyoda-kazaguruma","municipality":"千代田区","service_name":"風ぐるま","license":"CC BY 4.0","source_stop_id":"STP_000006_011","stop_code":null,"stop_name":"新日本橋駅","stop_desc":null,"zone_id":"000006_011","location_type":0,"parent_station":null,"wheelchair_boarding":null}},{"type":"Feature","id":"F021:STP_000006_012","geometry":{"type":"Point","coordinates":[139.771508,35.688414]},"properties":{"id":"F021:STP_000006_012","feed_id":"F021","feed_slug":"chiyoda-kazaguruma","municipality":"千代田区","service_name":"風ぐるま","license":"CC BY 4.0","source_stop_id":"STP_000006_012","stop_code":null,"stop_name":"本石町四丁目","stop_desc":null,"zone_id":"000006_012","location_type":0,"parent_station":null,"wheelchair_boarding":null}}]}
