{"type":"FeatureCollection","name":"kunitachi-aoyagikko_routes","features":[{"type":"Feature","id":"F012:1:SHP0001","geometry":{"type":"LineString","coordinates":[[139.421538412571,35.6818230789999],[139.421321153641,35.6818535812847],[139.421130716801,35.6818971559774],[139.42045211792,35.6820758122173],[139.420264363289,35.6821346380524],[139.420277774334,35.6821673190719],[139.420397422286,35.6824435403619],[139.420481622219,35.6826379257526],[139.420747160912,35.6833285846312],[139.420749843121,35.6833351208351],[139.420991241932,35.683940809063],[139.421015381813,35.6840344946522],[139.42103148,35.68407153],[139.421337246895,35.6847751857199],[139.421424427101,35.6850095649906],[139.421562309772,35.6853802550971],[139.421683251858,35.6857054013584],[139.421829191621,35.6860609983136],[139.422010481358,35.6865027290484],[139.422109723091,35.6866857222888],[139.42325502634,35.6866661158702],[139.423107504845,35.6862957724076],[139.422988236877,35.6859933825466],[139.422909021378,35.6857925409966],[139.422772228718,35.6854439824436],[139.4224396348,35.6855158726452],[139.42213922739,35.6855899413377],[139.421683251858,35.6857054013584],[139.421562309772,35.6853802550971],[139.421424427101,35.6850095649906],[139.421337246895,35.6847751857199],[139.42103148,35.68407153],[139.421015381813,35.6840344946522],[139.421302378178,35.6839669538786],[139.421482086182,35.6839255579206],[139.421626925468,35.6838906981665],[139.421842096586,35.6838403373683],[139.422259926796,35.6837425442114],[139.422506690025,35.683685897111],[139.422866106033,35.6836118201335],[139.422951936722,35.6835922115218],[139.423611760139,35.6834375213628],[139.423778057098,35.683407019078],[139.424008727074,35.6833547294468],[139.424113333225,35.6833351208351],[139.424319863319,35.6832937248771],[139.424408376217,35.683276295],[139.424783885479,35.6831935030839],[139.4249984622,35.6831499283913],[139.425083712779,35.6831335521064],[139.425395429134,35.6830736726791],[139.42576020956,35.6830017744363],[139.426358342171,35.6828710503583],[139.426634609699,35.6828187607271],[139.426819682121,35.6827860797076],[139.427490234375,35.6826662493028],[139.427527785301,35.6826575343643],[139.427828192711,35.6826074234677],[139.428210496262,35.6825569288679],[139.428488016129,35.6825202740824],[139.429177343845,35.6824461971049],[139.429359734058,35.6824527333088],[139.429973959923,35.6824113373507],[139.430073201656,35.6824091586161],[139.430148303509,35.6824026224122],[139.430569410324,35.6823764775966],[139.430969059467,35.6823481540464],[139.431116580963,35.6823394391079],[139.431231915951,35.682332902904],[139.431282146568,35.6823298235164],[139.431374073029,35.6823241879654],[139.431781768799,35.6823002218845],[139.431835412979,35.6829908807631],[139.431864917278,35.6833351208351],[139.431870281696,35.6834200914858],[139.431923859618,35.6836846983849],[139.431937336922,35.68375125915],[139.432007074356,35.6839996348981],[139.432028532028,35.684071533141],[139.432090222836,35.6842632403452],[139.432130455971,35.6843917713116],[139.432194828987,35.6845900139886],[139.432393312454,35.6850605680352],[139.432401359081,35.6851019593634],[139.432060718536,35.6851477076735],[139.432009756565,35.6851651356012],[139.431982934475,35.6851934559836]]},"properties":{"id":"F012:1:SHP0001","feed_id":"F012","feed_slug":"kunitachi-aoyagikko","municipality":"国立市","service_name":"あおやぎっこ","license":"CC BY 4.0","source_route_id":"1","route_short_name":null,"route_long_name":"あおやぎっこ　緑川方面・矢川駅止まり","route_desc":null,"route_type":3,"route_url":null,"route_color":"305496","route_text_color":"FFFFFF","directions":["1"],"geometry_source":"shapes.txt"}},{"type":"Feature","id":"F012:1:SHP0002","geometry":{"type":"LineString","coordinates":[[139.432514005301,35.6855541504892],[139.43246036768,35.6854091265883],[139.432441592216,35.6853045590224],[139.432401359081,35.6851019593634],[139.432393312454,35.6850605680352],[139.432194828987,35.6845900139886],[139.432130455971,35.6843917713116],[139.432090222836,35.6842632403452],[139.432028532028,35.684071533141],[139.432007074356,35.6839996348981],[139.431937336922,35.68375125915],[139.431923859618,35.6836846983849],[139.431870281696,35.6834200914858],[139.431864917278,35.6833351208351],[139.431835412979,35.6829908807631],[139.431781768799,35.6823002218845],[139.431374073029,35.6823241879654],[139.431282146568,35.6823298235164],[139.431231915951,35.682332902904],[139.431116580963,35.6823394391079],[139.430969059467,35.6823481540464],[139.430569410324,35.6823764775966],[139.430148303509,35.6824026224122],[139.430073201656,35.6824091586161],[139.429973959923,35.6824113373507],[139.429359734058,35.6824527333088],[139.429177343845,35.6824461971049],[139.428488016129,35.6825202740824],[139.428210496262,35.6825569288679],[139.427828192711,35.6826074234677],[139.427527785301,35.6826575343643],[139.427490234375,35.6826662493028],[139.426819682121,35.6827860797076],[139.426634609699,35.6828187607271],[139.426358342171,35.6828710503583],[139.42576020956,35.6830017744363],[139.425395429134,35.6830736726791],[139.425083712779,35.6831335521064],[139.4249984622,35.6831499283913],[139.424783885479,35.6831935030839],[139.424408376217,35.683276295],[139.424319863319,35.6832937248771],[139.424113333225,35.6833351208351],[139.424008727074,35.6833547294468],[139.423778057098,35.683407019078],[139.423611760139,35.6834375213628],[139.422951936722,35.6835922115218],[139.422866106033,35.6836118201335],[139.422506690025,35.683685897111],[139.422396719456,35.6833351208351],[139.422313570976,35.683062779006],[139.422286748886,35.6829451273358],[139.422284066677,35.6828797652968],[139.422391355038,35.6828449055427],[139.422233104706,35.6823285454347],[139.42205876112,35.6816988911258],[139.421879053116,35.6817555382262],[139.421538412571,35.6818230789999],[139.421321153641,35.6818535812847],[139.421130716801,35.6818971559774],[139.42045211792,35.6820758122173],[139.420264363289,35.6821346380524],[139.420277774334,35.6821673190719],[139.420397422286,35.6824435403619],[139.420481622219,35.6826379257526],[139.420747160912,35.6833285846312],[139.420749843121,35.6833351208351],[139.420991241932,35.683940809063],[139.421015381813,35.6840344946522],[139.42103148,35.68407153],[139.421337246895,35.6847751857199],[139.421424427101,35.6850095649906],[139.421562309772,35.6853802550971],[139.421683251858,35.6857054013584],[139.421829191621,35.6860609983136],[139.422010481358,35.6865027290484],[139.422109723091,35.6866857222888],[139.42325502634,35.6866661158702],[139.423107504845,35.6862957724076],[139.422988236877,35.6859933825466],[139.422909021378,35.6857925409966],[139.422772228718,35.6854439824436],[139.4224396348,35.6855158726452],[139.42213922739,35.6855899413377],[139.421683251858,35.6857054013584],[139.421562309772,35.6853802550971],[139.421424427101,35.6850095649906],[139.421337246895,35.6847751857199],[139.42103148,35.68407153],[139.421015381813,35.6840344946522],[139.421302378178,35.6839669538786],[139.421482086182,35.6839255579206],[139.421626925468,35.6838906981665],[139.421842096586,35.6838403373683],[139.422259926796,35.6837425442114],[139.422506690025,35.683685897111],[139.422866106033,35.6836118201335],[139.422951936722,35.6835922115218],[139.423611760139,35.6834375213628],[139.423778057098,35.683407019078],[139.424008727074,35.6833547294468],[139.424113333225,35.6833351208351],[139.424319863319,35.6832937248771],[139.424408376217,35.683276295],[139.424783885479,35.6831935030839],[139.4249984622,35.6831499283913],[139.425083712779,35.6831335521064],[139.425395429134,35.6830736726791],[139.42576020956,35.6830017744363],[139.426358342171,35.6828710503583],[139.426634609699,35.6828187607271],[139.426819682121,35.6827860797076],[139.427490234375,35.6826662493028],[139.427527785301,35.6826575343643],[139.427828192711,35.6826074234677],[139.428210496262,35.6825569288679],[139.428488016129,35.6825202740824],[139.429177343845,35.6824461971049],[139.429359734058,35.6824527333088],[139.429973959923,35.6824113373507],[139.430073201656,35.6824091586161],[139.430148303509,35.6824026224122],[139.430569410324,35.6823764775966],[139.430969059467,35.6823481540464],[139.431116580963,35.6823394391079],[139.431231915951,35.682332902904],[139.431282146568,35.6823298235164],[139.431374073029,35.6823241879654],[139.431781768799,35.6823002218845],[139.431835412979,35.6829908807631],[139.431864917278,35.6833351208351],[139.431870281696,35.6834200914858],[139.431923859618,35.6836846983849],[139.431937336922,35.68375125915],[139.432007074356,35.6839996348981],[139.432028532028,35.684071533141],[139.432090222836,35.6842632403452],[139.432130455971,35.6843917713116],[139.432194828987,35.6845900139886],[139.432393312454,35.6850605680352],[139.432401359081,35.6851019593634],[139.432060718536,35.6851477076735],[139.432009756565,35.6851651356012],[139.431982934475,35.6851934559836]]},"properties":{"id":"F012:1:SHP0002","feed_id":"F012","feed_slug":"kunitachi-aoyagikko","municipality":"国立市","service_name":"あおやぎっこ","license":"CC BY 4.0","source_route_id":"1","route_short_name":null,"route_long_name":"あおやぎっこ　緑川方面・矢川駅止まり","route_desc":null,"route_type":3,"route_url":null,"route_color":"305496","route_text_color":"FFFFFF","directions":["1"],"geometry_source":"shapes.txt"}},{"type":"Feature","id":"F012:2:SHP0003","geometry":{"type":"LineString","coordinates":[[139.432514005301,35.6855541504892],[139.43246036768,35.6854091265883],[139.432441592216,35.6853045590224],[139.432401359081,35.6851019593634],[139.432393312454,35.6850605680352],[139.432194828987,35.6845900139886],[139.432130455971,35.6843917713116],[139.432090222836,35.6842632403452],[139.432028532028,35.684071533141],[139.432007074356,35.6839996348981],[139.431937336922,35.68375125915],[139.431923859618,35.6836846983849],[139.431870281696,35.6834200914858],[139.431864917278,35.6833351208351],[139.431835412979,35.6829908807631],[139.431781768799,35.6823002218845],[139.431374073029,35.6823241879654],[139.431282146568,35.6823298235164],[139.431231915951,35.682332902904],[139.431116580963,35.6823394391079],[139.430969059467,35.6823481540464],[139.430569410324,35.6823764775966],[139.430148303509,35.6824026224122],[139.430073201656,35.6824091586161],[139.429973959923,35.6824113373507],[139.429359734058,35.6824527333088],[139.429177343845,35.6824461971049],[139.428488016129,35.6825202740824],[139.428210496262,35.6825569288679],[139.427828192711,35.6826074234677],[139.427527785301,35.6826575343643],[139.427490234375,35.6826662493028],[139.426819682121,35.6827860797076],[139.426634609699,35.6828187607271],[139.426358342171,35.6828710503583],[139.42576020956,35.6830017744363],[139.425395429134,35.6830736726791],[139.425083712779,35.6831335521064],[139.4249984622,35.6831499283913],[139.424783885479,35.6831935030839],[139.424408376217,35.683276295],[139.424319863319,35.6832937248771],[139.424113333225,35.6833351208351],[139.424008727074,35.6833547294468],[139.423778057098,35.683407019078],[139.423611760139,35.6834375213628],[139.422951936722,35.6835922115218],[139.422866106033,35.6836118201335],[139.422506690025,35.683685897111],[139.422396719456,35.6833351208351],[139.422313570976,35.683062779006],[139.422286748886,35.6829451273358],[139.422284066677,35.6828797652968],[139.422391355038,35.6828449055427],[139.422233104706,35.6823285454347],[139.42205876112,35.6816988911258],[139.421879053116,35.6817555382262],[139.421538412571,35.6818230789999],[139.421321153641,35.6818535812847],[139.421130716801,35.6818971559774],[139.42045211792,35.6820758122173],[139.420264363289,35.6821346380524],[139.420277774334,35.6821673190719],[139.420397422286,35.6824435403619],[139.420481622219,35.6826379257526],[139.420747160912,35.6833285846312],[139.420749843121,35.6833351208351],[139.420991241932,35.683940809063],[139.421015381813,35.6840344946522],[139.42103148,35.68407153],[139.421337246895,35.6847751857199],[139.421424427101,35.6850095649906],[139.421562309772,35.6853802550971],[139.421683251858,35.6857054013584],[139.421829191621,35.6860609983136],[139.422010481358,35.6865027290484],[139.422109723091,35.6866857222888],[139.42325502634,35.6866661158702],[139.423107504845,35.6862957724076],[139.422988236877,35.6859933825466],[139.422909021378,35.6857925409966],[139.422772228718,35.6854439824436],[139.4224396348,35.6855158726452],[139.42213922739,35.6855899413377],[139.421683251858,35.6857054013584],[139.421562309772,35.6853802550971],[139.421424427101,35.6850095649906],[139.421337246895,35.6847751857199],[139.42103148,35.68407153],[139.421015381813,35.6840344946522],[139.421302378178,35.6839669538786],[139.421482086182,35.6839255579206],[139.421626925468,35.6838906981665],[139.421842096586,35.6838403373683],[139.422259926796,35.6837425442114],[139.422506690025,35.683685897111],[139.422866106033,35.6836118201335],[139.422951936722,35.6835922115218],[139.423611760139,35.6834375213628],[139.423778057098,35.683407019078],[139.424008727074,35.6833547294468],[139.424113333225,35.6833351208351],[139.424319863319,35.6832937248771],[139.424408376217,35.683276295],[139.424783885479,35.6831935030839],[139.4249984622,35.6831499283913],[139.425083712779,35.6831335521064],[139.425395429134,35.6830736726791],[139.42576020956,35.6830017744363],[139.426358342171,35.6828710503583],[139.426634609699,35.6828187607271],[139.426819682121,35.6827860797076],[139.427490234375,35.6826662493028],[139.427527785301,35.6826575343643],[139.427828192711,35.6826074234677],[139.428210496262,35.6825569288679],[139.428488016129,35.6825202740824],[139.429177343845,35.6824461971049],[139.429359734058,35.6824527333088],[139.429973959923,35.6824113373507],[139.430073201656,35.6824091586161],[139.430148303509,35.6824026224122],[139.430569410324,35.6823764775966],[139.430969059467,35.6823481540464],[139.431116580963,35.6823394391079],[139.431231915951,35.682332902904],[139.431282146568,35.6823298235164],[139.431374073029,35.6823241879654],[139.431781768799,35.6823002218845],[139.431835412979,35.6829908807631],[139.431864917278,35.6833351208351],[139.431870281696,35.6834200914858],[139.431923859618,35.6836846983849],[139.431937336922,35.68375125915],[139.432007074356,35.6839996348981],[139.432028532028,35.684071533141],[139.432090222836,35.6842632403452],[139.432130455971,35.6843917713116],[139.432194828987,35.6845900139886],[139.432393312454,35.6850605680352],[139.432401359081,35.6851019593634],[139.432060718536,35.6851477076735],[139.432009756565,35.6851651356012],[139.431982934475,35.6851934559836],[139.431964159012,35.6852304903299],[139.431966841221,35.6852784171309],[139.431993663311,35.6853132729862],[139.432025849819,35.6853372363867],[139.432071447372,35.6853481288415],[139.432441592216,35.6853045590224],[139.43246036768,35.6854091265883],[139.432514005301,35.6855541504892],[139.432664215565,35.6859602848003],[139.43286806345,35.6863959829916],[139.433332085609,35.6863436992086],[139.433731734753,35.6862914154257],[139.434316456318,35.6862151682422],[139.435544908047,35.6860692093481],[139.435794353485,35.6860278180199],[139.436073303223,35.6859994976375],[139.436421990395,35.6859472138545],[139.43652177655,35.6859354014318],[139.436711441783,35.6859129493601],[139.437084496021,35.6858687881801],[139.437328577042,35.6858426462886],[139.437881112099,35.6857685775961],[139.437993764877,35.6857620421232],[139.4384765625,35.6856945089036],[139.438699185848,35.6856618315392],[139.439088106155,35.6856139047382],[139.439198339519,35.6856001306504],[139.439332187176,35.6855834058648],[139.439460933208,35.6855681564281],[139.439857900143,35.685524586609],[139.43978279829,35.6853089160043],[139.439755012199,35.6848956418524],[139.439739882946,35.684670618154],[139.439715743065,35.6844331626398],[139.439699649811,35.684071533141],[139.439696967602,35.683988741225],[139.4404104352,35.6837817614348],[139.440520405769,35.6837447229461],[139.440700113773,35.683685897111],[139.440796673298,35.6837447229461],[139.440842270851,35.6838427660045],[139.440987110138,35.6837991913119],[139.441129267216,35.6837185781305],[139.441164135933,35.6836553948261],[139.441067576408,35.6835595305023],[139.44160670042,35.6833743380585],[139.441665709019,35.6833460145083],[139.441692531109,35.6833351208351],[139.441794455051,35.6832871886732],[139.441944658756,35.6832174691649],[139.442384541035,35.6830562428021],[139.443095326424,35.6828035095847],[139.443642497063,35.6826161384062],[139.444090425968,35.6824505545741],[139.444165527821,35.6824222310239],[139.444380104542,35.6828274756656],[139.444516897202,35.6831063536986],[139.444637596607,35.6833351208351],[139.444660816449,35.6833817192712],[139.444728791714,35.6835181345443],[139.444908499718,35.6839212004513],[139.444484710693,35.684071533141],[139.444205760956,35.684171743725],[139.443865120411,35.6842784897819],[139.442794919014,35.6846640826812],[139.442671537399,35.684670618154],[139.4420170784,35.6849037166864],[139.441665709019,35.6850300691619],[139.441435039043,35.6851128518182],[139.441005885601,35.6852675246761],[139.440759122372,35.6853307009139],[139.439857900143,35.685524586609],[139.439460933208,35.6855681564281],[139.439332187176,35.6855834058648],[139.439198339519,35.6856001306504],[139.439088106155,35.6856139047382],[139.438699185848,35.6856618315392],[139.4384765625,35.6856945089036],[139.437993764877,35.6857620421232],[139.437881112099,35.6857685775961],[139.437328577042,35.6858426462886],[139.437084496021,35.6858687881801],[139.436711441783,35.6859129493601],[139.43652177655,35.6859354014318],[139.436421990395,35.6859472138545],[139.436073303223,35.6859994976375],[139.435794353485,35.6860278180199],[139.435544908047,35.6860692093481],[139.434316456318,35.6862151682422],[139.433731734753,35.6862914154257],[139.433332085609,35.6863436992086],[139.43286806345,35.6863959829916],[139.432664215565,35.6859602848003],[139.432514005301,35.6855541504892]]},"properties":{"id":"F012:2:SHP0003","feed_id":"F012","feed_slug":"kunitachi-aoyagikko","municipality":"国立市","service_name":"あおやぎっこ","license":"CC BY 4.0","source_route_id":"2","route_short_name":null,"route_long_name":"あおやぎっこ　緑川・矢川駅・市役所循環","route_desc":null,"route_type":3,"route_url":null,"route_color":"00B050","route_text_color":"FFFFFF","directions":["1"],"geometry_source":"shapes.txt"}}]}
