{"type":"FeatureCollection","name":"kunitachi-aoyagikko_stops","features":[{"type":"Feature","id":"F012:1_1","geometry":{"type":"Point","coordinates":[139.432573553187,35.6855394355244]},"properties":{"id":"F012:1_1","feed_id":"F012","feed_slug":"kunitachi-aoyagikko","municipality":"国立市","service_name":"あおやぎっこ","license":"CC BY 4.0","source_stop_id":"1_1","stop_code":null,"stop_name":"矢川駅","stop_desc":null,"zone_id":"1_1","location_type":0,"parent_station":null,"wheelchair_boarding":null}},{"type":"Feature","id":"F012:3_1","geometry":{"type":"Point","coordinates":[139.431274022925,35.6822412805871]},"properties":{"id":"F012:3_1","feed_id":"F012","feed_slug":"kunitachi-aoyagikko","municipality":"国立市","service_name":"あおやぎっこ","license":"CC BY 4.0","source_stop_id":"3_1","stop_code":null,"stop_name":"矢川駅入口","stop_desc":null,"zone_id":"3_1","location_type":0,"parent_station":null,"wheelchair_boarding":null}},{"type":"Feature","id":"F012:4_0","geometry":{"type":"Point","coordinates":[139.428200211393,35.6825048983449]},"properties":{"id":"F012:4_0","feed_id":"F012","feed_slug":"kunitachi-aoyagikko","municipality":"国立市","service_name":"あおやぎっこ","license":"CC BY 4.0","source_stop_id":"4_0","stop_code":null,"stop_name":"四軒在家福祉館","stop_desc":null,"zone_id":"4_0","location_type":0,"parent_station":null,"wheelchair_boarding":null}},{"type":"Feature","id":"F012:5_1","geometry":{"type":"Point","coordinates":[139.424386110178,35.6831977078104]},"properties":{"id":"F012:5_1","feed_id":"F012","feed_slug":"kunitachi-aoyagikko","municipality":"国立市","service_name":"あおやぎっこ","license":"CC BY 4.0","source_stop_id":"5_1","stop_code":null,"stop_name":"青柳福祉センター","stop_desc":null,"zone_id":"5_1","location_type":0,"parent_station":null,"wheelchair_boarding":null}},{"type":"Feature","id":"F012:6_0","geometry":{"type":"Point","coordinates":[139.421475913395,35.681775045396]},"properties":{"id":"F012:6_0","feed_id":"F012","feed_slug":"kunitachi-aoyagikko","municipality":"国立市","service_name":"あおやぎっこ","license":"CC BY 4.0","source_stop_id":"6_0","stop_code":null,"stop_name":"武蔵野の路","stop_desc":null,"zone_id":"6_0","location_type":0,"parent_station":null,"wheelchair_boarding":null}},{"type":"Feature","id":"F012:7_0","geometry":{"type":"Point","coordinates":[139.420335974562,35.6824613252215]},"properties":{"id":"F012:7_0","feed_id":"F012","feed_slug":"kunitachi-aoyagikko","municipality":"国立市","service_name":"あおやぎっこ","license":"CC BY 4.0","source_stop_id":"7_0","stop_code":null,"stop_name":"青柳南アパート東","stop_desc":null,"zone_id":"7_0","location_type":0,"parent_station":null,"wheelchair_boarding":null}},{"type":"Feature","id":"F012:8_1","geometry":{"type":"Point","coordinates":[139.421333756316,35.6850320987966]},"properties":{"id":"F012:8_1","feed_id":"F012","feed_slug":"kunitachi-aoyagikko","municipality":"国立市","service_name":"あおやぎっこ","license":"CC BY 4.0","source_stop_id":"8_1","stop_code":null,"stop_name":"青柳大通り南","stop_desc":null,"zone_id":"8_1","location_type":0,"parent_station":null,"wheelchair_boarding":null}},{"type":"Feature","id":"F012:9_0","geometry":{"type":"Point","coordinates":[139.421736087667,35.6860865277198]},"properties":{"id":"F012:9_0","feed_id":"F012","feed_slug":"kunitachi-aoyagikko","municipality":"国立市","service_name":"あおやぎっこ","license":"CC BY 4.0","source_stop_id":"9_0","stop_code":null,"stop_name":"緑川","stop_desc":null,"zone_id":"9_0","location_type":0,"parent_station":null,"wheelchair_boarding":null}},{"type":"Feature","id":"F012:10_0","geometry":{"type":"Point","coordinates":[139.423031594623,35.6859819568832]},"properties":{"id":"F012:10_0","feed_id":"F012","feed_slug":"kunitachi-aoyagikko","municipality":"国立市","service_name":"あおやぎっこ","license":"CC BY 4.0","source_stop_id":"10_0","stop_code":null,"stop_name":"緑川東公園","stop_desc":null,"zone_id":"10_0","location_type":0,"parent_station":null,"wheelchair_boarding":null}},{"type":"Feature","id":"F012:8_2","geometry":{"type":"Point","coordinates":[139.421639528141,35.6853610646887]},"properties":{"id":"F012:8_2","feed_id":"F012","feed_slug":"kunitachi-aoyagikko","municipality":"国立市","service_name":"あおやぎっこ","license":"CC BY 4.0","source_stop_id":"8_2","stop_code":null,"stop_name":"青柳大通り南","stop_desc":null,"zone_id":"8_2","location_type":0,"parent_station":null,"wheelchair_boarding":null}},{"type":"Feature","id":"F012:11_0","geometry":{"type":"Point","coordinates":[139.421858502631,35.6838871729842]},"properties":{"id":"F012:11_0","feed_id":"F012","feed_slug":"kunitachi-aoyagikko","municipality":"国立市","service_name":"あおやぎっこ","license":"CC BY 4.0","source_stop_id":"11_0","stop_code":null,"stop_name":"みのわ通り入口","stop_desc":null,"zone_id":"11_0","location_type":0,"parent_station":null,"wheelchair_boarding":null}},{"type":"Feature","id":"F012:5_2","geometry":{"type":"Point","coordinates":[139.425109339961,35.6832226917769]},"properties":{"id":"F012:5_2","feed_id":"F012","feed_slug":"kunitachi-aoyagikko","municipality":"国立市","service_name":"あおやぎっこ","license":"CC BY 4.0","source_stop_id":"5_2","stop_code":null,"stop_name":"青柳福祉センター","stop_desc":null,"zone_id":"5_2","location_type":0,"parent_station":null,"wheelchair_boarding":null}},{"type":"Feature","id":"F012:3_2","geometry":{"type":"Point","coordinates":[139.430937780158,35.6824253070246]},"properties":{"id":"F012:3_2","feed_id":"F012","feed_slug":"kunitachi-aoyagikko","municipality":"国立市","service_name":"あおやぎっこ","license":"CC BY 4.0","source_stop_id":"3_2","stop_code":null,"stop_name":"矢川駅入口","stop_desc":null,"zone_id":"3_2","location_type":0,"parent_station":null,"wheelchair_boarding":null}},{"type":"Feature","id":"F012:2_0","geometry":{"type":"Point","coordinates":[139.431860460053,35.6836932757534]},"properties":{"id":"F012:2_0","feed_id":"F012","feed_slug":"kunitachi-aoyagikko","municipality":"国立市","service_name":"あおやぎっこ","license":"CC BY 4.0","source_stop_id":"2_0","stop_code":null,"stop_name":"矢川駅南","stop_desc":null,"zone_id":"2_0","location_type":0,"parent_station":null,"wheelchair_boarding":null}},{"type":"Feature","id":"F012:1_2","geometry":{"type":"Point","coordinates":[139.431911422031,35.6851790828979]},"properties":{"id":"F012:1_2","feed_id":"F012","feed_slug":"kunitachi-aoyagikko","municipality":"国立市","service_name":"あおやぎっこ","license":"CC BY 4.0","source_stop_id":"1_2","stop_code":null,"stop_name":"矢川駅","stop_desc":null,"zone_id":"1_2","location_type":0,"parent_station":null,"wheelchair_boarding":null}},{"type":"Feature","id":"F012:12_1","geometry":{"type":"Point","coordinates":[139.43652750374,35.6859677258857]},"properties":{"id":"F012:12_1","feed_id":"F012","feed_slug":"kunitachi-aoyagikko","municipality":"国立市","service_name":"あおやぎっこ","license":"CC BY 4.0","source_stop_id":"12_1","stop_code":null,"stop_name":"第三団地・保健センター","stop_desc":null,"zone_id":"12_1","location_type":0,"parent_station":null,"wheelchair_boarding":null}},{"type":"Feature","id":"F012:13_1","geometry":{"type":"Point","coordinates":[139.439859241255,35.684890959673]},"properties":{"id":"F012:13_1","feed_id":"F012","feed_slug":"kunitachi-aoyagikko","municipality":"国立市","service_name":"あおやぎっこ","license":"CC BY 4.0","source_stop_id":"13_1","stop_code":null,"stop_name":"芸小・体育館","stop_desc":null,"zone_id":"13_1","location_type":0,"parent_station":null,"wheelchair_boarding":null}},{"type":"Feature","id":"F012:14_0","geometry":{"type":"Point","coordinates":[139.441028684375,35.6838583011262]},"properties":{"id":"F012:14_0","feed_id":"F012","feed_slug":"kunitachi-aoyagikko","municipality":"国立市","service_name":"あおやぎっこ","license":"CC BY 4.0","source_stop_id":"14_0","stop_code":null,"stop_name":"国立市役所","stop_desc":null,"zone_id":"14_0","location_type":0,"parent_station":null,"wheelchair_boarding":null}},{"type":"Feature","id":"F012:15_0","geometry":{"type":"Point","coordinates":[139.4446362555,35.6833898967503]},"properties":{"id":"F012:15_0","feed_id":"F012","feed_slug":"kunitachi-aoyagikko","municipality":"国立市","service_name":"あおやぎっこ","license":"CC BY 4.0","source_stop_id":"15_0","stop_code":null,"stop_name":"谷保駅西","stop_desc":null,"zone_id":"15_0","location_type":0,"parent_station":null,"wheelchair_boarding":null}},{"type":"Feature","id":"F012:13_2","geometry":{"type":"Point","coordinates":[139.439194053413,35.6855772127051]},"properties":{"id":"F012:13_2","feed_id":"F012","feed_slug":"kunitachi-aoyagikko","municipality":"国立市","service_name":"あおやぎっこ","license":"CC BY 4.0","source_stop_id":"13_2","stop_code":null,"stop_name":"芸小・体育館","stop_desc":null,"zone_id":"13_2","location_type":0,"parent_station":null,"wheelchair_boarding":null}},{"type":"Feature","id":"F012:12_2","geometry":{"type":"Point","coordinates":[139.436701847324,35.6858587977625]},"properties":{"id":"F012:12_2","feed_id":"F012","feed_slug":"kunitachi-aoyagikko","municipality":"国立市","service_name":"あおやぎっこ","license":"CC BY 4.0","source_stop_id":"12_2","stop_code":null,"stop_name":"第三団地・保健センター","stop_desc":null,"zone_id":"12_2","location_type":0,"parent_station":null,"wheelchair_boarding":null}}]}
