{"type":"FeatureCollection","name":"kozushima-village-bus_stops","features":[{"type":"Feature","id":"F028:1_0","geometry":{"type":"Point","coordinates":[139.136819,34.202246]},"properties":{"id":"F028:1_0","feed_id":"F028","feed_slug":"kozushima-village-bus","municipality":"神津島村","service_name":"村営バス","license":"CC BY 4.0","source_stop_id":"1_0","stop_code":null,"stop_name":"ホテル神津館前","stop_desc":null,"zone_id":"1_0","location_type":0,"parent_station":null,"wheelchair_boarding":null}},{"type":"Feature","id":"F028:2_0","geometry":{"type":"Point","coordinates":[139.145075,34.200733]},"properties":{"id":"F028:2_0","feed_id":"F028","feed_slug":"kozushima-village-bus","municipality":"神津島村","service_name":"村営バス","license":"CC BY 4.0","source_stop_id":"2_0","stop_code":null,"stop_name":"赤羽峠","stop_desc":null,"zone_id":"2_0","location_type":0,"parent_station":null,"wheelchair_boarding":null}},{"type":"Feature","id":"F028:3_0","geometry":{"type":"Point","coordinates":[139.134421,34.190364]},"properties":{"id":"F028:3_0","feed_id":"F028","feed_slug":"kozushima-village-bus","municipality":"神津島村","service_name":"村営バス","license":"CC BY 4.0","source_stop_id":"3_0","stop_code":null,"stop_name":"空港","stop_desc":null,"zone_id":"3_0","location_type":0,"parent_station":null,"wheelchair_boarding":null}},{"type":"Feature","id":"F028:4_0","geometry":{"type":"Point","coordinates":[139.152462,34.200769]},"properties":{"id":"F028:4_0","feed_id":"F028","feed_slug":"kozushima-village-bus","municipality":"神津島村","service_name":"村営バス","license":"CC BY 4.0","source_stop_id":"4_0","stop_code":null,"stop_name":"多幸湾キャンプ場入口","stop_desc":null,"zone_id":"4_0","location_type":0,"parent_station":null,"wheelchair_boarding":null}},{"type":"Feature","id":"F028:5_0","geometry":{"type":"Point","coordinates":[139.15332,34.201971]},"properties":{"id":"F028:5_0","feed_id":"F028","feed_slug":"kozushima-village-bus","municipality":"神津島村","service_name":"村営バス","license":"CC BY 4.0","source_stop_id":"5_0","stop_code":null,"stop_name":"多幸湾","stop_desc":null,"zone_id":"5_0","location_type":0,"parent_station":null,"wheelchair_boarding":null}},{"type":"Feature","id":"F028:6_0","geometry":{"type":"Point","coordinates":[139.152183,34.203803]},"properties":{"id":"F028:6_0","feed_id":"F028","feed_slug":"kozushima-village-bus","municipality":"神津島村","service_name":"村営バス","license":"CC BY 4.0","source_stop_id":"6_0","stop_code":null,"stop_name":"多幸湾キャンプ場","stop_desc":null,"zone_id":"6_0","location_type":0,"parent_station":null,"wheelchair_boarding":null}},{"type":"Feature","id":"F028:7_0","geometry":{"type":"Point","coordinates":[139.146743,34.210946]},"properties":{"id":"F028:7_0","feed_id":"F028","feed_slug":"kozushima-village-bus","municipality":"神津島村","service_name":"村営バス","license":"CC BY 4.0","source_stop_id":"7_0","stop_code":null,"stop_name":"黒島登山口入口","stop_desc":null,"zone_id":"7_0","location_type":0,"parent_station":null,"wheelchair_boarding":null}},{"type":"Feature","id":"F028:8_0","geometry":{"type":"Point","coordinates":[139.142355,34.213546]},"properties":{"id":"F028:8_0","feed_id":"F028","feed_slug":"kozushima-village-bus","municipality":"神津島村","service_name":"村営バス","license":"CC BY 4.0","source_stop_id":"8_0","stop_code":null,"stop_name":"白島登山口入口","stop_desc":null,"zone_id":"8_0","location_type":0,"parent_station":null,"wheelchair_boarding":null}},{"type":"Feature","id":"F028:9_0","geometry":{"type":"Point","coordinates":[139.140065,34.209815]},"properties":{"id":"F028:9_0","feed_id":"F028","feed_slug":"kozushima-village-bus","municipality":"神津島村","service_name":"村営バス","license":"CC BY 4.0","source_stop_id":"9_0","stop_code":null,"stop_name":"天神橋前","stop_desc":null,"zone_id":"9_0","location_type":0,"parent_station":null,"wheelchair_boarding":null}},{"type":"Feature","id":"F028:10_0","geometry":{"type":"Point","coordinates":[139.13735,34.208422]},"properties":{"id":"F028:10_0","feed_id":"F028","feed_slug":"kozushima-village-bus","municipality":"神津島村","service_name":"村営バス","license":"CC BY 4.0","source_stop_id":"10_0","stop_code":null,"stop_name":"千歳橋前","stop_desc":null,"zone_id":"10_0","location_type":0,"parent_station":null,"wheelchair_boarding":null}},{"type":"Feature","id":"F028:11_0","geometry":{"type":"Point","coordinates":[139.131492,34.207978]},"properties":{"id":"F028:11_0","feed_id":"F028","feed_slug":"kozushima-village-bus","municipality":"神津島村","service_name":"村営バス","license":"CC BY 4.0","source_stop_id":"11_0","stop_code":null,"stop_name":"神津島港","stop_desc":null,"zone_id":"11_0","location_type":0,"parent_station":null,"wheelchair_boarding":null}},{"type":"Feature","id":"F028:12_0","geometry":{"type":"Point","coordinates":[139.134142,34.217063]},"properties":{"id":"F028:12_0","feed_id":"F028","feed_slug":"kozushima-village-bus","municipality":"神津島村","service_name":"村営バス","license":"CC BY 4.0","source_stop_id":"12_0","stop_code":null,"stop_name":"沢尻海岸","stop_desc":null,"zone_id":"12_0","location_type":0,"parent_station":null,"wheelchair_boarding":null}},{"type":"Feature","id":"F028:13_0","geometry":{"type":"Point","coordinates":[139.133429,34.21886]},"properties":{"id":"F028:13_0","feed_id":"F028","feed_slug":"kozushima-village-bus","municipality":"神津島村","service_name":"村営バス","license":"CC BY 4.0","source_stop_id":"13_0","stop_code":null,"stop_name":"特養ホーム","stop_desc":null,"zone_id":"13_0","location_type":0,"parent_station":null,"wheelchair_boarding":null}},{"type":"Feature","id":"F028:14_0","geometry":{"type":"Point","coordinates":[139.129475,34.220909]},"properties":{"id":"F028:14_0","feed_id":"F028","feed_slug":"kozushima-village-bus","municipality":"神津島村","service_name":"村営バス","license":"CC BY 4.0","source_stop_id":"14_0","stop_code":null,"stop_name":"温泉保養センター","stop_desc":null,"zone_id":"14_0","location_type":0,"parent_station":null,"wheelchair_boarding":null}},{"type":"Feature","id":"F028:15_0","geometry":{"type":"Point","coordinates":[139.13779,34.227851]},"properties":{"id":"F028:15_0","feed_id":"F028","feed_slug":"kozushima-village-bus","municipality":"神津島村","service_name":"村営バス","license":"CC BY 4.0","source_stop_id":"15_0","stop_code":null,"stop_name":"長浜海岸","stop_desc":null,"zone_id":"15_0","location_type":0,"parent_station":null,"wheelchair_boarding":null}},{"type":"Feature","id":"F028:16_0","geometry":{"type":"Point","coordinates":[139.136267,34.236309]},"properties":{"id":"F028:16_0","feed_id":"F028","feed_slug":"kozushima-village-bus","municipality":"神津島村","service_name":"村営バス","license":"CC BY 4.0","source_stop_id":"16_0","stop_code":null,"stop_name":"ドンタクハウス前","stop_desc":null,"zone_id":"16_0","location_type":0,"parent_station":null,"wheelchair_boarding":null}},{"type":"Feature","id":"F028:17_0","geometry":{"type":"Point","coordinates":[139.137592,34.240038]},"properties":{"id":"F028:17_0","feed_id":"F028","feed_slug":"kozushima-village-bus","municipality":"神津島村","service_name":"村営バス","license":"CC BY 4.0","source_stop_id":"17_0","stop_code":null,"stop_name":"赤崎遊歩道","stop_desc":null,"zone_id":"17_0","location_type":0,"parent_station":null,"wheelchair_boarding":null}},{"type":"Feature","id":"F028:18_0","geometry":{"type":"Point","coordinates":[139.148417,34.220386]},"properties":{"id":"F028:18_0","feed_id":"F028","feed_slug":"kozushima-village-bus","municipality":"神津島村","service_name":"村営バス","license":"CC BY 4.0","source_stop_id":"18_0","stop_code":null,"stop_name":"天上山６合目","stop_desc":null,"zone_id":"18_0","location_type":0,"parent_station":null,"wheelchair_boarding":null}}]}
