{"type":"FeatureCollection","name":"shibuya-hachiko-bus_routes","features":[{"type":"Feature","id":"F001:10:fallback-0","geometry":{"type":"LineString","coordinates":[[139.6991212,35.6647111],[139.700679,35.666404],[139.701484,35.6648027],[139.7023729,35.6612689],[139.7004791,35.6585271],[139.7009831,35.6551837],[139.6977363,35.6554852],[139.7037139,35.658305],[139.7064657,35.6606348],[139.7089925,35.6597183],[139.7132283,35.6582309],[139.7124478,35.6565082],[139.7103639,35.6554576],[139.7082257,35.6539368],[139.7090958,35.6519244],[139.7078231,35.649478],[139.7111988,35.6472718],[139.71318,35.64711],[139.7164524,35.6478092],[139.7182267,35.6489217],[139.7204967,35.6477976],[139.7193642,35.6454697],[139.716734,35.6455112],[139.7145597,35.6437047],[139.7129276,35.6433346],[139.7101495,35.6435462],[139.7080249,35.6454891],[139.7071635,35.6471454],[139.7074295,35.6500585],[139.7065037,35.6517746],[139.7051958,35.6506704],[139.7038723,35.6486576],[139.7001341,35.6498316],[139.6992196,35.6508544],[139.6981844,35.6526116],[139.7009831,35.6551837],[139.6977363,35.6554852],[139.70063873,35.660011],[139.7007282,35.661847],[139.7012295,35.6637201],[139.701386,35.6649217],[139.7005628,35.6662133],[139.6991212,35.6647111]]},"properties":{"id":"F001:10:fallback-0","feed_id":"F001","feed_slug":"shibuya-hachiko-bus","municipality":"渋谷区","service_name":"ハチ公バス","license":"CC BY 4.0","source_route_id":"10","route_short_name":null,"route_long_name":"ハチ公バス　恵比寿・代官山循環　夕やけこやけルート","route_desc":null,"route_type":3,"route_url":null,"route_color":"FF0000","route_text_color":"FFFFFF","directions":["0"],"geometry_source":"stop_times.txt fallback"}},{"type":"Feature","id":"F001:20:fallback-0","geometry":{"type":"LineString","coordinates":[[139.6992193,35.6647487],[139.700679,35.666404],[139.7018256,35.6681818],[139.6979425,35.6682614],[139.6913225,35.6676033],[139.68767,35.67007],[139.68753,35.67239],[139.6847404,35.6748055],[139.6818675,35.6756312],[139.682826,35.6767358],[139.6815063,35.6790094],[139.6857628,35.6810372],[139.6850061,35.6822701],[139.6843984,35.6834113],[139.6857775,35.684864],[139.6841436,35.6868608],[139.681511,35.6876746],[139.6805758,35.6869162],[139.6788277,35.6855995],[139.6770389,35.6853311],[139.6749201,35.6837767],[139.6748507,35.6821244],[139.674533,35.6807999],[139.6717159,35.6789412],[139.6701696,35.6788073],[139.6706444,35.6767385],[139.6672459,35.6742407],[139.6643322,35.6734035],[139.6638559,35.675247],[139.6672241,35.6764731],[139.671219,35.6779153],[139.6738056,35.6788503],[139.6776488,35.6802232],[139.680891,35.6814072],[139.6827166,35.6824418],[139.6843984,35.6834113],[139.6872864,35.6816284],[139.6825478,35.6791208],[139.6818675,35.6756312],[139.6832303,35.6763672],[139.6861977,35.6742426],[139.6878628,35.6721638],[139.6880071,35.6694884],[139.6895341,35.6677777],[139.6971426,35.668458],[139.7020266,35.6684539],[139.7005628,35.6662133],[139.6992193,35.6647487]]},"properties":{"id":"F001:20:fallback-0","feed_id":"F001","feed_slug":"shibuya-hachiko-bus","municipality":"渋谷区","service_name":"ハチ公バス","license":"CC BY 4.0","source_route_id":"20","route_short_name":null,"route_long_name":"ハチ公バス　本町・笹塚循環　春の小川ルート","route_desc":null,"route_type":3,"route_url":null,"route_color":"FFCC33","route_text_color":"000000","directions":["0"],"geometry_source":"stop_times.txt fallback"}},{"type":"Feature","id":"F001:30:fallback-0","geometry":{"type":"LineString","coordinates":[[139.70063873,35.660011],[139.7007282,35.661847],[139.7012295,35.6637201],[139.6994481,35.6649178],[139.700679,35.666404],[139.7018256,35.6681818],[139.7020715,35.6694501],[139.7038818,35.6693025],[139.7067353,35.667983],[139.7089515,35.6669539],[139.712895,35.6658019],[139.7151849,35.6683822],[139.7125738,35.6719322],[139.7107846,35.6725756],[139.7095592,35.6731888],[139.7109541,35.6748196],[139.7125225,35.6765645],[139.7102958,35.6779671],[139.7109386,35.6808103],[139.7081801,35.6811651],[139.7056919,35.6807995],[139.7016748,35.680303],[139.693676,35.6801111],[139.6949819,35.6820396],[139.6992205,35.6821969],[139.7019902,35.6821971],[139.7053052,35.6807123],[139.70742,35.6812417],[139.7113568,35.6802504],[139.7098532,35.6780394],[139.7103524,35.6764785],[139.7110715,35.6748147],[139.7093578,35.6727247],[139.7107807,35.6726863],[139.7130525,35.6714339],[139.7157899,35.6686469],[139.7147425,35.6674028],[139.7103382,35.6660888],[139.708162,35.6670996],[139.7067863,35.667731],[139.7048709,35.6686256],[139.702197,35.6695631],[139.7020266,35.6684539],[139.7005628,35.6662133],[139.6994481,35.6649178],[139.700679,35.666404],[139.701484,35.6648027],[139.7009116,35.6627234],[139.7004791,35.6585271]]},"properties":{"id":"F001:30:fallback-0","feed_id":"F001","feed_slug":"shibuya-hachiko-bus","municipality":"渋谷区","service_name":"ハチ公バス","license":"CC BY 4.0","source_route_id":"30","route_short_name":null,"route_long_name":"ハチ公バス　神宮の杜（もり）ルート（神宮前・千駄ヶ谷ルート）","route_desc":null,"route_type":3,"route_url":null,"route_color":"0066FF","route_text_color":"FFFFFF","directions":["0"],"geometry_source":"stop_times.txt fallback"}},{"type":"Feature","id":"F001:40:fallback-0","geometry":{"type":"LineString","coordinates":[[139.70063873,35.660011],[139.7023729,35.6612689],[139.6960069,35.6601656],[139.6930231,35.6587077],[139.6903045,35.6583399],[139.6878215,35.6613907],[139.6876486,35.6643472],[139.6877753,35.6658744],[139.6863045,35.6678097],[139.6835403,35.6679422],[139.6804123,35.6680853],[139.6797113,35.6691758],[139.681307,35.6682253],[139.679276,35.6657022],[139.679266,35.6641108],[139.6854183,35.6643443],[139.686617,35.6650257],[139.6895341,35.6677777],[139.6921705,35.6659908],[139.6930707,35.6648238],[139.6967879,35.6607594],[139.70063873,35.660011]]},"properties":{"id":"F001:40:fallback-0","feed_id":"F001","feed_slug":"shibuya-hachiko-bus","municipality":"渋谷区","service_name":"ハチ公バス","license":"CC BY 4.0","source_route_id":"40","route_short_name":null,"route_long_name":"ハチ公バス　丘を越えてルート（上原・富ヶ谷ルート）","route_desc":null,"route_type":3,"route_url":null,"route_color":"FF6600","route_text_color":"FFFFFF","directions":["0"],"geometry_source":"stop_times.txt fallback"}}]}
