{"type":"FeatureCollection","name":"shibuya-hachiko-bus_stops","features":[{"type":"Feature","id":"F001:1_01","geometry":{"type":"Point","coordinates":[139.6994481,35.6649178]},"properties":{"id":"F001:1_01","feed_id":"F001","feed_slug":"shibuya-hachiko-bus","municipality":"渋谷区","service_name":"ハチ公バス","license":"CC BY 4.0","source_stop_id":"1_01","stop_code":null,"stop_name":"渋谷区役所","stop_desc":null,"zone_id":"1_01","location_type":0,"parent_station":null,"wheelchair_boarding":null}},{"type":"Feature","id":"F001:1_02","geometry":{"type":"Point","coordinates":[139.6992193,35.6647487]},"properties":{"id":"F001:1_02","feed_id":"F001","feed_slug":"shibuya-hachiko-bus","municipality":"渋谷区","service_name":"ハチ公バス","license":"CC BY 4.0","source_stop_id":"1_02","stop_code":null,"stop_name":"渋谷区役所","stop_desc":null,"zone_id":"1_02","location_type":0,"parent_station":null,"wheelchair_boarding":null}},{"type":"Feature","id":"F001:1_03","geometry":{"type":"Point","coordinates":[139.6991212,35.6647111]},"properties":{"id":"F001:1_03","feed_id":"F001","feed_slug":"shibuya-hachiko-bus","municipality":"渋谷区","service_name":"ハチ公バス","license":"CC BY 4.0","source_stop_id":"1_03","stop_code":null,"stop_name":"渋谷区役所","stop_desc":null,"zone_id":"1_03","location_type":0,"parent_station":null,"wheelchair_boarding":null}},{"type":"Feature","id":"F001:10_01","geometry":{"type":"Point","coordinates":[139.6977363,35.6554852]},"properties":{"id":"F001:10_01","feed_id":"F001","feed_slug":"shibuya-hachiko-bus","municipality":"渋谷区","service_name":"ハチ公バス","license":"CC BY 4.0","source_stop_id":"10_01","stop_code":null,"stop_name":"ＪＴ前","stop_desc":null,"zone_id":"10_01","location_type":0,"parent_station":null,"wheelchair_boarding":null}},{"type":"Feature","id":"F001:100_01","geometry":{"type":"Point","coordinates":[139.7102958,35.6779671]},"properties":{"id":"F001:100_01","feed_id":"F001","feed_slug":"shibuya-hachiko-bus","municipality":"渋谷区","service_name":"ハチ公バス","license":"CC BY 4.0","source_stop_id":"100_01","stop_code":null,"stop_name":"千駄ヶ谷社会教育館","stop_desc":null,"zone_id":"100_01","location_type":0,"parent_station":null,"wheelchair_boarding":null}},{"type":"Feature","id":"F001:100_02","geometry":{"type":"Point","coordinates":[139.7098532,35.6780394]},"properties":{"id":"F001:100_02","feed_id":"F001","feed_slug":"shibuya-hachiko-bus","municipality":"渋谷区","service_name":"ハチ公バス","license":"CC BY 4.0","source_stop_id":"100_02","stop_code":null,"stop_name":"千駄ヶ谷社会教育館","stop_desc":null,"zone_id":"100_02","location_type":0,"parent_station":null,"wheelchair_boarding":null}},{"type":"Feature","id":"F001:101_01","geometry":{"type":"Point","coordinates":[139.7109386,35.6808103]},"properties":{"id":"F001:101_01","feed_id":"F001","feed_slug":"shibuya-hachiko-bus","municipality":"渋谷区","service_name":"ハチ公バス","license":"CC BY 4.0","source_stop_id":"101_01","stop_code":null,"stop_name":"千駄ヶ谷駅（東京体育館）","stop_desc":null,"zone_id":"101_01","location_type":0,"parent_station":null,"wheelchair_boarding":null}},{"type":"Feature","id":"F001:101_02","geometry":{"type":"Point","coordinates":[139.7113568,35.6802504]},"properties":{"id":"F001:101_02","feed_id":"F001","feed_slug":"shibuya-hachiko-bus","municipality":"渋谷区","service_name":"ハチ公バス","license":"CC BY 4.0","source_stop_id":"101_02","stop_code":null,"stop_name":"千駄ヶ谷駅（東京体育館）","stop_desc":null,"zone_id":"101_02","location_type":0,"parent_station":null,"wheelchair_boarding":null}},{"type":"Feature","id":"F001:102_01","geometry":{"type":"Point","coordinates":[139.7081801,35.6811651]},"properties":{"id":"F001:102_01","feed_id":"F001","feed_slug":"shibuya-hachiko-bus","municipality":"渋谷区","service_name":"ハチ公バス","license":"CC BY 4.0","source_stop_id":"102_01","stop_code":null,"stop_name":"国立能楽堂","stop_desc":null,"zone_id":"102_01","location_type":0,"parent_station":null,"wheelchair_boarding":null}},{"type":"Feature","id":"F001:102_02","geometry":{"type":"Point","coordinates":[139.70742,35.6812417]},"properties":{"id":"F001:102_02","feed_id":"F001","feed_slug":"shibuya-hachiko-bus","municipality":"渋谷区","service_name":"ハチ公バス","license":"CC BY 4.0","source_stop_id":"102_02","stop_code":null,"stop_name":"国立能楽堂","stop_desc":null,"zone_id":"102_02","location_type":0,"parent_station":null,"wheelchair_boarding":null}},{"type":"Feature","id":"F001:103_01","geometry":{"type":"Point","coordinates":[139.7056919,35.6807995]},"properties":{"id":"F001:103_01","feed_id":"F001","feed_slug":"shibuya-hachiko-bus","municipality":"渋谷区","service_name":"ハチ公バス","license":"CC BY 4.0","source_stop_id":"103_01","stop_code":null,"stop_name":"北参道交差点","stop_desc":null,"zone_id":"103_01","location_type":0,"parent_station":null,"wheelchair_boarding":null}},{"type":"Feature","id":"F001:103_02","geometry":{"type":"Point","coordinates":[139.7053052,35.6807123]},"properties":{"id":"F001:103_02","feed_id":"F001","feed_slug":"shibuya-hachiko-bus","municipality":"渋谷区","service_name":"ハチ公バス","license":"CC BY 4.0","source_stop_id":"103_02","stop_code":null,"stop_name":"北参道交差点","stop_desc":null,"zone_id":"103_02","location_type":0,"parent_station":null,"wheelchair_boarding":null}},{"type":"Feature","id":"F001:104_01","geometry":{"type":"Point","coordinates":[139.7016748,35.680303]},"properties":{"id":"F001:104_01","feed_id":"F001","feed_slug":"shibuya-hachiko-bus","municipality":"渋谷区","service_name":"ハチ公バス","license":"CC BY 4.0","source_stop_id":"104_01","stop_code":null,"stop_name":"北参道入口","stop_desc":null,"zone_id":"104_01","location_type":0,"parent_station":null,"wheelchair_boarding":null}},{"type":"Feature","id":"F001:105_01","geometry":{"type":"Point","coordinates":[139.693676,35.6801111]},"properties":{"id":"F001:105_01","feed_id":"F001","feed_slug":"shibuya-hachiko-bus","municipality":"渋谷区","service_name":"ハチ公バス","license":"CC BY 4.0","source_stop_id":"105_01","stop_code":null,"stop_name":"参宮橋（駒テラス西参道）","stop_desc":null,"zone_id":"105_01","location_type":0,"parent_station":null,"wheelchair_boarding":null}},{"type":"Feature","id":"F001:106_01","geometry":{"type":"Point","coordinates":[139.6949819,35.6820396]},"properties":{"id":"F001:106_01","feed_id":"F001","feed_slug":"shibuya-hachiko-bus","municipality":"渋谷区","service_name":"ハチ公バス","license":"CC BY 4.0","source_stop_id":"106_01","stop_code":null,"stop_name":"代々木区民会館","stop_desc":null,"zone_id":"106_01","location_type":0,"parent_station":null,"wheelchair_boarding":null}},{"type":"Feature","id":"F001:107_01","geometry":{"type":"Point","coordinates":[139.6992205,35.6821969]},"properties":{"id":"F001:107_01","feed_id":"F001","feed_slug":"shibuya-hachiko-bus","municipality":"渋谷区","service_name":"ハチ公バス","license":"CC BY 4.0","source_stop_id":"107_01","stop_code":null,"stop_name":"代々木一丁目","stop_desc":null,"zone_id":"107_01","location_type":0,"parent_station":null,"wheelchair_boarding":null}},{"type":"Feature","id":"F001:108_01","geometry":{"type":"Point","coordinates":[139.7019902,35.6821971]},"properties":{"id":"F001:108_01","feed_id":"F001","feed_slug":"shibuya-hachiko-bus","municipality":"渋谷区","service_name":"ハチ公バス","license":"CC BY 4.0","source_stop_id":"108_01","stop_code":null,"stop_name":"代々木駅","stop_desc":null,"zone_id":"108_01","location_type":0,"parent_station":null,"wheelchair_boarding":null}},{"type":"Feature","id":"F001:109_01","geometry":{"type":"Point","coordinates":[139.7103524,35.6764785]},"properties":{"id":"F001:109_01","feed_id":"F001","feed_slug":"shibuya-hachiko-bus","municipality":"渋谷区","service_name":"ハチ公バス","license":"CC BY 4.0","source_stop_id":"109_01","stop_code":null,"stop_name":"千駄ヶ谷二丁目","stop_desc":null,"zone_id":"109_01","location_type":0,"parent_station":null,"wheelchair_boarding":null}},{"type":"Feature","id":"F001:11_01","geometry":{"type":"Point","coordinates":[139.7064657,35.6606348]},"properties":{"id":"F001:11_01","feed_id":"F001","feed_slug":"shibuya-hachiko-bus","municipality":"渋谷区","service_name":"ハチ公バス","license":"CC BY 4.0","source_stop_id":"11_01","stop_code":null,"stop_name":"渋谷２丁目","stop_desc":null,"zone_id":"11_01","location_type":0,"parent_station":null,"wheelchair_boarding":null}},{"type":"Feature","id":"F001:110_01","geometry":{"type":"Point","coordinates":[139.7009116,35.6627234]},"properties":{"id":"F001:110_01","feed_id":"F001","feed_slug":"shibuya-hachiko-bus","municipality":"渋谷区","service_name":"ハチ公バス","license":"CC BY 4.0","source_stop_id":"110_01","stop_code":null,"stop_name":"宮下公園","stop_desc":null,"zone_id":"110_01","location_type":0,"parent_station":null,"wheelchair_boarding":null}},{"type":"Feature","id":"F001:12_01","geometry":{"type":"Point","coordinates":[139.7089925,35.6597183]},"properties":{"id":"F001:12_01","feed_id":"F001","feed_slug":"shibuya-hachiko-bus","municipality":"渋谷区","service_name":"ハチ公バス","license":"CC BY 4.0","source_stop_id":"12_01","stop_code":null,"stop_name":"青山学院西門","stop_desc":null,"zone_id":"12_01","location_type":0,"parent_station":null,"wheelchair_boarding":null}},{"type":"Feature","id":"F001:13_01","geometry":{"type":"Point","coordinates":[139.7132283,35.6582309]},"properties":{"id":"F001:13_01","feed_id":"F001","feed_slug":"shibuya-hachiko-bus","municipality":"渋谷区","service_name":"ハチ公バス","license":"CC BY 4.0","source_stop_id":"13_01","stop_code":null,"stop_name":"渋谷４丁目","stop_desc":null,"zone_id":"13_01","location_type":0,"parent_station":null,"wheelchair_boarding":null}},{"type":"Feature","id":"F001:14_01","geometry":{"type":"Point","coordinates":[139.7124478,35.6565082]},"properties":{"id":"F001:14_01","feed_id":"F001","feed_slug":"shibuya-hachiko-bus","municipality":"渋谷区","service_name":"ハチ公バス","license":"CC BY 4.0","source_stop_id":"14_01","stop_code":null,"stop_name":"郷土博物館・文学館","stop_desc":null,"zone_id":"14_01","location_type":0,"parent_station":null,"wheelchair_boarding":null}},{"type":"Feature","id":"F001:15_01","geometry":{"type":"Point","coordinates":[139.7103639,35.6554576]},"properties":{"id":"F001:15_01","feed_id":"F001","feed_slug":"shibuya-hachiko-bus","municipality":"渋谷区","service_name":"ハチ公バス","license":"CC BY 4.0","source_stop_id":"15_01","stop_code":null,"stop_name":"区立常磐松小学校前","stop_desc":null,"zone_id":"15_01","location_type":0,"parent_station":null,"wheelchair_boarding":null}},{"type":"Feature","id":"F001:16_01","geometry":{"type":"Point","coordinates":[139.7082257,35.6539368]},"properties":{"id":"F001:16_01","feed_id":"F001","feed_slug":"shibuya-hachiko-bus","municipality":"渋谷区","service_name":"ハチ公バス","license":"CC BY 4.0","source_stop_id":"16_01","stop_code":null,"stop_name":"渋谷車庫前","stop_desc":null,"zone_id":"16_01","location_type":0,"parent_station":null,"wheelchair_boarding":null}},{"type":"Feature","id":"F001:17_01","geometry":{"type":"Point","coordinates":[139.7090958,35.6519244]},"properties":{"id":"F001:17_01","feed_id":"F001","feed_slug":"shibuya-hachiko-bus","municipality":"渋谷区","service_name":"ハチ公バス","license":"CC BY 4.0","source_stop_id":"17_01","stop_code":null,"stop_name":"東２丁目","stop_desc":null,"zone_id":"17_01","location_type":0,"parent_station":null,"wheelchair_boarding":null}},{"type":"Feature","id":"F001:18_01","geometry":{"type":"Point","coordinates":[139.7078231,35.649478]},"properties":{"id":"F001:18_01","feed_id":"F001","feed_slug":"shibuya-hachiko-bus","municipality":"渋谷区","service_name":"ハチ公バス","license":"CC BY 4.0","source_stop_id":"18_01","stop_code":null,"stop_name":"恵比寿区民施設","stop_desc":null,"zone_id":"18_01","location_type":0,"parent_station":null,"wheelchair_boarding":null}},{"type":"Feature","id":"F001:18_02","geometry":{"type":"Point","coordinates":[139.7074295,35.6500585]},"properties":{"id":"F001:18_02","feed_id":"F001","feed_slug":"shibuya-hachiko-bus","municipality":"渋谷区","service_name":"ハチ公バス","license":"CC BY 4.0","source_stop_id":"18_02","stop_code":null,"stop_name":"恵比寿区民施設","stop_desc":null,"zone_id":"18_02","location_type":0,"parent_station":null,"wheelchair_boarding":null}},{"type":"Feature","id":"F001:19_01","geometry":{"type":"Point","coordinates":[139.7111988,35.6472718]},"properties":{"id":"F001:19_01","feed_id":"F001","feed_slug":"shibuya-hachiko-bus","municipality":"渋谷区","service_name":"ハチ公バス","license":"CC BY 4.0","source_stop_id":"19_01","stop_code":null,"stop_name":"恵比寿駅東口","stop_desc":null,"zone_id":"19_01","location_type":0,"parent_station":null,"wheelchair_boarding":null}},{"type":"Feature","id":"F001:2_01","geometry":{"type":"Point","coordinates":[139.7004791,35.6585271]},"properties":{"id":"F001:2_01","feed_id":"F001","feed_slug":"shibuya-hachiko-bus","municipality":"渋谷区","service_name":"ハチ公バス","license":"CC BY 4.0","source_stop_id":"2_01","stop_code":null,"stop_name":"渋谷駅ハチ公口","stop_desc":null,"zone_id":"2_01","location_type":0,"parent_station":null,"wheelchair_boarding":null}},{"type":"Feature","id":"F001:20_01","geometry":{"type":"Point","coordinates":[139.71318,35.64711]},"properties":{"id":"F001:20_01","feed_id":"F001","feed_slug":"shibuya-hachiko-bus","municipality":"渋谷区","service_name":"ハチ公バス","license":"CC BY 4.0","source_stop_id":"20_01","stop_code":null,"stop_name":"恵比寿１丁目","stop_desc":null,"zone_id":"20_01","location_type":0,"parent_station":null,"wheelchair_boarding":null}},{"type":"Feature","id":"F001:21_01","geometry":{"type":"Point","coordinates":[139.7164524,35.6478092]},"properties":{"id":"F001:21_01","feed_id":"F001","feed_slug":"shibuya-hachiko-bus","municipality":"渋谷区","service_name":"ハチ公バス","license":"CC BY 4.0","source_stop_id":"21_01","stop_code":null,"stop_name":"新橋区民施設","stop_desc":null,"zone_id":"21_01","location_type":0,"parent_station":null,"wheelchair_boarding":null}},{"type":"Feature","id":"F001:22_01","geometry":{"type":"Point","coordinates":[139.7192643,35.646789]},"properties":{"id":"F001:22_01","feed_id":"F001","feed_slug":"shibuya-hachiko-bus","municipality":"渋谷区","service_name":"ハチ公バス","license":"CC BY 4.0","source_stop_id":"22_01","stop_code":null,"stop_name":"豊沢児童遊園地","stop_desc":null,"zone_id":"22_01","location_type":0,"parent_station":null,"wheelchair_boarding":null}},{"type":"Feature","id":"F001:23_01","geometry":{"type":"Point","coordinates":[139.7182267,35.6489217]},"properties":{"id":"F001:23_01","feed_id":"F001","feed_slug":"shibuya-hachiko-bus","municipality":"渋谷区","service_name":"ハチ公バス","license":"CC BY 4.0","source_stop_id":"23_01","stop_code":null,"stop_name":"広尾１丁目","stop_desc":null,"zone_id":"23_01","location_type":0,"parent_station":null,"wheelchair_boarding":null}},{"type":"Feature","id":"F001:24_01","geometry":{"type":"Point","coordinates":[139.7204967,35.6477976]},"properties":{"id":"F001:24_01","feed_id":"F001","feed_slug":"shibuya-hachiko-bus","municipality":"渋谷区","service_name":"ハチ公バス","license":"CC BY 4.0","source_stop_id":"24_01","stop_code":null,"stop_name":"新豊沢橋","stop_desc":null,"zone_id":"24_01","location_type":0,"parent_station":null,"wheelchair_boarding":null}},{"type":"Feature","id":"F001:25_01","geometry":{"type":"Point","coordinates":[139.7193642,35.6454697]},"properties":{"id":"F001:25_01","feed_id":"F001","feed_slug":"shibuya-hachiko-bus","municipality":"渋谷区","service_name":"ハチ公バス","license":"CC BY 4.0","source_stop_id":"25_01","stop_code":null,"stop_name":"恵比寿社会教育館","stop_desc":null,"zone_id":"25_01","location_type":0,"parent_station":null,"wheelchair_boarding":null}},{"type":"Feature","id":"F001:26_01","geometry":{"type":"Point","coordinates":[139.716734,35.6455112]},"properties":{"id":"F001:26_01","feed_id":"F001","feed_slug":"shibuya-hachiko-bus","municipality":"渋谷区","service_name":"ハチ公バス","license":"CC BY 4.0","source_stop_id":"26_01","stop_code":null,"stop_name":"恵比寿４丁目","stop_desc":null,"zone_id":"26_01","location_type":0,"parent_station":null,"wheelchair_boarding":null}},{"type":"Feature","id":"F001:27_01","geometry":{"type":"Point","coordinates":[139.7145597,35.6437047]},"properties":{"id":"F001:27_01","feed_id":"F001","feed_slug":"shibuya-hachiko-bus","municipality":"渋谷区","service_name":"ハチ公バス","license":"CC BY 4.0","source_stop_id":"27_01","stop_code":null,"stop_name":"加計塚小学校","stop_desc":null,"zone_id":"27_01","location_type":0,"parent_station":null,"wheelchair_boarding":null}},{"type":"Feature","id":"F001:28_01","geometry":{"type":"Point","coordinates":[139.7129276,35.6433346]},"properties":{"id":"F001:28_01","feed_id":"F001","feed_slug":"shibuya-hachiko-bus","municipality":"渋谷区","service_name":"ハチ公バス","license":"CC BY 4.0","source_stop_id":"28_01","stop_code":null,"stop_name":"恵比寿ガーデンプレイス","stop_desc":null,"zone_id":"28_01","location_type":0,"parent_station":null,"wheelchair_boarding":null}},{"type":"Feature","id":"F001:29_01","geometry":{"type":"Point","coordinates":[139.7101495,35.6435462]},"properties":{"id":"F001:29_01","feed_id":"F001","feed_slug":"shibuya-hachiko-bus","municipality":"渋谷区","service_name":"ハチ公バス","license":"CC BY 4.0","source_stop_id":"29_01","stop_code":null,"stop_name":"恵比寿南１丁目","stop_desc":null,"zone_id":"29_01","location_type":0,"parent_station":null,"wheelchair_boarding":null}},{"type":"Feature","id":"F001:3_01","geometry":{"type":"Point","coordinates":[139.7037139,35.658305]},"properties":{"id":"F001:3_01","feed_id":"F001","feed_slug":"shibuya-hachiko-bus","municipality":"渋谷区","service_name":"ハチ公バス","license":"CC BY 4.0","source_stop_id":"3_01","stop_code":null,"stop_name":"渋谷駅東口","stop_desc":null,"zone_id":"3_01","location_type":0,"parent_station":null,"wheelchair_boarding":null}},{"type":"Feature","id":"F001:30_01","geometry":{"type":"Point","coordinates":[139.7080249,35.6454891]},"properties":{"id":"F001:30_01","feed_id":"F001","feed_slug":"shibuya-hachiko-bus","municipality":"渋谷区","service_name":"ハチ公バス","license":"CC BY 4.0","source_stop_id":"30_01","stop_code":null,"stop_name":"恵比寿駅入口","stop_desc":null,"zone_id":"30_01","location_type":0,"parent_station":null,"wheelchair_boarding":null}},{"type":"Feature","id":"F001:31_01","geometry":{"type":"Point","coordinates":[139.7071635,35.6471454]},"properties":{"id":"F001:31_01","feed_id":"F001","feed_slug":"shibuya-hachiko-bus","municipality":"渋谷区","service_name":"ハチ公バス","license":"CC BY 4.0","source_stop_id":"31_01","stop_code":null,"stop_name":"恵比寿公園","stop_desc":null,"zone_id":"31_01","location_type":0,"parent_station":null,"wheelchair_boarding":null}},{"type":"Feature","id":"F001:32_01","geometry":{"type":"Point","coordinates":[139.7065037,35.6517746]},"properties":{"id":"F001:32_01","feed_id":"F001","feed_slug":"shibuya-hachiko-bus","municipality":"渋谷区","service_name":"ハチ公バス","license":"CC BY 4.0","source_stop_id":"32_01","stop_code":null,"stop_name":"恵比寿西２丁目","stop_desc":null,"zone_id":"32_01","location_type":0,"parent_station":null,"wheelchair_boarding":null}},{"type":"Feature","id":"F001:33_01","geometry":{"type":"Point","coordinates":[139.7051958,35.6506704]},"properties":{"id":"F001:33_01","feed_id":"F001","feed_slug":"shibuya-hachiko-bus","municipality":"渋谷区","service_name":"ハチ公バス","license":"CC BY 4.0","source_stop_id":"33_01","stop_code":null,"stop_name":"代官山保育園・ログロード代官山","stop_desc":null,"zone_id":"33_01","location_type":0,"parent_station":null,"wheelchair_boarding":null}},{"type":"Feature","id":"F001:34_01","geometry":{"type":"Point","coordinates":[139.7038723,35.6486576]},"properties":{"id":"F001:34_01","feed_id":"F001","feed_slug":"shibuya-hachiko-bus","municipality":"渋谷区","service_name":"ハチ公バス","license":"CC BY 4.0","source_stop_id":"34_01","stop_code":null,"stop_name":"代官山駅","stop_desc":null,"zone_id":"34_01","location_type":0,"parent_station":null,"wheelchair_boarding":null}},{"type":"Feature","id":"F001:35_01","geometry":{"type":"Point","coordinates":[139.7001341,35.6498316]},"properties":{"id":"F001:35_01","feed_id":"F001","feed_slug":"shibuya-hachiko-bus","municipality":"渋谷区","service_name":"ハチ公バス","license":"CC BY 4.0","source_stop_id":"35_01","stop_code":null,"stop_name":"猿楽トレーニングジム入口・代官山Ｔサイト","stop_desc":null,"zone_id":"35_01","location_type":0,"parent_station":null,"wheelchair_boarding":null}},{"type":"Feature","id":"F001:36_01","geometry":{"type":"Point","coordinates":[139.6992196,35.6508544]},"properties":{"id":"F001:36_01","feed_id":"F001","feed_slug":"shibuya-hachiko-bus","municipality":"渋谷区","service_name":"ハチ公バス","license":"CC BY 4.0","source_stop_id":"36_01","stop_code":null,"stop_name":"都立一商","stop_desc":null,"zone_id":"36_01","location_type":0,"parent_station":null,"wheelchair_boarding":null}},{"type":"Feature","id":"F001:37_01","geometry":{"type":"Point","coordinates":[139.6981844,35.6526116]},"properties":{"id":"F001:37_01","feed_id":"F001","feed_slug":"shibuya-hachiko-bus","municipality":"渋谷区","service_name":"ハチ公バス","license":"CC BY 4.0","source_stop_id":"37_01","stop_code":null,"stop_name":"鉢山町交番","stop_desc":null,"zone_id":"37_01","location_type":0,"parent_station":null,"wheelchair_boarding":null}},{"type":"Feature","id":"F001:38_01","geometry":{"type":"Point","coordinates":[139.7007282,35.661847]},"properties":{"id":"F001:38_01","feed_id":"F001","feed_slug":"shibuya-hachiko-bus","municipality":"渋谷区","service_name":"ハチ公バス","license":"CC BY 4.0","source_stop_id":"38_01","stop_code":null,"stop_name":"神南郵便局","stop_desc":null,"zone_id":"38_01","location_type":0,"parent_station":null,"wheelchair_boarding":null}},{"type":"Feature","id":"F001:39_01","geometry":{"type":"Point","coordinates":[139.7012295,35.6637201]},"properties":{"id":"F001:39_01","feed_id":"F001","feed_slug":"shibuya-hachiko-bus","municipality":"渋谷区","service_name":"ハチ公バス","license":"CC BY 4.0","source_stop_id":"39_01","stop_code":null,"stop_name":"消防署入口","stop_desc":null,"zone_id":"39_01","location_type":0,"parent_station":null,"wheelchair_boarding":null}},{"type":"Feature","id":"F001:4_01","geometry":{"type":"Point","coordinates":[139.70063873,35.660011]},"properties":{"id":"F001:4_01","feed_id":"F001","feed_slug":"shibuya-hachiko-bus","municipality":"渋谷区","service_name":"ハチ公バス","license":"CC BY 4.0","source_stop_id":"4_01","stop_code":null,"stop_name":"渋谷駅西口","stop_desc":null,"zone_id":"4_01","location_type":0,"parent_station":null,"wheelchair_boarding":null}},{"type":"Feature","id":"F001:40_01","geometry":{"type":"Point","coordinates":[139.7018256,35.6681818]},"properties":{"id":"F001:40_01","feed_id":"F001","feed_slug":"shibuya-hachiko-bus","municipality":"渋谷区","service_name":"ハチ公バス","license":"CC BY 4.0","source_stop_id":"40_01","stop_code":null,"stop_name":"原宿駅入口","stop_desc":null,"zone_id":"40_01","location_type":0,"parent_station":null,"wheelchair_boarding":null}},{"type":"Feature","id":"F001:40_02","geometry":{"type":"Point","coordinates":[139.7020266,35.6684539]},"properties":{"id":"F001:40_02","feed_id":"F001","feed_slug":"shibuya-hachiko-bus","municipality":"渋谷区","service_name":"ハチ公バス","license":"CC BY 4.0","source_stop_id":"40_02","stop_code":null,"stop_name":"原宿駅入口","stop_desc":null,"zone_id":"40_02","location_type":0,"parent_station":null,"wheelchair_boarding":null}},{"type":"Feature","id":"F001:41_01","geometry":{"type":"Point","coordinates":[139.6979425,35.6682614]},"properties":{"id":"F001:41_01","feed_id":"F001","feed_slug":"shibuya-hachiko-bus","municipality":"渋谷区","service_name":"ハチ公バス","license":"CC BY 4.0","source_stop_id":"41_01","stop_code":null,"stop_name":"代々木公園","stop_desc":null,"zone_id":"41_01","location_type":0,"parent_station":null,"wheelchair_boarding":null}},{"type":"Feature","id":"F001:41_02","geometry":{"type":"Point","coordinates":[139.6971426,35.668458]},"properties":{"id":"F001:41_02","feed_id":"F001","feed_slug":"shibuya-hachiko-bus","municipality":"渋谷区","service_name":"ハチ公バス","license":"CC BY 4.0","source_stop_id":"41_02","stop_code":null,"stop_name":"代々木公園","stop_desc":null,"zone_id":"41_02","location_type":0,"parent_station":null,"wheelchair_boarding":null}},{"type":"Feature","id":"F001:42_01","geometry":{"type":"Point","coordinates":[139.6913225,35.6676033]},"properties":{"id":"F001:42_01","feed_id":"F001","feed_slug":"shibuya-hachiko-bus","municipality":"渋谷区","service_name":"ハチ公バス","license":"CC BY 4.0","source_stop_id":"42_01","stop_code":null,"stop_name":"富ヶ谷","stop_desc":null,"zone_id":"42_01","location_type":0,"parent_station":null,"wheelchair_boarding":null}},{"type":"Feature","id":"F001:42_02","geometry":{"type":"Point","coordinates":[139.6895341,35.6677777]},"properties":{"id":"F001:42_02","feed_id":"F001","feed_slug":"shibuya-hachiko-bus","municipality":"渋谷区","service_name":"ハチ公バス","license":"CC BY 4.0","source_stop_id":"42_02","stop_code":null,"stop_name":"富ヶ谷","stop_desc":null,"zone_id":"42_02","location_type":0,"parent_station":null,"wheelchair_boarding":null}},{"type":"Feature","id":"F001:43_01","geometry":{"type":"Point","coordinates":[139.68767,35.67007]},"properties":{"id":"F001:43_01","feed_id":"F001","feed_slug":"shibuya-hachiko-bus","municipality":"渋谷区","service_name":"ハチ公バス","license":"CC BY 4.0","source_stop_id":"43_01","stop_code":null,"stop_name":"代々木八幡駅入口","stop_desc":null,"zone_id":"43_01","location_type":0,"parent_station":null,"wheelchair_boarding":null}},{"type":"Feature","id":"F001:43_02","geometry":{"type":"Point","coordinates":[139.6880071,35.6694884]},"properties":{"id":"F001:43_02","feed_id":"F001","feed_slug":"shibuya-hachiko-bus","municipality":"渋谷区","service_name":"ハチ公バス","license":"CC BY 4.0","source_stop_id":"43_02","stop_code":null,"stop_name":"代々木八幡駅入口","stop_desc":null,"zone_id":"43_02","location_type":0,"parent_station":null,"wheelchair_boarding":null}},{"type":"Feature","id":"F001:44_01","geometry":{"type":"Point","coordinates":[139.68753,35.67239]},"properties":{"id":"F001:44_01","feed_id":"F001","feed_slug":"shibuya-hachiko-bus","municipality":"渋谷区","service_name":"ハチ公バス","license":"CC BY 4.0","source_stop_id":"44_01","stop_code":null,"stop_name":"八幡下","stop_desc":null,"zone_id":"44_01","location_type":0,"parent_station":null,"wheelchair_boarding":null}},{"type":"Feature","id":"F001:44_02","geometry":{"type":"Point","coordinates":[139.6878628,35.6721638]},"properties":{"id":"F001:44_02","feed_id":"F001","feed_slug":"shibuya-hachiko-bus","municipality":"渋谷区","service_name":"ハチ公バス","license":"CC BY 4.0","source_stop_id":"44_02","stop_code":null,"stop_name":"八幡下","stop_desc":null,"zone_id":"44_02","location_type":0,"parent_station":null,"wheelchair_boarding":null}},{"type":"Feature","id":"F001:45_01","geometry":{"type":"Point","coordinates":[139.6847404,35.6748055]},"properties":{"id":"F001:45_01","feed_id":"F001","feed_slug":"shibuya-hachiko-bus","municipality":"渋谷区","service_name":"ハチ公バス","license":"CC BY 4.0","source_stop_id":"45_01","stop_code":null,"stop_name":"代々木中学入口","stop_desc":null,"zone_id":"45_01","location_type":0,"parent_station":null,"wheelchair_boarding":null}},{"type":"Feature","id":"F001:45_02","geometry":{"type":"Point","coordinates":[139.6861977,35.6742426]},"properties":{"id":"F001:45_02","feed_id":"F001","feed_slug":"shibuya-hachiko-bus","municipality":"渋谷区","service_name":"ハチ公バス","license":"CC BY 4.0","source_stop_id":"45_02","stop_code":null,"stop_name":"代々木中学入口","stop_desc":null,"zone_id":"45_02","location_type":0,"parent_station":null,"wheelchair_boarding":null}},{"type":"Feature","id":"F001:46_01","geometry":{"type":"Point","coordinates":[139.6818675,35.6756312]},"properties":{"id":"F001:46_01","feed_id":"F001","feed_slug":"shibuya-hachiko-bus","municipality":"渋谷区","service_name":"ハチ公バス","license":"CC BY 4.0","source_stop_id":"46_01","stop_code":null,"stop_name":"ケアコミュニティ・せせらぎ","stop_desc":null,"zone_id":"46_01","location_type":0,"parent_station":null,"wheelchair_boarding":null}},{"type":"Feature","id":"F001:47_01","geometry":{"type":"Point","coordinates":[139.682826,35.6767358]},"properties":{"id":"F001:47_01","feed_id":"F001","feed_slug":"shibuya-hachiko-bus","municipality":"渋谷区","service_name":"ハチ公バス","license":"CC BY 4.0","source_stop_id":"47_01","stop_code":null,"stop_name":"代々木郵便局","stop_desc":null,"zone_id":"47_01","location_type":0,"parent_station":null,"wheelchair_boarding":null}},{"type":"Feature","id":"F001:47_02","geometry":{"type":"Point","coordinates":[139.6832303,35.6763672]},"properties":{"id":"F001:47_02","feed_id":"F001","feed_slug":"shibuya-hachiko-bus","municipality":"渋谷区","service_name":"ハチ公バス","license":"CC BY 4.0","source_stop_id":"47_02","stop_code":null,"stop_name":"代々木郵便局","stop_desc":null,"zone_id":"47_02","location_type":0,"parent_station":null,"wheelchair_boarding":null}},{"type":"Feature","id":"F001:48_01","geometry":{"type":"Point","coordinates":[139.6815063,35.6790094]},"properties":{"id":"F001:48_01","feed_id":"F001","feed_slug":"shibuya-hachiko-bus","municipality":"渋谷区","service_name":"ハチ公バス","license":"CC BY 4.0","source_stop_id":"48_01","stop_code":null,"stop_name":"幡代","stop_desc":null,"zone_id":"48_01","location_type":0,"parent_station":null,"wheelchair_boarding":null}},{"type":"Feature","id":"F001:48_02","geometry":{"type":"Point","coordinates":[139.6825478,35.6791208]},"properties":{"id":"F001:48_02","feed_id":"F001","feed_slug":"shibuya-hachiko-bus","municipality":"渋谷区","service_name":"ハチ公バス","license":"CC BY 4.0","source_stop_id":"48_02","stop_code":null,"stop_name":"幡代","stop_desc":null,"zone_id":"48_02","location_type":0,"parent_station":null,"wheelchair_boarding":null}},{"type":"Feature","id":"F001:49_01","geometry":{"type":"Point","coordinates":[139.6857628,35.6810372]},"properties":{"id":"F001:49_01","feed_id":"F001","feed_slug":"shibuya-hachiko-bus","municipality":"渋谷区","service_name":"ハチ公バス","license":"CC BY 4.0","source_stop_id":"49_01","stop_code":null,"stop_name":"新国立劇場","stop_desc":null,"zone_id":"49_01","location_type":0,"parent_station":null,"wheelchair_boarding":null}},{"type":"Feature","id":"F001:49_02","geometry":{"type":"Point","coordinates":[139.6872864,35.6816284]},"properties":{"id":"F001:49_02","feed_id":"F001","feed_slug":"shibuya-hachiko-bus","municipality":"渋谷区","service_name":"ハチ公バス","license":"CC BY 4.0","source_stop_id":"49_02","stop_code":null,"stop_name":"新国立劇場","stop_desc":null,"zone_id":"49_02","location_type":0,"parent_station":null,"wheelchair_boarding":null}},{"type":"Feature","id":"F001:5_01","geometry":{"type":"Point","coordinates":[139.700679,35.666404]},"properties":{"id":"F001:5_01","feed_id":"F001","feed_slug":"shibuya-hachiko-bus","municipality":"渋谷区","service_name":"ハチ公バス","license":"CC BY 4.0","source_stop_id":"5_01","stop_code":null,"stop_name":"国立代々木競技場","stop_desc":null,"zone_id":"5_01","location_type":0,"parent_station":null,"wheelchair_boarding":null}},{"type":"Feature","id":"F001:5_02","geometry":{"type":"Point","coordinates":[139.7005628,35.6662133]},"properties":{"id":"F001:5_02","feed_id":"F001","feed_slug":"shibuya-hachiko-bus","municipality":"渋谷区","service_name":"ハチ公バス","license":"CC BY 4.0","source_stop_id":"5_02","stop_code":null,"stop_name":"国立代々木競技場","stop_desc":null,"zone_id":"5_02","location_type":0,"parent_station":null,"wheelchair_boarding":null}},{"type":"Feature","id":"F001:50_01","geometry":{"type":"Point","coordinates":[139.6850061,35.6822701]},"properties":{"id":"F001:50_01","feed_id":"F001","feed_slug":"shibuya-hachiko-bus","municipality":"渋谷区","service_name":"ハチ公バス","license":"CC BY 4.0","source_stop_id":"50_01","stop_code":null,"stop_name":"オペラ通り","stop_desc":null,"zone_id":"50_01","location_type":0,"parent_station":null,"wheelchair_boarding":null}},{"type":"Feature","id":"F001:51_01","geometry":{"type":"Point","coordinates":[139.6843984,35.6834113]},"properties":{"id":"F001:51_01","feed_id":"F001","feed_slug":"shibuya-hachiko-bus","municipality":"渋谷区","service_name":"ハチ公バス","license":"CC BY 4.0","source_stop_id":"51_01","stop_code":null,"stop_name":"幡ヶ谷不動尊","stop_desc":null,"zone_id":"51_01","location_type":0,"parent_station":null,"wheelchair_boarding":null}},{"type":"Feature","id":"F001:52_01","geometry":{"type":"Point","coordinates":[139.6857775,35.684864]},"properties":{"id":"F001:52_01","feed_id":"F001","feed_slug":"shibuya-hachiko-bus","municipality":"渋谷区","service_name":"ハチ公バス","license":"CC BY 4.0","source_stop_id":"52_01","stop_code":null,"stop_name":"西新宿四丁目","stop_desc":null,"zone_id":"52_01","location_type":0,"parent_station":null,"wheelchair_boarding":null}},{"type":"Feature","id":"F001:53_01","geometry":{"type":"Point","coordinates":[139.6841436,35.6868608]},"properties":{"id":"F001:53_01","feed_id":"F001","feed_slug":"shibuya-hachiko-bus","municipality":"渋谷区","service_name":"ハチ公バス","license":"CC BY 4.0","source_stop_id":"53_01","stop_code":null,"stop_name":"関東国際高校","stop_desc":null,"zone_id":"53_01","location_type":0,"parent_station":null,"wheelchair_boarding":null}},{"type":"Feature","id":"F001:54_01","geometry":{"type":"Point","coordinates":[139.681511,35.6876746]},"properties":{"id":"F001:54_01","feed_id":"F001","feed_slug":"shibuya-hachiko-bus","municipality":"渋谷区","service_name":"ハチ公バス","license":"CC BY 4.0","source_stop_id":"54_01","stop_code":null,"stop_name":"つばめの里・本町東","stop_desc":null,"zone_id":"54_01","location_type":0,"parent_station":null,"wheelchair_boarding":null}},{"type":"Feature","id":"F001:55_01","geometry":{"type":"Point","coordinates":[139.6805758,35.6869162]},"properties":{"id":"F001:55_01","feed_id":"F001","feed_slug":"shibuya-hachiko-bus","municipality":"渋谷区","service_name":"ハチ公バス","license":"CC BY 4.0","source_stop_id":"55_01","stop_code":null,"stop_name":"本町区民施設","stop_desc":null,"zone_id":"55_01","location_type":0,"parent_station":null,"wheelchair_boarding":null}},{"type":"Feature","id":"F001:56_01","geometry":{"type":"Point","coordinates":[139.6788277,35.6855995]},"properties":{"id":"F001:56_01","feed_id":"F001","feed_slug":"shibuya-hachiko-bus","municipality":"渋谷区","service_name":"ハチ公バス","license":"CC BY 4.0","source_stop_id":"56_01","stop_code":null,"stop_name":"本町四丁目","stop_desc":null,"zone_id":"56_01","location_type":0,"parent_station":null,"wheelchair_boarding":null}},{"type":"Feature","id":"F001:57_01","geometry":{"type":"Point","coordinates":[139.6770389,35.6853311]},"properties":{"id":"F001:57_01","feed_id":"F001","feed_slug":"shibuya-hachiko-bus","municipality":"渋谷区","service_name":"ハチ公バス","license":"CC BY 4.0","source_stop_id":"57_01","stop_code":null,"stop_name":"本町五丁目","stop_desc":null,"zone_id":"57_01","location_type":0,"parent_station":null,"wheelchair_boarding":null}},{"type":"Feature","id":"F001:58_01","geometry":{"type":"Point","coordinates":[139.6749201,35.6837767]},"properties":{"id":"F001:58_01","feed_id":"F001","feed_slug":"shibuya-hachiko-bus","municipality":"渋谷区","service_name":"ハチ公バス","license":"CC BY 4.0","source_stop_id":"58_01","stop_code":null,"stop_name":"本町幼稚園","stop_desc":null,"zone_id":"58_01","location_type":0,"parent_station":null,"wheelchair_boarding":null}},{"type":"Feature","id":"F001:59_01","geometry":{"type":"Point","coordinates":[139.6748507,35.6821244]},"properties":{"id":"F001:59_01","feed_id":"F001","feed_slug":"shibuya-hachiko-bus","municipality":"渋谷区","service_name":"ハチ公バス","license":"CC BY 4.0","source_stop_id":"59_01","stop_code":null,"stop_name":"六号大通り","stop_desc":null,"zone_id":"59_01","location_type":0,"parent_station":null,"wheelchair_boarding":null}},{"type":"Feature","id":"F001:6_01","geometry":{"type":"Point","coordinates":[139.701484,35.6648027]},"properties":{"id":"F001:6_01","feed_id":"F001","feed_slug":"shibuya-hachiko-bus","municipality":"渋谷区","service_name":"ハチ公バス","license":"CC BY 4.0","source_stop_id":"6_01","stop_code":null,"stop_name":"かんなみの杜・渋谷","stop_desc":null,"zone_id":"6_01","location_type":0,"parent_station":null,"wheelchair_boarding":null}},{"type":"Feature","id":"F001:6_02","geometry":{"type":"Point","coordinates":[139.701386,35.6649217]},"properties":{"id":"F001:6_02","feed_id":"F001","feed_slug":"shibuya-hachiko-bus","municipality":"渋谷区","service_name":"ハチ公バス","license":"CC BY 4.0","source_stop_id":"6_02","stop_code":null,"stop_name":"かんなみの杜・渋谷","stop_desc":null,"zone_id":"6_02","location_type":0,"parent_station":null,"wheelchair_boarding":null}},{"type":"Feature","id":"F001:60_01","geometry":{"type":"Point","coordinates":[139.674533,35.6807999]},"properties":{"id":"F001:60_01","feed_id":"F001","feed_slug":"shibuya-hachiko-bus","municipality":"渋谷区","service_name":"ハチ公バス","license":"CC BY 4.0","source_stop_id":"60_01","stop_code":null,"stop_name":"中幡小学校","stop_desc":null,"zone_id":"60_01","location_type":0,"parent_station":null,"wheelchair_boarding":null}},{"type":"Feature","id":"F001:61_01","geometry":{"type":"Point","coordinates":[139.6717159,35.6789412]},"properties":{"id":"F001:61_01","feed_id":"F001","feed_slug":"shibuya-hachiko-bus","municipality":"渋谷区","service_name":"ハチ公バス","license":"CC BY 4.0","source_stop_id":"61_01","stop_code":null,"stop_name":"幡ヶ谷保健相談所","stop_desc":null,"zone_id":"61_01","location_type":0,"parent_station":null,"wheelchair_boarding":null}},{"type":"Feature","id":"F001:62_01","geometry":{"type":"Point","coordinates":[139.6701696,35.6788073]},"properties":{"id":"F001:62_01","feed_id":"F001","feed_slug":"shibuya-hachiko-bus","municipality":"渋谷区","service_name":"ハチ公バス","license":"CC BY 4.0","source_stop_id":"62_01","stop_code":null,"stop_name":"笹塚こども図書館","stop_desc":null,"zone_id":"62_01","location_type":0,"parent_station":null,"wheelchair_boarding":null}},{"type":"Feature","id":"F001:63_01","geometry":{"type":"Point","coordinates":[139.6706444,35.6767385]},"properties":{"id":"F001:63_01","feed_id":"F001","feed_slug":"shibuya-hachiko-bus","municipality":"渋谷区","service_name":"ハチ公バス","license":"CC BY 4.0","source_stop_id":"63_01","stop_code":null,"stop_name":"笹塚中学","stop_desc":null,"zone_id":"63_01","location_type":0,"parent_station":null,"wheelchair_boarding":null}},{"type":"Feature","id":"F001:63_02","geometry":{"type":"Point","coordinates":[139.671219,35.6779153]},"properties":{"id":"F001:63_02","feed_id":"F001","feed_slug":"shibuya-hachiko-bus","municipality":"渋谷区","service_name":"ハチ公バス","license":"CC BY 4.0","source_stop_id":"63_02","stop_code":null,"stop_name":"笹塚中学","stop_desc":null,"zone_id":"63_02","location_type":0,"parent_station":null,"wheelchair_boarding":null}},{"type":"Feature","id":"F001:64_01","geometry":{"type":"Point","coordinates":[139.6672459,35.6742407]},"properties":{"id":"F001:64_01","feed_id":"F001","feed_slug":"shibuya-hachiko-bus","municipality":"渋谷区","service_name":"ハチ公バス","license":"CC BY 4.0","source_stop_id":"64_01","stop_code":null,"stop_name":"笹塚駅","stop_desc":null,"zone_id":"64_01","location_type":0,"parent_station":null,"wheelchair_boarding":null}},{"type":"Feature","id":"F001:65_01","geometry":{"type":"Point","coordinates":[139.6643322,35.6734035]},"properties":{"id":"F001:65_01","feed_id":"F001","feed_slug":"shibuya-hachiko-bus","municipality":"渋谷区","service_name":"ハチ公バス","license":"CC BY 4.0","source_stop_id":"65_01","stop_code":null,"stop_name":"笹塚二丁目","stop_desc":null,"zone_id":"65_01","location_type":0,"parent_station":null,"wheelchair_boarding":null}},{"type":"Feature","id":"F001:66_01","geometry":{"type":"Point","coordinates":[139.6638559,35.675247]},"properties":{"id":"F001:66_01","feed_id":"F001","feed_slug":"shibuya-hachiko-bus","municipality":"渋谷区","service_name":"ハチ公バス","license":"CC BY 4.0","source_stop_id":"66_01","stop_code":null,"stop_name":"笹塚三丁目","stop_desc":null,"zone_id":"66_01","location_type":0,"parent_station":null,"wheelchair_boarding":null}},{"type":"Feature","id":"F001:67_01","geometry":{"type":"Point","coordinates":[139.6672241,35.6764731]},"properties":{"id":"F001:67_01","feed_id":"F001","feed_slug":"shibuya-hachiko-bus","municipality":"渋谷区","service_name":"ハチ公バス","license":"CC BY 4.0","source_stop_id":"67_01","stop_code":null,"stop_name":"富士見丘学園","stop_desc":null,"zone_id":"67_01","location_type":0,"parent_station":null,"wheelchair_boarding":null}},{"type":"Feature","id":"F001:68_01","geometry":{"type":"Point","coordinates":[139.6738056,35.6788503]},"properties":{"id":"F001:68_01","feed_id":"F001","feed_slug":"shibuya-hachiko-bus","municipality":"渋谷区","service_name":"ハチ公バス","license":"CC BY 4.0","source_stop_id":"68_01","stop_code":null,"stop_name":"七号通り","stop_desc":null,"zone_id":"68_01","location_type":0,"parent_station":null,"wheelchair_boarding":null}},{"type":"Feature","id":"F001:69_01","geometry":{"type":"Point","coordinates":[139.6776488,35.6802232]},"properties":{"id":"F001:69_01","feed_id":"F001","feed_slug":"shibuya-hachiko-bus","municipality":"渋谷区","service_name":"ハチ公バス","license":"CC BY 4.0","source_stop_id":"69_01","stop_code":null,"stop_name":"六号通り","stop_desc":null,"zone_id":"69_01","location_type":0,"parent_station":null,"wheelchair_boarding":null}},{"type":"Feature","id":"F001:70_01","geometry":{"type":"Point","coordinates":[139.680891,35.6814072]},"properties":{"id":"F001:70_01","feed_id":"F001","feed_slug":"shibuya-hachiko-bus","municipality":"渋谷区","service_name":"ハチ公バス","license":"CC BY 4.0","source_stop_id":"70_01","stop_code":null,"stop_name":"本町一丁目","stop_desc":null,"zone_id":"70_01","location_type":0,"parent_station":null,"wheelchair_boarding":null}},{"type":"Feature","id":"F001:71_01","geometry":{"type":"Point","coordinates":[139.6827166,35.6824418]},"properties":{"id":"F001:71_01","feed_id":"F001","feed_slug":"shibuya-hachiko-bus","municipality":"渋谷区","service_name":"ハチ公バス","license":"CC BY 4.0","source_stop_id":"71_01","stop_code":null,"stop_name":"不動通り入口","stop_desc":null,"zone_id":"71_01","location_type":0,"parent_station":null,"wheelchair_boarding":null}},{"type":"Feature","id":"F001:72_01","geometry":{"type":"Point","coordinates":[139.6960069,35.6601656]},"properties":{"id":"F001:72_01","feed_id":"F001","feed_slug":"shibuya-hachiko-bus","municipality":"渋谷区","service_name":"ハチ公バス","license":"CC BY 4.0","source_stop_id":"72_01","stop_code":null,"stop_name":"東急百貨店本店前","stop_desc":null,"zone_id":"72_01","location_type":0,"parent_station":null,"wheelchair_boarding":null}},{"type":"Feature","id":"F001:72_02","geometry":{"type":"Point","coordinates":[139.6967879,35.6607594]},"properties":{"id":"F001:72_02","feed_id":"F001","feed_slug":"shibuya-hachiko-bus","municipality":"渋谷区","service_name":"ハチ公バス","license":"CC BY 4.0","source_stop_id":"72_02","stop_code":null,"stop_name":"東急百貨店本店前","stop_desc":null,"zone_id":"72_02","location_type":0,"parent_station":null,"wheelchair_boarding":null}},{"type":"Feature","id":"F001:73_01","geometry":{"type":"Point","coordinates":[139.6930231,35.6587077]},"properties":{"id":"F001:73_01","feed_id":"F001","feed_slug":"shibuya-hachiko-bus","municipality":"渋谷区","service_name":"ハチ公バス","license":"CC BY 4.0","source_stop_id":"73_01","stop_code":null,"stop_name":"松濤美術館入口","stop_desc":null,"zone_id":"73_01","location_type":0,"parent_station":null,"wheelchair_boarding":null}},{"type":"Feature","id":"F001:74_01","geometry":{"type":"Point","coordinates":[139.6903045,35.6583399]},"properties":{"id":"F001:74_01","feed_id":"F001","feed_slug":"shibuya-hachiko-bus","municipality":"渋谷区","service_name":"ハチ公バス","license":"CC BY 4.0","source_stop_id":"74_01","stop_code":null,"stop_name":"東大前","stop_desc":null,"zone_id":"74_01","location_type":0,"parent_station":null,"wheelchair_boarding":null}},{"type":"Feature","id":"F001:75_01","geometry":{"type":"Point","coordinates":[139.6878215,35.6613907]},"properties":{"id":"F001:75_01","feed_id":"F001","feed_slug":"shibuya-hachiko-bus","municipality":"渋谷区","service_name":"ハチ公バス","license":"CC BY 4.0","source_stop_id":"75_01","stop_code":null,"stop_name":"東大裏","stop_desc":null,"zone_id":"75_01","location_type":0,"parent_station":null,"wheelchair_boarding":null}},{"type":"Feature","id":"F001:76_01","geometry":{"type":"Point","coordinates":[139.6876486,35.6643472]},"properties":{"id":"F001:76_01","feed_id":"F001","feed_slug":"shibuya-hachiko-bus","municipality":"渋谷区","service_name":"ハチ公バス","license":"CC BY 4.0","source_stop_id":"76_01","stop_code":null,"stop_name":"富ヶ谷二丁目","stop_desc":null,"zone_id":"76_01","location_type":0,"parent_station":null,"wheelchair_boarding":null}},{"type":"Feature","id":"F001:77_01","geometry":{"type":"Point","coordinates":[139.6877753,35.6658744]},"properties":{"id":"F001:77_01","feed_id":"F001","feed_slug":"shibuya-hachiko-bus","municipality":"渋谷区","service_name":"ハチ公バス","license":"CC BY 4.0","source_stop_id":"77_01","stop_code":null,"stop_name":"富ヶ谷交差点","stop_desc":null,"zone_id":"77_01","location_type":0,"parent_station":null,"wheelchair_boarding":null}},{"type":"Feature","id":"F001:78_01","geometry":{"type":"Point","coordinates":[139.6863045,35.6678097]},"properties":{"id":"F001:78_01","feed_id":"F001","feed_slug":"shibuya-hachiko-bus","municipality":"渋谷区","service_name":"ハチ公バス","license":"CC BY 4.0","source_stop_id":"78_01","stop_code":null,"stop_name":"上原一丁目（富ヶ谷図書館入口）","stop_desc":null,"zone_id":"78_01","location_type":0,"parent_station":null,"wheelchair_boarding":null}},{"type":"Feature","id":"F001:79_01","geometry":{"type":"Point","coordinates":[139.6835403,35.6679422]},"properties":{"id":"F001:79_01","feed_id":"F001","feed_slug":"shibuya-hachiko-bus","municipality":"渋谷区","service_name":"ハチ公バス","license":"CC BY 4.0","source_stop_id":"79_01","stop_code":null,"stop_name":"上原二丁目（上原出張所入口）","stop_desc":null,"zone_id":"79_01","location_type":0,"parent_station":null,"wheelchair_boarding":null}},{"type":"Feature","id":"F001:8_01","geometry":{"type":"Point","coordinates":[139.7023729,35.6612689]},"properties":{"id":"F001:8_01","feed_id":"F001","feed_slug":"shibuya-hachiko-bus","municipality":"渋谷区","service_name":"ハチ公バス","license":"CC BY 4.0","source_stop_id":"8_01","stop_code":null,"stop_name":"宮下公園前","stop_desc":null,"zone_id":"8_01","location_type":0,"parent_station":null,"wheelchair_boarding":null}},{"type":"Feature","id":"F001:80_01","geometry":{"type":"Point","coordinates":[139.6804123,35.6680853]},"properties":{"id":"F001:80_01","feed_id":"F001","feed_slug":"shibuya-hachiko-bus","municipality":"渋谷区","service_name":"ハチ公バス","license":"CC BY 4.0","source_stop_id":"80_01","stop_code":null,"stop_name":"古賀音楽博物館","stop_desc":null,"zone_id":"80_01","location_type":0,"parent_station":null,"wheelchair_boarding":null}},{"type":"Feature","id":"F001:80_02","geometry":{"type":"Point","coordinates":[139.681307,35.6682253]},"properties":{"id":"F001:80_02","feed_id":"F001","feed_slug":"shibuya-hachiko-bus","municipality":"渋谷区","service_name":"ハチ公バス","license":"CC BY 4.0","source_stop_id":"80_02","stop_code":null,"stop_name":"古賀音楽博物館","stop_desc":null,"zone_id":"80_02","location_type":0,"parent_station":null,"wheelchair_boarding":null}},{"type":"Feature","id":"F001:81_01","geometry":{"type":"Point","coordinates":[139.6797113,35.6691758]},"properties":{"id":"F001:81_01","feed_id":"F001","feed_slug":"shibuya-hachiko-bus","municipality":"渋谷区","service_name":"ハチ公バス","license":"CC BY 4.0","source_stop_id":"81_01","stop_code":null,"stop_name":"代々木上原駅","stop_desc":null,"zone_id":"81_01","location_type":0,"parent_station":null,"wheelchair_boarding":null}},{"type":"Feature","id":"F001:82_01","geometry":{"type":"Point","coordinates":[139.679276,35.6657022]},"properties":{"id":"F001:82_01","feed_id":"F001","feed_slug":"shibuya-hachiko-bus","municipality":"渋谷区","service_name":"ハチ公バス","license":"CC BY 4.0","source_stop_id":"82_01","stop_code":null,"stop_name":"上原小学校","stop_desc":null,"zone_id":"82_01","location_type":0,"parent_station":null,"wheelchair_boarding":null}},{"type":"Feature","id":"F001:83_01","geometry":{"type":"Point","coordinates":[139.679266,35.6641108]},"properties":{"id":"F001:83_01","feed_id":"F001","feed_slug":"shibuya-hachiko-bus","municipality":"渋谷区","service_name":"ハチ公バス","license":"CC BY 4.0","source_stop_id":"83_01","stop_code":null,"stop_name":"上原二丁目南","stop_desc":null,"zone_id":"83_01","location_type":0,"parent_station":null,"wheelchair_boarding":null}},{"type":"Feature","id":"F001:84_01","geometry":{"type":"Point","coordinates":[139.6854183,35.6643443]},"properties":{"id":"F001:84_01","feed_id":"F001","feed_slug":"shibuya-hachiko-bus","municipality":"渋谷区","service_name":"ハチ公バス","license":"CC BY 4.0","source_stop_id":"84_01","stop_code":null,"stop_name":"はつらつセンター富ヶ谷（東海大学）","stop_desc":null,"zone_id":"84_01","location_type":0,"parent_station":null,"wheelchair_boarding":null}},{"type":"Feature","id":"F001:85_01","geometry":{"type":"Point","coordinates":[139.686617,35.6650257]},"properties":{"id":"F001:85_01","feed_id":"F001","feed_slug":"shibuya-hachiko-bus","municipality":"渋谷区","service_name":"ハチ公バス","license":"CC BY 4.0","source_stop_id":"85_01","stop_code":null,"stop_name":"望星高校","stop_desc":null,"zone_id":"85_01","location_type":0,"parent_station":null,"wheelchair_boarding":null}},{"type":"Feature","id":"F001:86_01","geometry":{"type":"Point","coordinates":[139.6921705,35.6659908]},"properties":{"id":"F001:86_01","feed_id":"F001","feed_slug":"shibuya-hachiko-bus","municipality":"渋谷区","service_name":"ハチ公バス","license":"CC BY 4.0","source_stop_id":"86_01","stop_code":null,"stop_name":"富ヶ谷一丁目","stop_desc":null,"zone_id":"86_01","location_type":0,"parent_station":null,"wheelchair_boarding":null}},{"type":"Feature","id":"F001:87_01","geometry":{"type":"Point","coordinates":[139.6930707,35.6648238]},"properties":{"id":"F001:87_01","feed_id":"F001","feed_slug":"shibuya-hachiko-bus","municipality":"渋谷区","service_name":"ハチ公バス","license":"CC BY 4.0","source_stop_id":"87_01","stop_code":null,"stop_name":"神山","stop_desc":null,"zone_id":"87_01","location_type":0,"parent_station":null,"wheelchair_boarding":null}},{"type":"Feature","id":"F001:88_01","geometry":{"type":"Point","coordinates":[139.7020715,35.6694501]},"properties":{"id":"F001:88_01","feed_id":"F001","feed_slug":"shibuya-hachiko-bus","municipality":"渋谷区","service_name":"ハチ公バス","license":"CC BY 4.0","source_stop_id":"88_01","stop_code":null,"stop_name":"明治神宮（原宿駅）","stop_desc":null,"zone_id":"88_01","location_type":0,"parent_station":null,"wheelchair_boarding":null}},{"type":"Feature","id":"F001:88_02","geometry":{"type":"Point","coordinates":[139.702197,35.6695631]},"properties":{"id":"F001:88_02","feed_id":"F001","feed_slug":"shibuya-hachiko-bus","municipality":"渋谷区","service_name":"ハチ公バス","license":"CC BY 4.0","source_stop_id":"88_02","stop_code":null,"stop_name":"明治神宮（原宿駅）","stop_desc":null,"zone_id":"88_02","location_type":0,"parent_station":null,"wheelchair_boarding":null}},{"type":"Feature","id":"F001:89_01","geometry":{"type":"Point","coordinates":[139.7038818,35.6693025]},"properties":{"id":"F001:89_01","feed_id":"F001","feed_slug":"shibuya-hachiko-bus","municipality":"渋谷区","service_name":"ハチ公バス","license":"CC BY 4.0","source_stop_id":"89_01","stop_code":null,"stop_name":"明治神宮前駅","stop_desc":null,"zone_id":"89_01","location_type":0,"parent_station":null,"wheelchair_boarding":null}},{"type":"Feature","id":"F001:89_02","geometry":{"type":"Point","coordinates":[139.7048709,35.6686256]},"properties":{"id":"F001:89_02","feed_id":"F001","feed_slug":"shibuya-hachiko-bus","municipality":"渋谷区","service_name":"ハチ公バス","license":"CC BY 4.0","source_stop_id":"89_02","stop_code":null,"stop_name":"明治神宮前駅","stop_desc":null,"zone_id":"89_02","location_type":0,"parent_station":null,"wheelchair_boarding":null}},{"type":"Feature","id":"F001:9_01","geometry":{"type":"Point","coordinates":[139.7009831,35.6551837]},"properties":{"id":"F001:9_01","feed_id":"F001","feed_slug":"shibuya-hachiko-bus","municipality":"渋谷区","service_name":"ハチ公バス","license":"CC BY 4.0","source_stop_id":"9_01","stop_code":null,"stop_name":"渋谷インフォスタワー","stop_desc":null,"zone_id":"9_01","location_type":0,"parent_station":null,"wheelchair_boarding":null}},{"type":"Feature","id":"F001:9_02","geometry":{"type":"Point","coordinates":[139.7009831,35.6551837]},"properties":{"id":"F001:9_02","feed_id":"F001","feed_slug":"shibuya-hachiko-bus","municipality":"渋谷区","service_name":"ハチ公バス","license":"CC BY 4.0","source_stop_id":"9_02","stop_code":null,"stop_name":"渋谷インフォスタワー","stop_desc":null,"zone_id":"9_02","location_type":0,"parent_station":null,"wheelchair_boarding":null}},{"type":"Feature","id":"F001:90_01","geometry":{"type":"Point","coordinates":[139.7067353,35.667983]},"properties":{"id":"F001:90_01","feed_id":"F001","feed_slug":"shibuya-hachiko-bus","municipality":"渋谷区","service_name":"ハチ公バス","license":"CC BY 4.0","source_stop_id":"90_01","stop_code":null,"stop_name":"神宮前小学校（神宮前交番）","stop_desc":null,"zone_id":"90_01","location_type":0,"parent_station":null,"wheelchair_boarding":null}},{"type":"Feature","id":"F001:90_02","geometry":{"type":"Point","coordinates":[139.7067863,35.667731]},"properties":{"id":"F001:90_02","feed_id":"F001","feed_slug":"shibuya-hachiko-bus","municipality":"渋谷区","service_name":"ハチ公バス","license":"CC BY 4.0","source_stop_id":"90_02","stop_code":null,"stop_name":"神宮前小学校（神宮前交番）","stop_desc":null,"zone_id":"90_02","location_type":0,"parent_station":null,"wheelchair_boarding":null}},{"type":"Feature","id":"F001:91_01","geometry":{"type":"Point","coordinates":[139.7089515,35.6669539]},"properties":{"id":"F001:91_01","feed_id":"F001","feed_slug":"shibuya-hachiko-bus","municipality":"渋谷区","service_name":"ハチ公バス","license":"CC BY 4.0","source_stop_id":"91_01","stop_code":null,"stop_name":"表参道ヒルズ","stop_desc":null,"zone_id":"91_01","location_type":0,"parent_station":null,"wheelchair_boarding":null}},{"type":"Feature","id":"F001:91_02","geometry":{"type":"Point","coordinates":[139.708162,35.6670996]},"properties":{"id":"F001:91_02","feed_id":"F001","feed_slug":"shibuya-hachiko-bus","municipality":"渋谷区","service_name":"ハチ公バス","license":"CC BY 4.0","source_stop_id":"91_02","stop_code":null,"stop_name":"表参道ヒルズ","stop_desc":null,"zone_id":"91_02","location_type":0,"parent_station":null,"wheelchair_boarding":null}},{"type":"Feature","id":"F001:92_01","geometry":{"type":"Point","coordinates":[139.712895,35.6658019]},"properties":{"id":"F001:92_01","feed_id":"F001","feed_slug":"shibuya-hachiko-bus","municipality":"渋谷区","service_name":"ハチ公バス","license":"CC BY 4.0","source_stop_id":"92_01","stop_code":null,"stop_name":"表参道駅","stop_desc":null,"zone_id":"92_01","location_type":0,"parent_station":null,"wheelchair_boarding":null}},{"type":"Feature","id":"F001:92_02","geometry":{"type":"Point","coordinates":[139.7103382,35.6660888]},"properties":{"id":"F001:92_02","feed_id":"F001","feed_slug":"shibuya-hachiko-bus","municipality":"渋谷区","service_name":"ハチ公バス","license":"CC BY 4.0","source_stop_id":"92_02","stop_code":null,"stop_name":"表参道駅","stop_desc":null,"zone_id":"92_02","location_type":0,"parent_station":null,"wheelchair_boarding":null}},{"type":"Feature","id":"F001:93_01","geometry":{"type":"Point","coordinates":[139.7147425,35.6674028]},"properties":{"id":"F001:93_01","feed_id":"F001","feed_slug":"shibuya-hachiko-bus","municipality":"渋谷区","service_name":"ハチ公バス","license":"CC BY 4.0","source_stop_id":"93_01","stop_code":null,"stop_name":"北青山三丁目","stop_desc":null,"zone_id":"93_01","location_type":0,"parent_station":null,"wheelchair_boarding":null}},{"type":"Feature","id":"F001:94_01","geometry":{"type":"Point","coordinates":[139.7151849,35.6683822]},"properties":{"id":"F001:94_01","feed_id":"F001","feed_slug":"shibuya-hachiko-bus","municipality":"渋谷区","service_name":"ハチ公バス","license":"CC BY 4.0","source_stop_id":"94_01","stop_code":null,"stop_name":"南青山三丁目交差点","stop_desc":null,"zone_id":"94_01","location_type":0,"parent_station":null,"wheelchair_boarding":null}},{"type":"Feature","id":"F001:94_02","geometry":{"type":"Point","coordinates":[139.7157899,35.6686469]},"properties":{"id":"F001:94_02","feed_id":"F001","feed_slug":"shibuya-hachiko-bus","municipality":"渋谷区","service_name":"ハチ公バス","license":"CC BY 4.0","source_stop_id":"94_02","stop_code":null,"stop_name":"南青山三丁目交差点","stop_desc":null,"zone_id":"94_02","location_type":0,"parent_station":null,"wheelchair_boarding":null}},{"type":"Feature","id":"F001:95_01","geometry":{"type":"Point","coordinates":[139.7125738,35.6719322]},"properties":{"id":"F001:95_01","feed_id":"F001","feed_slug":"shibuya-hachiko-bus","municipality":"渋谷区","service_name":"ハチ公バス","license":"CC BY 4.0","source_stop_id":"95_01","stop_code":null,"stop_name":"神宮前三丁目","stop_desc":null,"zone_id":"95_01","location_type":0,"parent_station":null,"wheelchair_boarding":null}},{"type":"Feature","id":"F001:95_02","geometry":{"type":"Point","coordinates":[139.7130525,35.6714339]},"properties":{"id":"F001:95_02","feed_id":"F001","feed_slug":"shibuya-hachiko-bus","municipality":"渋谷区","service_name":"ハチ公バス","license":"CC BY 4.0","source_stop_id":"95_02","stop_code":null,"stop_name":"神宮前三丁目","stop_desc":null,"zone_id":"95_02","location_type":0,"parent_station":null,"wheelchair_boarding":null}},{"type":"Feature","id":"F001:96_01","geometry":{"type":"Point","coordinates":[139.7107846,35.6725756]},"properties":{"id":"F001:96_01","feed_id":"F001","feed_slug":"shibuya-hachiko-bus","municipality":"渋谷区","service_name":"ハチ公バス","license":"CC BY 4.0","source_stop_id":"96_01","stop_code":null,"stop_name":"はぁとぴあ原宿入口","stop_desc":null,"zone_id":"96_01","location_type":0,"parent_station":null,"wheelchair_boarding":null}},{"type":"Feature","id":"F001:96_02","geometry":{"type":"Point","coordinates":[139.7107807,35.6726863]},"properties":{"id":"F001:96_02","feed_id":"F001","feed_slug":"shibuya-hachiko-bus","municipality":"渋谷区","service_name":"ハチ公バス","license":"CC BY 4.0","source_stop_id":"96_02","stop_code":null,"stop_name":"はぁとぴあ原宿入口","stop_desc":null,"zone_id":"96_02","location_type":0,"parent_station":null,"wheelchair_boarding":null}},{"type":"Feature","id":"F001:97_01","geometry":{"type":"Point","coordinates":[139.7095592,35.6731888]},"properties":{"id":"F001:97_01","feed_id":"F001","feed_slug":"shibuya-hachiko-bus","municipality":"渋谷区","service_name":"ハチ公バス","license":"CC BY 4.0","source_stop_id":"97_01","stop_code":null,"stop_name":"渋谷神宮前郵便局","stop_desc":null,"zone_id":"97_01","location_type":0,"parent_station":null,"wheelchair_boarding":null}},{"type":"Feature","id":"F001:97_02","geometry":{"type":"Point","coordinates":[139.7093578,35.6727247]},"properties":{"id":"F001:97_02","feed_id":"F001","feed_slug":"shibuya-hachiko-bus","municipality":"渋谷区","service_name":"ハチ公バス","license":"CC BY 4.0","source_stop_id":"97_02","stop_code":null,"stop_name":"渋谷神宮前郵便局","stop_desc":null,"zone_id":"97_02","location_type":0,"parent_station":null,"wheelchair_boarding":null}},{"type":"Feature","id":"F001:98_01","geometry":{"type":"Point","coordinates":[139.7109541,35.6748196]},"properties":{"id":"F001:98_01","feed_id":"F001","feed_slug":"shibuya-hachiko-bus","municipality":"渋谷区","service_name":"ハチ公バス","license":"CC BY 4.0","source_stop_id":"98_01","stop_code":null,"stop_name":"神宮前二丁目","stop_desc":null,"zone_id":"98_01","location_type":0,"parent_station":null,"wheelchair_boarding":null}},{"type":"Feature","id":"F001:98_02","geometry":{"type":"Point","coordinates":[139.7110715,35.6748147]},"properties":{"id":"F001:98_02","feed_id":"F001","feed_slug":"shibuya-hachiko-bus","municipality":"渋谷区","service_name":"ハチ公バス","license":"CC BY 4.0","source_stop_id":"98_02","stop_code":null,"stop_name":"神宮前二丁目","stop_desc":null,"zone_id":"98_02","location_type":0,"parent_station":null,"wheelchair_boarding":null}},{"type":"Feature","id":"F001:99_01","geometry":{"type":"Point","coordinates":[139.7125225,35.6765645]},"properties":{"id":"F001:99_01","feed_id":"F001","feed_slug":"shibuya-hachiko-bus","municipality":"渋谷区","service_name":"ハチ公バス","license":"CC BY 4.0","source_stop_id":"99_01","stop_code":null,"stop_name":"明治公園前","stop_desc":null,"zone_id":"99_01","location_type":0,"parent_station":null,"wheelchair_boarding":null}}]}
