{"type":"FeatureCollection","name":"machida-community-bus_routes","features":[{"type":"Feature","id":"F016:かわせみ号:わさび田公園前経由:fallback-0","geometry":{"type":"LineString","coordinates":[[139.472560598716,35.5352270385355],[139.469505294533,35.5354265877337],[139.468463721445,35.535296366369],[139.466797222096,35.5346453535985],[139.465373753536,35.5340985022464],[139.463637756655,35.5349316958456],[139.461901808758,35.5345323890634],[139.460721376162,35.5339595054304],[139.460964462131,35.5326749340192],[139.462040840017,35.5306526204116],[139.462700565906,35.5291510705485],[139.463950480858,35.5286216493386],[139.465686389806,35.5300017486873],[139.468325020262,35.5308697767756],[139.467734733597,35.5323539693206],[139.46988727625,35.533673322677],[139.470407978791,35.5358519111372],[139.472560598716,35.5352270385355]]},"properties":{"id":"F016:かわせみ号:わさび田公園前経由:fallback-0","feed_id":"F016","feed_slug":"machida-community-bus","municipality":"町田市","service_name":"市民バス・コミュニティバス","license":"CC0 1.0","source_route_id":"かわせみ号:わさび田公園前経由","route_short_name":null,"route_long_name":"かわせみ号：わさび田公園前経由","route_desc":null,"route_type":3,"route_url":null,"route_color":"00B0F0","route_text_color":"FFFFFF","directions":["0"],"geometry_source":"stop_times.txt fallback"}},{"type":"Feature","id":"F016:かわせみ号:南中学校東経由:fallback-0","geometry":{"type":"LineString","coordinates":[[139.472560598716,35.5352270385355],[139.469505294533,35.5354265877337],[139.468463721445,35.535296366369],[139.466797222096,35.5346453535985],[139.465373753536,35.5340985022464],[139.463637756655,35.5349316958456],[139.461901808758,35.5345323890634],[139.460721376162,35.5339595054304],[139.460964462131,35.5326749340192],[139.462040840017,35.5306526204116],[139.462700565906,35.5291510705485],[139.464089391753,35.5277710541616],[139.465929548531,35.5268857858299],[139.467064,35.52769],[139.468325020262,35.5308697767756],[139.467734733597,35.5323539693206],[139.46988727625,35.533673322677],[139.470407978791,35.5358519111372],[139.472560598716,35.5352270385355]]},"properties":{"id":"F016:かわせみ号:南中学校東経由:fallback-0","feed_id":"F016","feed_slug":"machida-community-bus","municipality":"町田市","service_name":"市民バス・コミュニティバス","license":"CC0 1.0","source_route_id":"かわせみ号:南中学校東経由","route_short_name":null,"route_long_name":"かわせみ号：南中学校東経由","route_desc":null,"route_type":3,"route_url":null,"route_color":"00B0F0","route_text_color":"FFFFFF","directions":["0"],"geometry_source":"stop_times.txt fallback"}},{"type":"Feature","id":"F016:まちっこ:公共施設巡回ﾙｰﾄ:fallback-1","geometry":{"type":"LineString","coordinates":[[139.444437656561,35.5435152907645],[139.438986580482,35.5472907633261],[139.438222634348,35.5503633143133],[139.440514024662,35.5524204355605],[139.442076307797,35.5545382945111],[139.437701579582,35.5570465769125],[139.443083212287,35.5533926167113],[139.44468037066,35.551587306513],[139.446242806311,35.5498687911847],[139.449749609993,35.5459196754339],[139.451832860297,35.5435588849949],[139.448985994987,35.5406598296934],[139.444437656561,35.5435152907645]]},"properties":{"id":"F016:まちっこ:公共施設巡回ﾙｰﾄ:fallback-1","feed_id":"F016","feed_slug":"machida-community-bus","municipality":"町田市","service_name":"市民バス・コミュニティバス","license":"CC0 1.0","source_route_id":"まちっこ:公共施設巡回ﾙｰﾄ","route_short_name":null,"route_long_name":"まちっこ：公共施設巡回ルート","route_desc":null,"route_type":3,"route_url":null,"route_color":"ED7D31","route_text_color":"FFFFFF","directions":["1"],"geometry_source":"stop_times.txt fallback"}},{"type":"Feature","id":"F016:まちっこ:相原ﾙｰﾄ(往路):fallback-1","geometry":{"type":"LineString","coordinates":[[139.285524815525,35.6125050516639],[139.288406487761,35.6131821350668],[139.290941010763,35.6127655824304],[139.295385151008,35.6108995908045],[139.298787685009,35.6097452970094],[139.301808363271,35.6071762218332],[139.304551237775,35.6058569985727],[139.309620271154,35.6053450377202],[139.316216916143,35.6057444730917],[139.319480501452,35.606395527949],[139.323403806655,35.6056925860579],[139.327188246185,35.6047032144023],[139.330799053182,35.6046251938952],[139.333507154039,35.6046773431469],[139.3363888133,35.6056842506463],[139.33829836651,35.6058492132615],[139.341249521583,35.6054153125736],[139.344374296473,35.6043912051482],[139.348748986795,35.6028203174118],[139.359720374537,35.6003382488584],[139.368469762304,35.5970228818325],[139.37808715196,35.5932041222577],[139.394995726714,35.5859137245284],[139.414403498251,35.5934828327621],[139.412355343424,35.5863915621846],[139.420063349835,35.5781461665076],[139.421625907314,35.5733637597414],[139.437701579582,35.5570465769125],[139.443083212287,35.5533926167113],[139.44468037066,35.551587306513],[139.446242806311,35.5498687911847],[139.449749609993,35.5459196754339],[139.451832860297,35.5435588849949],[139.448985994987,35.5406598296934]]},"properties":{"id":"F016:まちっこ:相原ﾙｰﾄ(往路):fallback-1","feed_id":"F016","feed_slug":"machida-community-bus","municipality":"町田市","service_name":"市民バス・コミュニティバス","license":"CC0 1.0","source_route_id":"まちっこ:相原ﾙｰﾄ(往路)","route_short_name":null,"route_long_name":"まちっこ：相原ルート（往路）","route_desc":null,"route_type":3,"route_url":null,"route_color":"ED7D31","route_text_color":"FFFFFF","directions":["1"],"geometry_source":"stop_times.txt fallback"}},{"type":"Feature","id":"F016:まちっこ:相原ﾙｰﾄ(復路):fallback-0","geometry":{"type":"LineString","coordinates":[[139.448985994987,35.5406598296934],[139.451832860297,35.5435588849949],[139.449749609993,35.5459196754339],[139.446242806311,35.5498687911847],[139.44468037066,35.551587306513],[139.443083212287,35.5533926167113],[139.442076307797,35.5545382945111],[139.437701579582,35.5570465769125],[139.421625907314,35.5733637597414],[139.420063349835,35.5781461665076],[139.412355343424,35.5863915621846],[139.414403498251,35.5934828327621],[139.394995726714,35.5859137245284],[139.37808715196,35.5932041222577],[139.368469762304,35.5970228818325],[139.359720374537,35.6003382488584],[139.348748986795,35.6028203174118],[139.344374296473,35.6043912051482],[139.341249521583,35.6054153125736],[139.33829836651,35.6058492132615],[139.3363888133,35.6056842506463],[139.333507154039,35.6046773431469],[139.330799053182,35.6046251938952],[139.327188246185,35.6047032144023],[139.323403806655,35.6056925860579],[139.319480501452,35.606395527949],[139.316216916143,35.6057444730917],[139.309620271154,35.6053450377202],[139.304551237775,35.6058569985727],[139.301808363271,35.6071762218332],[139.298787685009,35.6097452970094],[139.295385151008,35.6108995908045],[139.290941010763,35.6127655824304],[139.288406487761,35.6131821350668],[139.285524815525,35.6125050516639]]},"properties":{"id":"F016:まちっこ:相原ﾙｰﾄ(復路):fallback-0","feed_id":"F016","feed_slug":"machida-community-bus","municipality":"町田市","service_name":"市民バス・コミュニティバス","license":"CC0 1.0","source_route_id":"まちっこ:相原ﾙｰﾄ(復路)","route_short_name":null,"route_long_name":"まちっこ：相原ルート（復路）","route_desc":null,"route_type":3,"route_url":null,"route_color":"ED7D31","route_text_color":"FFFFFF","directions":["0"],"geometry_source":"stop_times.txt fallback"}},{"type":"Feature","id":"F016:玉ちゃんﾊﾞｽ:東ﾙｰﾄ1:fallback-0","geometry":{"type":"LineString","coordinates":[[139.463567193202,35.5632184451408],[139.467455693544,35.5646853974598],[139.468045984083,35.56310572962],[139.469643127016,35.5616910005497],[139.470302848846,35.5602936057231],[139.47096257344,35.5588267742536],[139.470754336193,35.5568565040798],[139.469921049424,35.5574640525314],[139.468601645495,35.5592606905099],[139.46724762418,35.5584968515009],[139.466449117472,35.5575767948157],[139.468601645495,35.5592606905099],[139.469921049424,35.5574640525314],[139.471900184155,35.5540443506251],[139.472907088019,35.5529160319833],[139.475198519418,35.5539402833119],[139.475615104438,35.5551033581],[139.475337287032,35.5566917138502],[139.473392964465,35.5577766096711],[139.471969478689,35.5576637373033],[139.47096257344,35.5588267742536],[139.470302848846,35.5602936057231],[139.469643127016,35.5616910005497],[139.468045984083,35.56310572962],[139.468566736925,35.564017099341],[139.465164260476,35.5637045440481],[139.463567193202,35.5632184451408]]},"properties":{"id":"F016:玉ちゃんﾊﾞｽ:東ﾙｰﾄ1:fallback-0","feed_id":"F016","feed_slug":"machida-community-bus","municipality":"町田市","service_name":"市民バス・コミュニティバス","license":"CC0 1.0","source_route_id":"玉ちゃんﾊﾞｽ:東ﾙｰﾄ1","route_short_name":null,"route_long_name":"玉ちゃんバス：東ルート1","route_desc":null,"route_type":3,"route_url":null,"route_color":"FFD966","route_text_color":"FFFFFF","directions":["0"],"geometry_source":"stop_times.txt fallback"}},{"type":"Feature","id":"F016:玉ちゃんﾊﾞｽ:東ﾙｰﾄ2:fallback-0","geometry":{"type":"LineString","coordinates":[[139.463567193202,35.5632184451408],[139.467455693544,35.5646853974598],[139.468045984083,35.56310572962],[139.469643127016,35.5616910005497],[139.470302848846,35.5602936057231],[139.47096257344,35.5588267742536],[139.470754336193,35.5568565040798],[139.471900184155,35.5540443506251],[139.472907088019,35.5529160319833],[139.475198519418,35.5539402833119],[139.475615104438,35.5551033581],[139.475337287032,35.5566917138502],[139.473392964465,35.5577766096711],[139.471969478689,35.5576637373033],[139.47096257344,35.5588267742536],[139.470302848846,35.5602936057231],[139.469643127016,35.5616910005497],[139.468045984083,35.56310572962],[139.468566736925,35.564017099341],[139.465164260476,35.5637045440481],[139.463567193202,35.5632184451408]]},"properties":{"id":"F016:玉ちゃんﾊﾞｽ:東ﾙｰﾄ2:fallback-0","feed_id":"F016","feed_slug":"machida-community-bus","municipality":"町田市","service_name":"市民バス・コミュニティバス","license":"CC0 1.0","source_route_id":"玉ちゃんﾊﾞｽ:東ﾙｰﾄ2","route_short_name":null,"route_long_name":"玉ちゃんバス：東ルート2","route_desc":null,"route_type":3,"route_url":null,"route_color":"FFD966","route_text_color":"FFFFFF","directions":["0"],"geometry_source":"stop_times.txt fallback"}},{"type":"Feature","id":"F016:玉ちゃんﾊﾞｽ:南ﾙｰﾄ:fallback-0","geometry":{"type":"LineString","coordinates":[[139.463567193202,35.5632184451408],[139.465164260476,35.5637045440481],[139.463636704629,35.5613870556468],[139.462595236564,35.5586182420059],[139.462421697168,35.5571861067175],[139.463046688306,35.5560751370966],[139.463324405211,35.5570125391026],[139.463671547194,35.5582884465671],[139.463740949828,35.5591911247167],[139.462317373586,35.5613523022725],[139.463567193202,35.5632184451408]]},"properties":{"id":"F016:玉ちゃんﾊﾞｽ:南ﾙｰﾄ:fallback-0","feed_id":"F016","feed_slug":"machida-community-bus","municipality":"町田市","service_name":"市民バス・コミュニティバス","license":"CC0 1.0","source_route_id":"玉ちゃんﾊﾞｽ:南ﾙｰﾄ","route_short_name":null,"route_long_name":"玉ちゃんバス：南ルート","route_desc":null,"route_type":3,"route_url":null,"route_color":"FFD966","route_text_color":"FFFFFF","directions":["0"],"geometry_source":"stop_times.txt fallback"}},{"type":"Feature","id":"F016:玉ちゃんﾊﾞｽ:北ﾙｰﾄ1:fallback-0","geometry":{"type":"LineString","coordinates":[[139.462976953451,35.5635222147501],[139.461727141434,35.5614651211278],[139.461310569888,35.5599635427505],[139.460199571758,35.5594948159229],[139.458845502451,35.5599374385207],[139.457144246275,35.5602324990388],[139.455234584334,35.5627929243438],[139.454922074263,35.5637129514958],[139.456901049396,35.5643032154943],[139.458046819975,35.563435287959],[139.454609562119,35.5646850561246],[139.454748352871,35.5668549547422],[139.455650984218,35.5686082538233],[139.456067540541,35.5704917336819],[139.457109048965,35.5722450364484],[139.458845030273,35.5718024240172],[139.458845109046,35.5698234798522],[139.459539542891,35.5686083571468],[139.462004601668,35.5688514508841],[139.463914198019,35.5679401457592],[139.462976953451,35.5635222147501]]},"properties":{"id":"F016:玉ちゃんﾊﾞｽ:北ﾙｰﾄ1:fallback-0","feed_id":"F016","feed_slug":"machida-community-bus","municipality":"町田市","service_name":"市民バス・コミュニティバス","license":"CC0 1.0","source_route_id":"玉ちゃんﾊﾞｽ:北ﾙｰﾄ1","route_short_name":null,"route_long_name":"玉ちゃんバス：北ルート1","route_desc":null,"route_type":3,"route_url":null,"route_color":"FFD966","route_text_color":"FFFFFF","directions":["0"],"geometry_source":"stop_times.txt fallback"}},{"type":"Feature","id":"F016:玉ちゃんﾊﾞｽ:北ﾙｰﾄ2:fallback-0","geometry":{"type":"LineString","coordinates":[[139.462976953451,35.5635222147501],[139.461727141434,35.5614651211278],[139.461310569888,35.5599635427505],[139.460199571758,35.5594948159229],[139.458845502451,35.5599374385207],[139.457144246275,35.5602324990388],[139.455234584334,35.5627929243438],[139.454922074263,35.5637129514958],[139.454609562119,35.5646850561246],[139.454748352871,35.5668549547422],[139.455650984218,35.5686082538233],[139.456067540541,35.5704917336819],[139.457109048965,35.5722450364484],[139.458845030273,35.5718024240172],[139.458845109046,35.5698234798522],[139.459539542891,35.5686083571468],[139.462004601668,35.5688514508841],[139.463914198019,35.5679401457592],[139.462976953451,35.5635222147501]]},"properties":{"id":"F016:玉ちゃんﾊﾞｽ:北ﾙｰﾄ2:fallback-0","feed_id":"F016","feed_slug":"machida-community-bus","municipality":"町田市","service_name":"市民バス・コミュニティバス","license":"CC0 1.0","source_route_id":"玉ちゃんﾊﾞｽ:北ﾙｰﾄ2","route_short_name":null,"route_long_name":"玉ちゃんバス：北ルート2","route_desc":null,"route_type":3,"route_url":null,"route_color":"FFD966","route_text_color":"FFFFFF","directions":["0"],"geometry_source":"stop_times.txt fallback"}},{"type":"Feature","id":"F016:小山田桜台多摩南部地域病院間ﾊﾞｽ(往路):fallback-1","geometry":{"type":"LineString","coordinates":[[139.402277,35.588364],[139.406617,35.588264],[139.408903,35.592016],[139.411129,35.596051],[139.408833,35.596962],[139.408253,35.602031],[139.407502,35.60844],[139.412003,35.616009],[139.414905,35.622367]]},"properties":{"id":"F016:小山田桜台多摩南部地域病院間ﾊﾞｽ(往路):fallback-1","feed_id":"F016","feed_slug":"machida-community-bus","municipality":"町田市","service_name":"市民バス・コミュニティバス","license":"CC0 1.0","source_route_id":"小山田桜台多摩南部地域病院間ﾊﾞｽ(往路)","route_short_name":null,"route_long_name":"小山田桜台多摩南部地域病院間バス（往路）","route_desc":null,"route_type":3,"route_url":null,"route_color":"00B050","route_text_color":"FFFFFF","directions":["1"],"geometry_source":"stop_times.txt fallback"}},{"type":"Feature","id":"F016:小山田桜台多摩南部地域病院間ﾊﾞｽ(復路):fallback-0","geometry":{"type":"LineString","coordinates":[[139.414905,35.622367],[139.412159,35.615882],[139.407701,35.608423],[139.408506,35.601725],[139.40872,35.597076],[139.410866,35.596413],[139.410625,35.59291],[139.402277,35.588364]]},"properties":{"id":"F016:小山田桜台多摩南部地域病院間ﾊﾞｽ(復路):fallback-0","feed_id":"F016","feed_slug":"machida-community-bus","municipality":"町田市","service_name":"市民バス・コミュニティバス","license":"CC0 1.0","source_route_id":"小山田桜台多摩南部地域病院間ﾊﾞｽ(復路)","route_short_name":null,"route_long_name":"小山田桜台多摩南部地域病院間バス（復路）","route_desc":null,"route_type":3,"route_url":null,"route_color":"00B050","route_text_color":"FFFFFF","directions":["0"],"geometry_source":"stop_times.txt fallback"}},{"type":"Feature","id":"F016:玉ちゃんﾊﾞｽ:北ﾙｰﾄ｢金井小学校｣始発:fallback-0","geometry":{"type":"LineString","coordinates":[[139.458845109046,35.5698234798522],[139.459539542891,35.5686083571468],[139.462004601668,35.5688514508841],[139.463914198019,35.5679401457592],[139.462976953451,35.5635222147501]]},"properties":{"id":"F016:玉ちゃんﾊﾞｽ:北ﾙｰﾄ｢金井小学校｣始発:fallback-0","feed_id":"F016","feed_slug":"machida-community-bus","municipality":"町田市","service_name":"市民バス・コミュニティバス","license":"CC0 1.0","source_route_id":"玉ちゃんﾊﾞｽ:北ﾙｰﾄ｢金井小学校｣始発","route_short_name":null,"route_long_name":"玉ちゃんバス：北ルート「金井小学校」始発","route_desc":null,"route_type":3,"route_url":null,"route_color":"FFD966","route_text_color":"FFFFFF","directions":["0"],"geometry_source":"stop_times.txt fallback"}},{"type":"Feature","id":"F016:玉ちゃんﾊﾞｽ:北ﾙｰﾄ｢有楽入口｣止まり:fallback-0","geometry":{"type":"LineString","coordinates":[[139.462976953451,35.5635222147501],[139.461727141434,35.5614651211278],[139.461310569888,35.5599635427505],[139.460199571758,35.5594948159229],[139.458845502451,35.5599374385207],[139.457144246275,35.5602324990388],[139.455234584334,35.5627929243438],[139.454922074263,35.5637129514958],[139.454609562119,35.5646850561246],[139.454748352871,35.5668549547422],[139.455650984218,35.5686082538233],[139.456067540541,35.5704917336819],[139.457109048965,35.5722450364484],[139.458845030273,35.5718024240172]]},"properties":{"id":"F016:玉ちゃんﾊﾞｽ:北ﾙｰﾄ｢有楽入口｣止まり:fallback-0","feed_id":"F016","feed_slug":"machida-community-bus","municipality":"町田市","service_name":"市民バス・コミュニティバス","license":"CC0 1.0","source_route_id":"玉ちゃんﾊﾞｽ:北ﾙｰﾄ｢有楽入口｣止まり","route_short_name":null,"route_long_name":"玉ちゃんバス：北ルート「有楽入口」止まり","route_desc":null,"route_type":3,"route_url":null,"route_color":"FFD966","route_text_color":"FFFFFF","directions":["0"],"geometry_source":"stop_times.txt fallback"}},{"type":"Feature","id":"F016:玉ちゃんﾊﾞｽ:東ﾙｰﾄ｢昭和薬科大学｣始発:fallback-0","geometry":{"type":"LineString","coordinates":[[139.471900184155,35.5540443506251],[139.472907088019,35.5529160319833],[139.475198519418,35.5539402833119],[139.475615104438,35.5551033581],[139.475337287032,35.5566917138502],[139.473392964465,35.5577766096711],[139.471969478689,35.5576637373033],[139.47096257344,35.5588267742536],[139.470302848846,35.5602936057231],[139.469643127016,35.5616910005497],[139.468045984083,35.56310572962],[139.468566736925,35.564017099341],[139.465164260476,35.5637045440481],[139.463567193202,35.5632184451408]]},"properties":{"id":"F016:玉ちゃんﾊﾞｽ:東ﾙｰﾄ｢昭和薬科大学｣始発:fallback-0","feed_id":"F016","feed_slug":"machida-community-bus","municipality":"町田市","service_name":"市民バス・コミュニティバス","license":"CC0 1.0","source_route_id":"玉ちゃんﾊﾞｽ:東ﾙｰﾄ｢昭和薬科大学｣始発","route_short_name":null,"route_long_name":"玉ちゃんバス：東ルート「昭和薬科大学」始発","route_desc":null,"route_type":3,"route_url":null,"route_color":"FFD966","route_text_color":"FFFFFF","directions":["0"],"geometry_source":"stop_times.txt fallback"}},{"type":"Feature","id":"F016:玉ちゃんﾊﾞｽ:東ﾙｰﾄ｢東玉川学園二丁目｣止まり:fallback-0","geometry":{"type":"LineString","coordinates":[[139.463567193202,35.5632184451408],[139.467455693544,35.5646853974598],[139.468045984083,35.56310572962],[139.469643127016,35.5616910005497],[139.470302848846,35.5602936057231],[139.47096257344,35.5588267742536],[139.470754336193,35.5568565040798],[139.471900184155,35.5540443506251],[139.472907088019,35.5529160319833],[139.475198519418,35.5539402833119],[139.475615104438,35.5551033581],[139.475337287032,35.5566917138502],[139.473392964465,35.5577766096711],[139.471969478689,35.5576637373033]]},"properties":{"id":"F016:玉ちゃんﾊﾞｽ:東ﾙｰﾄ｢東玉川学園二丁目｣止まり:fallback-0","feed_id":"F016","feed_slug":"machida-community-bus","municipality":"町田市","service_name":"市民バス・コミュニティバス","license":"CC0 1.0","source_route_id":"玉ちゃんﾊﾞｽ:東ﾙｰﾄ｢東玉川学園二丁目｣止まり","route_short_name":null,"route_long_name":"玉ちゃんバス：東ルート「東玉川学園二丁目」止まり","route_desc":null,"route_type":3,"route_url":null,"route_color":"FFD966","route_text_color":"FFFFFF","directions":["0"],"geometry_source":"stop_times.txt fallback"}}]}
