{"type":"FeatureCollection","name":"machida-community-bus_stops","features":[{"type":"Feature","id":"F016:S1_1","geometry":{"type":"Point","coordinates":[139.472560598716,35.5352270385355]},"properties":{"id":"F016:S1_1","feed_id":"F016","feed_slug":"machida-community-bus","municipality":"町田市","service_name":"市民バス・コミュニティバス","license":"CC0 1.0","source_stop_id":"S1_1","stop_code":null,"stop_name":"成瀬駅南口前","stop_desc":null,"zone_id":"S1_1","location_type":0,"parent_station":null,"wheelchair_boarding":null}},{"type":"Feature","id":"F016:S1_2","geometry":{"type":"Point","coordinates":[139.472560598716,35.5352270385355]},"properties":{"id":"F016:S1_2","feed_id":"F016","feed_slug":"machida-community-bus","municipality":"町田市","service_name":"市民バス・コミュニティバス","license":"CC0 1.0","source_stop_id":"S1_2","stop_code":null,"stop_name":"成瀬駅南口前","stop_desc":null,"zone_id":"S1_2","location_type":0,"parent_station":null,"wheelchair_boarding":null}},{"type":"Feature","id":"F016:S2_1","geometry":{"type":"Point","coordinates":[139.469505294533,35.5354265877337]},"properties":{"id":"F016:S2_1","feed_id":"F016","feed_slug":"machida-community-bus","municipality":"町田市","service_name":"市民バス・コミュニティバス","license":"CC0 1.0","source_stop_id":"S2_1","stop_code":null,"stop_name":"成瀬が丘三丁目東","stop_desc":null,"zone_id":"S2_1","location_type":0,"parent_station":null,"wheelchair_boarding":null}},{"type":"Feature","id":"F016:S3_1","geometry":{"type":"Point","coordinates":[139.468463721445,35.535296366369]},"properties":{"id":"F016:S3_1","feed_id":"F016","feed_slug":"machida-community-bus","municipality":"町田市","service_name":"市民バス・コミュニティバス","license":"CC0 1.0","source_stop_id":"S3_1","stop_code":null,"stop_name":"三丁目児童公園入口","stop_desc":null,"zone_id":"S3_1","location_type":0,"parent_station":null,"wheelchair_boarding":null}},{"type":"Feature","id":"F016:S4_1","geometry":{"type":"Point","coordinates":[139.466797222096,35.5346453535985]},"properties":{"id":"F016:S4_1","feed_id":"F016","feed_slug":"machida-community-bus","municipality":"町田市","service_name":"市民バス・コミュニティバス","license":"CC0 1.0","source_stop_id":"S4_1","stop_code":null,"stop_name":"成瀬が丘三丁目西","stop_desc":null,"zone_id":"S4_1","location_type":0,"parent_station":null,"wheelchair_boarding":null}},{"type":"Feature","id":"F016:S5_1","geometry":{"type":"Point","coordinates":[139.465373753536,35.5340985022464]},"properties":{"id":"F016:S5_1","feed_id":"F016","feed_slug":"machida-community-bus","municipality":"町田市","service_name":"市民バス・コミュニティバス","license":"CC0 1.0","source_stop_id":"S5_1","stop_code":null,"stop_name":"金森図書館前","stop_desc":null,"zone_id":"S5_1","location_type":0,"parent_station":null,"wheelchair_boarding":null}},{"type":"Feature","id":"F016:S6_1","geometry":{"type":"Point","coordinates":[139.463637756655,35.5349316958456]},"properties":{"id":"F016:S6_1","feed_id":"F016","feed_slug":"machida-community-bus","municipality":"町田市","service_name":"市民バス・コミュニティバス","license":"CC0 1.0","source_stop_id":"S6_1","stop_code":null,"stop_name":"松葉谷戸公園入口","stop_desc":null,"zone_id":"S6_1","location_type":0,"parent_station":null,"wheelchair_boarding":null}},{"type":"Feature","id":"F016:S7_1","geometry":{"type":"Point","coordinates":[139.461901808758,35.5345323890634]},"properties":{"id":"F016:S7_1","feed_id":"F016","feed_slug":"machida-community-bus","municipality":"町田市","service_name":"市民バス・コミュニティバス","license":"CC0 1.0","source_stop_id":"S7_1","stop_code":null,"stop_name":"都営金森第９前","stop_desc":null,"zone_id":"S7_1","location_type":0,"parent_station":null,"wheelchair_boarding":null}},{"type":"Feature","id":"F016:S8_1","geometry":{"type":"Point","coordinates":[139.460721376162,35.5339595054304]},"properties":{"id":"F016:S8_1","feed_id":"F016","feed_slug":"machida-community-bus","municipality":"町田市","service_name":"市民バス・コミュニティバス","license":"CC0 1.0","source_stop_id":"S8_1","stop_code":null,"stop_name":"金森二丁目中央","stop_desc":null,"zone_id":"S8_1","location_type":0,"parent_station":null,"wheelchair_boarding":null}},{"type":"Feature","id":"F016:S9_1","geometry":{"type":"Point","coordinates":[139.460964462131,35.5326749340192]},"properties":{"id":"F016:S9_1","feed_id":"F016","feed_slug":"machida-community-bus","municipality":"町田市","service_name":"市民バス・コミュニティバス","license":"CC0 1.0","source_stop_id":"S9_1","stop_code":null,"stop_name":"金森","stop_desc":null,"zone_id":"S9_1","location_type":0,"parent_station":null,"wheelchair_boarding":null}},{"type":"Feature","id":"F016:S10_1","geometry":{"type":"Point","coordinates":[139.462040840017,35.5306526204116]},"properties":{"id":"F016:S10_1","feed_id":"F016","feed_slug":"machida-community-bus","municipality":"町田市","service_name":"市民バス・コミュニティバス","license":"CC0 1.0","source_stop_id":"S10_1","stop_code":null,"stop_name":"都営金森第１１入口","stop_desc":null,"zone_id":"S10_1","location_type":0,"parent_station":null,"wheelchair_boarding":null}},{"type":"Feature","id":"F016:S11_1","geometry":{"type":"Point","coordinates":[139.462700565906,35.5291510705485]},"properties":{"id":"F016:S11_1","feed_id":"F016","feed_slug":"machida-community-bus","municipality":"町田市","service_name":"市民バス・コミュニティバス","license":"CC0 1.0","source_stop_id":"S11_1","stop_code":null,"stop_name":"市営住宅入口","stop_desc":null,"zone_id":"S11_1","location_type":0,"parent_station":null,"wheelchair_boarding":null}},{"type":"Feature","id":"F016:S12_1","geometry":{"type":"Point","coordinates":[139.463950480858,35.5286216493386]},"properties":{"id":"F016:S12_1","feed_id":"F016","feed_slug":"machida-community-bus","municipality":"町田市","service_name":"市民バス・コミュニティバス","license":"CC0 1.0","source_stop_id":"S12_1","stop_code":null,"stop_name":"南中学校北","stop_desc":null,"zone_id":"S12_1","location_type":0,"parent_station":null,"wheelchair_boarding":null}},{"type":"Feature","id":"F016:S13_1","geometry":{"type":"Point","coordinates":[139.465686389806,35.5300017486873]},"properties":{"id":"F016:S13_1","feed_id":"F016","feed_slug":"machida-community-bus","municipality":"町田市","service_name":"市民バス・コミュニティバス","license":"CC0 1.0","source_stop_id":"S13_1","stop_code":null,"stop_name":"わさび田公園前","stop_desc":null,"zone_id":"S13_1","location_type":0,"parent_station":null,"wheelchair_boarding":null}},{"type":"Feature","id":"F016:S14_1","geometry":{"type":"Point","coordinates":[139.468325020262,35.5308697767756]},"properties":{"id":"F016:S14_1","feed_id":"F016","feed_slug":"machida-community-bus","municipality":"町田市","service_name":"市民バス・コミュニティバス","license":"CC0 1.0","source_stop_id":"S14_1","stop_code":null,"stop_name":"みずき山ふるさとの森","stop_desc":null,"zone_id":"S14_1","location_type":0,"parent_station":null,"wheelchair_boarding":null}},{"type":"Feature","id":"F016:S15_1","geometry":{"type":"Point","coordinates":[139.467734733597,35.5323539693206]},"properties":{"id":"F016:S15_1","feed_id":"F016","feed_slug":"machida-community-bus","municipality":"町田市","service_name":"市民バス・コミュニティバス","license":"CC0 1.0","source_stop_id":"S15_1","stop_code":null,"stop_name":"南第四小学校入口","stop_desc":null,"zone_id":"S15_1","location_type":0,"parent_station":null,"wheelchair_boarding":null}},{"type":"Feature","id":"F016:S16_1","geometry":{"type":"Point","coordinates":[139.46988727625,35.533673322677]},"properties":{"id":"F016:S16_1","feed_id":"F016","feed_slug":"machida-community-bus","municipality":"町田市","service_name":"市民バス・コミュニティバス","license":"CC0 1.0","source_stop_id":"S16_1","stop_code":null,"stop_name":"都立小川高校前","stop_desc":null,"zone_id":"S16_1","location_type":0,"parent_station":null,"wheelchair_boarding":null}},{"type":"Feature","id":"F016:S17_1","geometry":{"type":"Point","coordinates":[139.470407978791,35.5358519111372]},"properties":{"id":"F016:S17_1","feed_id":"F016","feed_slug":"machida-community-bus","municipality":"町田市","service_name":"市民バス・コミュニティバス","license":"CC0 1.0","source_stop_id":"S17_1","stop_code":null,"stop_name":"成瀬が丘二丁目西","stop_desc":null,"zone_id":"S17_1","location_type":0,"parent_station":null,"wheelchair_boarding":null}},{"type":"Feature","id":"F016:S18_1","geometry":{"type":"Point","coordinates":[139.464089391753,35.5277710541616]},"properties":{"id":"F016:S18_1","feed_id":"F016","feed_slug":"machida-community-bus","municipality":"町田市","service_name":"市民バス・コミュニティバス","license":"CC0 1.0","source_stop_id":"S18_1","stop_code":null,"stop_name":"南中学校前［町田市］","stop_desc":null,"zone_id":"S18_1","location_type":0,"parent_station":null,"wheelchair_boarding":null}},{"type":"Feature","id":"F016:S19_1","geometry":{"type":"Point","coordinates":[139.465929548531,35.5268857858299]},"properties":{"id":"F016:S19_1","feed_id":"F016","feed_slug":"machida-community-bus","municipality":"町田市","service_name":"市民バス・コミュニティバス","license":"CC0 1.0","source_stop_id":"S19_1","stop_code":null,"stop_name":"南中学校東","stop_desc":null,"zone_id":"S19_1","location_type":0,"parent_station":null,"wheelchair_boarding":null}},{"type":"Feature","id":"F016:S20_1","geometry":{"type":"Point","coordinates":[139.444437656561,35.5435152907645]},"properties":{"id":"F016:S20_1","feed_id":"F016","feed_slug":"machida-community-bus","municipality":"町田市","service_name":"市民バス・コミュニティバス","license":"CC0 1.0","source_stop_id":"S20_1","stop_code":null,"stop_name":"町田バスセンター","stop_desc":null,"zone_id":"S20_1","location_type":0,"parent_station":null,"wheelchair_boarding":null}},{"type":"Feature","id":"F016:S20_2","geometry":{"type":"Point","coordinates":[139.444437656561,35.5435152907645]},"properties":{"id":"F016:S20_2","feed_id":"F016","feed_slug":"machida-community-bus","municipality":"町田市","service_name":"市民バス・コミュニティバス","license":"CC0 1.0","source_stop_id":"S20_2","stop_code":null,"stop_name":"町田バスセンター","stop_desc":null,"zone_id":"S20_2","location_type":0,"parent_station":null,"wheelchair_boarding":null}},{"type":"Feature","id":"F016:S21_1","geometry":{"type":"Point","coordinates":[139.438986580482,35.5472907633261]},"properties":{"id":"F016:S21_1","feed_id":"F016","feed_slug":"machida-community-bus","municipality":"町田市","service_name":"市民バス・コミュニティバス","license":"CC0 1.0","source_stop_id":"S21_1","stop_code":null,"stop_name":"町田市役所市民ホール前","stop_desc":null,"zone_id":"S21_1","location_type":0,"parent_station":null,"wheelchair_boarding":null}},{"type":"Feature","id":"F016:S22_1","geometry":{"type":"Point","coordinates":[139.438222634348,35.5503633143133]},"properties":{"id":"F016:S22_1","feed_id":"F016","feed_slug":"machida-community-bus","municipality":"町田市","service_name":"市民バス・コミュニティバス","license":"CC0 1.0","source_stop_id":"S22_1","stop_code":null,"stop_name":"第四小学校前［町田市］","stop_desc":null,"zone_id":"S22_1","location_type":0,"parent_station":null,"wheelchair_boarding":null}},{"type":"Feature","id":"F016:S23_1","geometry":{"type":"Point","coordinates":[139.440514024662,35.5524204355605]},"properties":{"id":"F016:S23_1","feed_id":"F016","feed_slug":"machida-community-bus","municipality":"町田市","service_name":"市民バス・コミュニティバス","license":"CC0 1.0","source_stop_id":"S23_1","stop_code":null,"stop_name":"中町二丁目","stop_desc":null,"zone_id":"S23_1","location_type":0,"parent_station":null,"wheelchair_boarding":null}},{"type":"Feature","id":"F016:S24_1","geometry":{"type":"Point","coordinates":[139.442076307797,35.5545382945111]},"properties":{"id":"F016:S24_1","feed_id":"F016","feed_slug":"machida-community-bus","municipality":"町田市","service_name":"市民バス・コミュニティバス","license":"CC0 1.0","source_stop_id":"S24_1","stop_code":null,"stop_name":"旭町","stop_desc":null,"zone_id":"S24_1","location_type":0,"parent_station":null,"wheelchair_boarding":null}},{"type":"Feature","id":"F016:S25_1","geometry":{"type":"Point","coordinates":[139.437701579582,35.5570465769125]},"properties":{"id":"F016:S25_1","feed_id":"F016","feed_slug":"machida-community-bus","municipality":"町田市","service_name":"市民バス・コミュニティバス","license":"CC0 1.0","source_stop_id":"S25_1","stop_code":null,"stop_name":"町田市民病院","stop_desc":null,"zone_id":"S25_1","location_type":0,"parent_station":null,"wheelchair_boarding":null}},{"type":"Feature","id":"F016:S26_1","geometry":{"type":"Point","coordinates":[139.443083212287,35.5533926167113]},"properties":{"id":"F016:S26_1","feed_id":"F016","feed_slug":"machida-community-bus","municipality":"町田市","service_name":"市民バス・コミュニティバス","license":"CC0 1.0","source_stop_id":"S26_1","stop_code":null,"stop_name":"五間道路","stop_desc":null,"zone_id":"S26_1","location_type":0,"parent_station":null,"wheelchair_boarding":null}},{"type":"Feature","id":"F016:S27_1","geometry":{"type":"Point","coordinates":[139.44468037066,35.551587306513]},"properties":{"id":"F016:S27_1","feed_id":"F016","feed_slug":"machida-community-bus","municipality":"町田市","service_name":"市民バス・コミュニティバス","license":"CC0 1.0","source_stop_id":"S27_1","stop_code":null,"stop_name":"図書館前［町田市］","stop_desc":null,"zone_id":"S27_1","location_type":0,"parent_station":null,"wheelchair_boarding":null}},{"type":"Feature","id":"F016:S28_1","geometry":{"type":"Point","coordinates":[139.446242806311,35.5498687911847]},"properties":{"id":"F016:S28_1","feed_id":"F016","feed_slug":"machida-community-bus","municipality":"町田市","service_name":"市民バス・コミュニティバス","license":"CC0 1.0","source_stop_id":"S28_1","stop_code":null,"stop_name":"中町一丁目","stop_desc":null,"zone_id":"S28_1","location_type":0,"parent_station":null,"wheelchair_boarding":null}},{"type":"Feature","id":"F016:S29_1","geometry":{"type":"Point","coordinates":[139.449749609993,35.5459196754339]},"properties":{"id":"F016:S29_1","feed_id":"F016","feed_slug":"machida-community-bus","municipality":"町田市","service_name":"市民バス・コミュニティバス","license":"CC0 1.0","source_stop_id":"S29_1","stop_code":null,"stop_name":"原町田五丁目","stop_desc":null,"zone_id":"S29_1","location_type":0,"parent_station":null,"wheelchair_boarding":null}},{"type":"Feature","id":"F016:S30_1","geometry":{"type":"Point","coordinates":[139.451832860297,35.5435588849949]},"properties":{"id":"F016:S30_1","feed_id":"F016","feed_slug":"machida-community-bus","municipality":"町田市","service_name":"市民バス・コミュニティバス","license":"CC0 1.0","source_stop_id":"S30_1","stop_code":null,"stop_name":"原町田四丁目","stop_desc":null,"zone_id":"S30_1","location_type":0,"parent_station":null,"wheelchair_boarding":null}},{"type":"Feature","id":"F016:S31_1","geometry":{"type":"Point","coordinates":[139.448985994987,35.5406598296934]},"properties":{"id":"F016:S31_1","feed_id":"F016","feed_slug":"machida-community-bus","municipality":"町田市","service_name":"市民バス・コミュニティバス","license":"CC0 1.0","source_stop_id":"S31_1","stop_code":null,"stop_name":"町田ターミナル","stop_desc":null,"zone_id":"S31_1","location_type":0,"parent_station":null,"wheelchair_boarding":null}},{"type":"Feature","id":"F016:S32_1","geometry":{"type":"Point","coordinates":[139.285524815525,35.6125050516639]},"properties":{"id":"F016:S32_1","feed_id":"F016","feed_slug":"machida-community-bus","municipality":"町田市","service_name":"市民バス・コミュニティバス","license":"CC0 1.0","source_stop_id":"S32_1","stop_code":null,"stop_name":"ネイチャーファクトリー東京町田","stop_desc":null,"zone_id":"S32_1","location_type":0,"parent_station":null,"wheelchair_boarding":null}},{"type":"Feature","id":"F016:S33_1","geometry":{"type":"Point","coordinates":[139.288406487761,35.6131821350668]},"properties":{"id":"F016:S33_1","feed_id":"F016","feed_slug":"machida-community-bus","municipality":"町田市","service_name":"市民バス・コミュニティバス","license":"CC0 1.0","source_stop_id":"S33_1","stop_code":null,"stop_name":"上大戸","stop_desc":null,"zone_id":"S33_1","location_type":0,"parent_station":null,"wheelchair_boarding":null}},{"type":"Feature","id":"F016:S34_1","geometry":{"type":"Point","coordinates":[139.290941010763,35.6127655824304]},"properties":{"id":"F016:S34_1","feed_id":"F016","feed_slug":"machida-community-bus","municipality":"町田市","service_name":"市民バス・コミュニティバス","license":"CC0 1.0","source_stop_id":"S34_1","stop_code":null,"stop_name":"大戸橋","stop_desc":null,"zone_id":"S34_1","location_type":0,"parent_station":null,"wheelchair_boarding":null}},{"type":"Feature","id":"F016:S35_1","geometry":{"type":"Point","coordinates":[139.295385151008,35.6108995908045]},"properties":{"id":"F016:S35_1","feed_id":"F016","feed_slug":"machida-community-bus","municipality":"町田市","service_name":"市民バス・コミュニティバス","license":"CC0 1.0","source_stop_id":"S35_1","stop_code":null,"stop_name":"公会堂前［町田市］","stop_desc":null,"zone_id":"S35_1","location_type":0,"parent_station":null,"wheelchair_boarding":null}},{"type":"Feature","id":"F016:S36_1","geometry":{"type":"Point","coordinates":[139.298787685009,35.6097452970094]},"properties":{"id":"F016:S36_1","feed_id":"F016","feed_slug":"machida-community-bus","municipality":"町田市","service_name":"市民バス・コミュニティバス","license":"CC0 1.0","source_stop_id":"S36_1","stop_code":null,"stop_name":"水の口","stop_desc":null,"zone_id":"S36_1","location_type":0,"parent_station":null,"wheelchair_boarding":null}},{"type":"Feature","id":"F016:S37_1","geometry":{"type":"Point","coordinates":[139.301808363271,35.6071762218332]},"properties":{"id":"F016:S37_1","feed_id":"F016","feed_slug":"machida-community-bus","municipality":"町田市","service_name":"市民バス・コミュニティバス","license":"CC0 1.0","source_stop_id":"S37_1","stop_code":null,"stop_name":"円林寺前","stop_desc":null,"zone_id":"S37_1","location_type":0,"parent_station":null,"wheelchair_boarding":null}},{"type":"Feature","id":"F016:S38_1","geometry":{"type":"Point","coordinates":[139.304551237775,35.6058569985727]},"properties":{"id":"F016:S38_1","feed_id":"F016","feed_slug":"machida-community-bus","municipality":"町田市","service_name":"市民バス・コミュニティバス","license":"CC0 1.0","source_stop_id":"S38_1","stop_code":null,"stop_name":"境橋［町田市］","stop_desc":null,"zone_id":"S38_1","location_type":0,"parent_station":null,"wheelchair_boarding":null}},{"type":"Feature","id":"F016:S39_1","geometry":{"type":"Point","coordinates":[139.309620271154,35.6053450377202]},"properties":{"id":"F016:S39_1","feed_id":"F016","feed_slug":"machida-community-bus","municipality":"町田市","service_name":"市民バス・コミュニティバス","license":"CC0 1.0","source_stop_id":"S39_1","stop_code":null,"stop_name":"根岸［相原町］","stop_desc":null,"zone_id":"S39_1","location_type":0,"parent_station":null,"wheelchair_boarding":null}},{"type":"Feature","id":"F016:S40_1","geometry":{"type":"Point","coordinates":[139.316216916143,35.6057444730917]},"properties":{"id":"F016:S40_1","feed_id":"F016","feed_slug":"machida-community-bus","municipality":"町田市","service_name":"市民バス・コミュニティバス","license":"CC0 1.0","source_stop_id":"S40_1","stop_code":null,"stop_name":"相原十字路","stop_desc":null,"zone_id":"S40_1","location_type":0,"parent_station":null,"wheelchair_boarding":null}},{"type":"Feature","id":"F016:S41_1","geometry":{"type":"Point","coordinates":[139.319480501452,35.606395527949]},"properties":{"id":"F016:S41_1","feed_id":"F016","feed_slug":"machida-community-bus","municipality":"町田市","service_name":"市民バス・コミュニティバス","license":"CC0 1.0","source_stop_id":"S41_1","stop_code":null,"stop_name":"開都","stop_desc":null,"zone_id":"S41_1","location_type":0,"parent_station":null,"wheelchair_boarding":null}},{"type":"Feature","id":"F016:S42_1","geometry":{"type":"Point","coordinates":[139.323403806655,35.6056925860579]},"properties":{"id":"F016:S42_1","feed_id":"F016","feed_slug":"machida-community-bus","municipality":"町田市","service_name":"市民バス・コミュニティバス","license":"CC0 1.0","source_stop_id":"S42_1","stop_code":null,"stop_name":"相原小学校前","stop_desc":null,"zone_id":"S42_1","location_type":0,"parent_station":null,"wheelchair_boarding":null}},{"type":"Feature","id":"F016:S43_1","geometry":{"type":"Point","coordinates":[139.327188246185,35.6047032144023]},"properties":{"id":"F016:S43_1","feed_id":"F016","feed_slug":"machida-community-bus","municipality":"町田市","service_name":"市民バス・コミュニティバス","license":"CC0 1.0","source_stop_id":"S43_1","stop_code":null,"stop_name":"諏訪神社前［町田市］","stop_desc":null,"zone_id":"S43_1","location_type":0,"parent_station":null,"wheelchair_boarding":null}},{"type":"Feature","id":"F016:S44_1","geometry":{"type":"Point","coordinates":[139.330799053182,35.6046251938952]},"properties":{"id":"F016:S44_1","feed_id":"F016","feed_slug":"machida-community-bus","municipality":"町田市","service_name":"市民バス・コミュニティバス","license":"CC0 1.0","source_stop_id":"S44_1","stop_code":null,"stop_name":"相原","stop_desc":null,"zone_id":"S44_1","location_type":0,"parent_station":null,"wheelchair_boarding":null}},{"type":"Feature","id":"F016:S45_1","geometry":{"type":"Point","coordinates":[139.333507154039,35.6046773431469]},"properties":{"id":"F016:S45_1","feed_id":"F016","feed_slug":"machida-community-bus","municipality":"町田市","service_name":"市民バス・コミュニティバス","license":"CC0 1.0","source_stop_id":"S45_1","stop_code":null,"stop_name":"堺市民センター前","stop_desc":null,"zone_id":"S45_1","location_type":0,"parent_station":null,"wheelchair_boarding":null}},{"type":"Feature","id":"F016:S46_1","geometry":{"type":"Point","coordinates":[139.3363888133,35.6056842506463]},"properties":{"id":"F016:S46_1","feed_id":"F016","feed_slug":"machida-community-bus","municipality":"町田市","service_name":"市民バス・コミュニティバス","license":"CC0 1.0","source_stop_id":"S46_1","stop_code":null,"stop_name":"堺中学校前","stop_desc":null,"zone_id":"S46_1","location_type":0,"parent_station":null,"wheelchair_boarding":null}},{"type":"Feature","id":"F016:S47_1","geometry":{"type":"Point","coordinates":[139.33829836651,35.6058492132615]},"properties":{"id":"F016:S47_1","feed_id":"F016","feed_slug":"machida-community-bus","municipality":"町田市","service_name":"市民バス・コミュニティバス","license":"CC0 1.0","source_stop_id":"S47_1","stop_code":null,"stop_name":"堺農協前","stop_desc":null,"zone_id":"S47_1","location_type":0,"parent_station":null,"wheelchair_boarding":null}},{"type":"Feature","id":"F016:S48_1","geometry":{"type":"Point","coordinates":[139.341249521583,35.6054153125736]},"properties":{"id":"F016:S48_1","feed_id":"F016","feed_slug":"machida-community-bus","municipality":"町田市","service_name":"市民バス・コミュニティバス","license":"CC0 1.0","source_stop_id":"S48_1","stop_code":null,"stop_name":"坂下［町田市相原町］","stop_desc":null,"zone_id":"S48_1","location_type":0,"parent_station":null,"wheelchair_boarding":null}},{"type":"Feature","id":"F016:S49_1","geometry":{"type":"Point","coordinates":[139.344374296473,35.6043912051482]},"properties":{"id":"F016:S49_1","feed_id":"F016","feed_slug":"machida-community-bus","municipality":"町田市","service_name":"市民バス・コミュニティバス","license":"CC0 1.0","source_stop_id":"S49_1","stop_code":null,"stop_name":"相原境","stop_desc":null,"zone_id":"S49_1","location_type":0,"parent_station":null,"wheelchair_boarding":null}},{"type":"Feature","id":"F016:S50_1","geometry":{"type":"Point","coordinates":[139.348748986795,35.6028203174118]},"properties":{"id":"F016:S50_1","feed_id":"F016","feed_slug":"machida-community-bus","municipality":"町田市","service_name":"市民バス・コミュニティバス","license":"CC0 1.0","source_stop_id":"S50_1","stop_code":null,"stop_name":"久保ヶ谷戸","stop_desc":null,"zone_id":"S50_1","location_type":0,"parent_station":null,"wheelchair_boarding":null}},{"type":"Feature","id":"F016:S51_1","geometry":{"type":"Point","coordinates":[139.359720374537,35.6003382488584]},"properties":{"id":"F016:S51_1","feed_id":"F016","feed_slug":"machida-community-bus","municipality":"町田市","service_name":"市民バス・コミュニティバス","license":"CC0 1.0","source_stop_id":"S51_1","stop_code":null,"stop_name":"田端［町田市］","stop_desc":null,"zone_id":"S51_1","location_type":0,"parent_station":null,"wheelchair_boarding":null}},{"type":"Feature","id":"F016:S52_1","geometry":{"type":"Point","coordinates":[139.368469762304,35.5970228818325]},"properties":{"id":"F016:S52_1","feed_id":"F016","feed_slug":"machida-community-bus","municipality":"町田市","service_name":"市民バス・コミュニティバス","license":"CC0 1.0","source_stop_id":"S52_1","stop_code":null,"stop_name":"片所","stop_desc":null,"zone_id":"S52_1","location_type":0,"parent_station":null,"wheelchair_boarding":null}},{"type":"Feature","id":"F016:S53_1","geometry":{"type":"Point","coordinates":[139.37808715196,35.5932041222577]},"properties":{"id":"F016:S53_1","feed_id":"F016","feed_slug":"machida-community-bus","municipality":"町田市","service_name":"市民バス・コミュニティバス","license":"CC0 1.0","source_stop_id":"S53_1","stop_code":null,"stop_name":"小山小学校前","stop_desc":null,"zone_id":"S53_1","location_type":0,"parent_station":null,"wheelchair_boarding":null}},{"type":"Feature","id":"F016:S54_1","geometry":{"type":"Point","coordinates":[139.394995726714,35.5859137245284]},"properties":{"id":"F016:S54_1","feed_id":"F016","feed_slug":"machida-community-bus","municipality":"町田市","service_name":"市民バス・コミュニティバス","license":"CC0 1.0","source_stop_id":"S54_1","stop_code":null,"stop_name":"常盤","stop_desc":null,"zone_id":"S54_1","location_type":0,"parent_station":null,"wheelchair_boarding":null}},{"type":"Feature","id":"F016:S55_1","geometry":{"type":"Point","coordinates":[139.414403498251,35.5934828327621]},"properties":{"id":"F016:S55_1","feed_id":"F016","feed_slug":"machida-community-bus","municipality":"町田市","service_name":"市民バス・コミュニティバス","license":"CC0 1.0","source_stop_id":"S55_1","stop_code":null,"stop_name":"桜橋［町田市］","stop_desc":null,"zone_id":"S55_1","location_type":0,"parent_station":null,"wheelchair_boarding":null}},{"type":"Feature","id":"F016:S56_1","geometry":{"type":"Point","coordinates":[139.412355343424,35.5863915621846]},"properties":{"id":"F016:S56_1","feed_id":"F016","feed_slug":"machida-community-bus","municipality":"町田市","service_name":"市民バス・コミュニティバス","license":"CC0 1.0","source_stop_id":"S56_1","stop_code":null,"stop_name":"市立室内プール［町田市］","stop_desc":null,"zone_id":"S56_1","location_type":0,"parent_station":null,"wheelchair_boarding":null}},{"type":"Feature","id":"F016:S57_1","geometry":{"type":"Point","coordinates":[139.420063349835,35.5781461665076]},"properties":{"id":"F016:S57_1","feed_id":"F016","feed_slug":"machida-community-bus","municipality":"町田市","service_name":"市民バス・コミュニティバス","license":"CC0 1.0","source_stop_id":"S57_1","stop_code":null,"stop_name":"忠生三丁目","stop_desc":null,"zone_id":"S57_1","location_type":0,"parent_station":null,"wheelchair_boarding":null}},{"type":"Feature","id":"F016:S58_1","geometry":{"type":"Point","coordinates":[139.421625907314,35.5733637597414]},"properties":{"id":"F016:S58_1","feed_id":"F016","feed_slug":"machida-community-bus","municipality":"町田市","service_name":"市民バス・コミュニティバス","license":"CC0 1.0","source_stop_id":"S58_1","stop_code":null,"stop_name":"忠生公園前","stop_desc":null,"zone_id":"S58_1","location_type":0,"parent_station":null,"wheelchair_boarding":null}},{"type":"Feature","id":"F016:S59_1","geometry":{"type":"Point","coordinates":[139.463567193202,35.5632184451408]},"properties":{"id":"F016:S59_1","feed_id":"F016","feed_slug":"machida-community-bus","municipality":"町田市","service_name":"市民バス・コミュニティバス","license":"CC0 1.0","source_stop_id":"S59_1","stop_code":null,"stop_name":"玉川学園前駅南口","stop_desc":null,"zone_id":"S59_1","location_type":0,"parent_station":null,"wheelchair_boarding":null}},{"type":"Feature","id":"F016:S59_2","geometry":{"type":"Point","coordinates":[139.463567193202,35.5632184451408]},"properties":{"id":"F016:S59_2","feed_id":"F016","feed_slug":"machida-community-bus","municipality":"町田市","service_name":"市民バス・コミュニティバス","license":"CC0 1.0","source_stop_id":"S59_2","stop_code":null,"stop_name":"玉川学園前駅南口","stop_desc":null,"zone_id":"S59_2","location_type":0,"parent_station":null,"wheelchair_boarding":null}},{"type":"Feature","id":"F016:S60_1","geometry":{"type":"Point","coordinates":[139.467455693544,35.5646853974598]},"properties":{"id":"F016:S60_1","feed_id":"F016","feed_slug":"machida-community-bus","municipality":"町田市","service_name":"市民バス・コミュニティバス","license":"CC0 1.0","source_stop_id":"S60_1","stop_code":null,"stop_name":"鶯谷","stop_desc":null,"zone_id":"S60_1","location_type":0,"parent_station":null,"wheelchair_boarding":null}},{"type":"Feature","id":"F016:S61_1","geometry":{"type":"Point","coordinates":[139.468045984083,35.56310572962]},"properties":{"id":"F016:S61_1","feed_id":"F016","feed_slug":"machida-community-bus","municipality":"町田市","service_name":"市民バス・コミュニティバス","license":"CC0 1.0","source_stop_id":"S61_1","stop_code":null,"stop_name":"鶯谷南","stop_desc":null,"zone_id":"S61_1","location_type":0,"parent_station":null,"wheelchair_boarding":null}},{"type":"Feature","id":"F016:S61_2","geometry":{"type":"Point","coordinates":[139.468045984083,35.56310572962]},"properties":{"id":"F016:S61_2","feed_id":"F016","feed_slug":"machida-community-bus","municipality":"町田市","service_name":"市民バス・コミュニティバス","license":"CC0 1.0","source_stop_id":"S61_2","stop_code":null,"stop_name":"鶯谷南","stop_desc":null,"zone_id":"S61_2","location_type":0,"parent_station":null,"wheelchair_boarding":null}},{"type":"Feature","id":"F016:S62_1","geometry":{"type":"Point","coordinates":[139.469643127016,35.5616910005497]},"properties":{"id":"F016:S62_1","feed_id":"F016","feed_slug":"machida-community-bus","municipality":"町田市","service_name":"市民バス・コミュニティバス","license":"CC0 1.0","source_stop_id":"S62_1","stop_code":null,"stop_name":"旭ヶ丘東","stop_desc":null,"zone_id":"S62_1","location_type":0,"parent_station":null,"wheelchair_boarding":null}},{"type":"Feature","id":"F016:S62_2","geometry":{"type":"Point","coordinates":[139.469643127016,35.5616910005497]},"properties":{"id":"F016:S62_2","feed_id":"F016","feed_slug":"machida-community-bus","municipality":"町田市","service_name":"市民バス・コミュニティバス","license":"CC0 1.0","source_stop_id":"S62_2","stop_code":null,"stop_name":"旭ヶ丘東","stop_desc":null,"zone_id":"S62_2","location_type":0,"parent_station":null,"wheelchair_boarding":null}},{"type":"Feature","id":"F016:S63_1","geometry":{"type":"Point","coordinates":[139.470302848846,35.5602936057231]},"properties":{"id":"F016:S63_1","feed_id":"F016","feed_slug":"machida-community-bus","municipality":"町田市","service_name":"市民バス・コミュニティバス","license":"CC0 1.0","source_stop_id":"S63_1","stop_code":null,"stop_name":"東急台入口","stop_desc":null,"zone_id":"S63_1","location_type":0,"parent_station":null,"wheelchair_boarding":null}},{"type":"Feature","id":"F016:S63_2","geometry":{"type":"Point","coordinates":[139.470302848846,35.5602936057231]},"properties":{"id":"F016:S63_2","feed_id":"F016","feed_slug":"machida-community-bus","municipality":"町田市","service_name":"市民バス・コミュニティバス","license":"CC0 1.0","source_stop_id":"S63_2","stop_code":null,"stop_name":"東急台入口","stop_desc":null,"zone_id":"S63_2","location_type":0,"parent_station":null,"wheelchair_boarding":null}},{"type":"Feature","id":"F016:S64_1","geometry":{"type":"Point","coordinates":[139.47096257344,35.5588267742536]},"properties":{"id":"F016:S64_1","feed_id":"F016","feed_slug":"machida-community-bus","municipality":"町田市","service_name":"市民バス・コミュニティバス","license":"CC0 1.0","source_stop_id":"S64_1","stop_code":null,"stop_name":"つつじヶ丘","stop_desc":null,"zone_id":"S64_1","location_type":0,"parent_station":null,"wheelchair_boarding":null}},{"type":"Feature","id":"F016:S64_2","geometry":{"type":"Point","coordinates":[139.47096257344,35.5588267742536]},"properties":{"id":"F016:S64_2","feed_id":"F016","feed_slug":"machida-community-bus","municipality":"町田市","service_name":"市民バス・コミュニティバス","license":"CC0 1.0","source_stop_id":"S64_2","stop_code":null,"stop_name":"つつじヶ丘","stop_desc":null,"zone_id":"S64_2","location_type":0,"parent_station":null,"wheelchair_boarding":null}},{"type":"Feature","id":"F016:S65_1","geometry":{"type":"Point","coordinates":[139.470754336193,35.5568565040798]},"properties":{"id":"F016:S65_1","feed_id":"F016","feed_slug":"machida-community-bus","municipality":"町田市","service_name":"市民バス・コミュニティバス","license":"CC0 1.0","source_stop_id":"S65_1","stop_code":null,"stop_name":"成瀬南台公園","stop_desc":null,"zone_id":"S65_1","location_type":0,"parent_station":null,"wheelchair_boarding":null}},{"type":"Feature","id":"F016:S66_1","geometry":{"type":"Point","coordinates":[139.469921049424,35.5574640525314]},"properties":{"id":"F016:S66_1","feed_id":"F016","feed_slug":"machida-community-bus","municipality":"町田市","service_name":"市民バス・コミュニティバス","license":"CC0 1.0","source_stop_id":"S66_1","stop_code":null,"stop_name":"児童公園前［町田市］","stop_desc":null,"zone_id":"S66_1","location_type":0,"parent_station":null,"wheelchair_boarding":null}},{"type":"Feature","id":"F016:S66_2","geometry":{"type":"Point","coordinates":[139.469921049424,35.5574640525314]},"properties":{"id":"F016:S66_2","feed_id":"F016","feed_slug":"machida-community-bus","municipality":"町田市","service_name":"市民バス・コミュニティバス","license":"CC0 1.0","source_stop_id":"S66_2","stop_code":null,"stop_name":"児童公園前［町田市］","stop_desc":null,"zone_id":"S66_2","location_type":0,"parent_station":null,"wheelchair_boarding":null}},{"type":"Feature","id":"F016:S67_1","geometry":{"type":"Point","coordinates":[139.468601645495,35.5592606905099]},"properties":{"id":"F016:S67_1","feed_id":"F016","feed_slug":"machida-community-bus","municipality":"町田市","service_name":"市民バス・コミュニティバス","license":"CC0 1.0","source_stop_id":"S67_1","stop_code":null,"stop_name":"東玉川学園四丁目","stop_desc":null,"zone_id":"S67_1","location_type":0,"parent_station":null,"wheelchair_boarding":null}},{"type":"Feature","id":"F016:S67_2","geometry":{"type":"Point","coordinates":[139.468601645495,35.5592606905099]},"properties":{"id":"F016:S67_2","feed_id":"F016","feed_slug":"machida-community-bus","municipality":"町田市","service_name":"市民バス・コミュニティバス","license":"CC0 1.0","source_stop_id":"S67_2","stop_code":null,"stop_name":"東玉川学園四丁目","stop_desc":null,"zone_id":"S67_2","location_type":0,"parent_station":null,"wheelchair_boarding":null}},{"type":"Feature","id":"F016:S68_1","geometry":{"type":"Point","coordinates":[139.46724762418,35.5584968515009]},"properties":{"id":"F016:S68_1","feed_id":"F016","feed_slug":"machida-community-bus","municipality":"町田市","service_name":"市民バス・コミュニティバス","license":"CC0 1.0","source_stop_id":"S68_1","stop_code":null,"stop_name":"こすもす会館","stop_desc":null,"zone_id":"S68_1","location_type":0,"parent_station":null,"wheelchair_boarding":null}},{"type":"Feature","id":"F016:S69_1","geometry":{"type":"Point","coordinates":[139.466449117472,35.5575767948157]},"properties":{"id":"F016:S69_1","feed_id":"F016","feed_slug":"machida-community-bus","municipality":"町田市","service_name":"市民バス・コミュニティバス","license":"CC0 1.0","source_stop_id":"S69_1","stop_code":null,"stop_name":"化石谷公園","stop_desc":null,"zone_id":"S69_1","location_type":0,"parent_station":null,"wheelchair_boarding":null}},{"type":"Feature","id":"F016:S70_1","geometry":{"type":"Point","coordinates":[139.471900184155,35.5540443506251]},"properties":{"id":"F016:S70_1","feed_id":"F016","feed_slug":"machida-community-bus","municipality":"町田市","service_name":"市民バス・コミュニティバス","license":"CC0 1.0","source_stop_id":"S70_1","stop_code":null,"stop_name":"昭和薬科大学","stop_desc":null,"zone_id":"S70_1","location_type":0,"parent_station":null,"wheelchair_boarding":null}},{"type":"Feature","id":"F016:S71_1","geometry":{"type":"Point","coordinates":[139.472907088019,35.5529160319833]},"properties":{"id":"F016:S71_1","feed_id":"F016","feed_slug":"machida-community-bus","municipality":"町田市","service_name":"市民バス・コミュニティバス","license":"CC0 1.0","source_stop_id":"S71_1","stop_code":null,"stop_name":"成瀬山緑地","stop_desc":null,"zone_id":"S71_1","location_type":0,"parent_station":null,"wheelchair_boarding":null}},{"type":"Feature","id":"F016:S72_1","geometry":{"type":"Point","coordinates":[139.475198519418,35.5539402833119]},"properties":{"id":"F016:S72_1","feed_id":"F016","feed_slug":"machida-community-bus","municipality":"町田市","service_name":"市民バス・コミュニティバス","license":"CC0 1.0","source_stop_id":"S72_1","stop_code":null,"stop_name":"成瀬台三丁目","stop_desc":null,"zone_id":"S72_1","location_type":0,"parent_station":null,"wheelchair_boarding":null}},{"type":"Feature","id":"F016:S73_1","geometry":{"type":"Point","coordinates":[139.475615104438,35.5551033581]},"properties":{"id":"F016:S73_1","feed_id":"F016","feed_slug":"machida-community-bus","municipality":"町田市","service_name":"市民バス・コミュニティバス","license":"CC0 1.0","source_stop_id":"S73_1","stop_code":null,"stop_name":"成瀬中央通り","stop_desc":null,"zone_id":"S73_1","location_type":0,"parent_station":null,"wheelchair_boarding":null}},{"type":"Feature","id":"F016:S74_1","geometry":{"type":"Point","coordinates":[139.475337287032,35.5566917138502]},"properties":{"id":"F016:S74_1","feed_id":"F016","feed_slug":"machida-community-bus","municipality":"町田市","service_name":"市民バス・コミュニティバス","license":"CC0 1.0","source_stop_id":"S74_1","stop_code":null,"stop_name":"成瀬台四丁目西","stop_desc":null,"zone_id":"S74_1","location_type":0,"parent_station":null,"wheelchair_boarding":null}},{"type":"Feature","id":"F016:S75_1","geometry":{"type":"Point","coordinates":[139.473392964465,35.5577766096711]},"properties":{"id":"F016:S75_1","feed_id":"F016","feed_slug":"machida-community-bus","municipality":"町田市","service_name":"市民バス・コミュニティバス","license":"CC0 1.0","source_stop_id":"S75_1","stop_code":null,"stop_name":"東急台南","stop_desc":null,"zone_id":"S75_1","location_type":0,"parent_station":null,"wheelchair_boarding":null}},{"type":"Feature","id":"F016:S76_1","geometry":{"type":"Point","coordinates":[139.471969478689,35.5576637373033]},"properties":{"id":"F016:S76_1","feed_id":"F016","feed_slug":"machida-community-bus","municipality":"町田市","service_name":"市民バス・コミュニティバス","license":"CC0 1.0","source_stop_id":"S76_1","stop_code":null,"stop_name":"東玉川学園二丁目","stop_desc":null,"zone_id":"S76_1","location_type":0,"parent_station":null,"wheelchair_boarding":null}},{"type":"Feature","id":"F016:S77_1","geometry":{"type":"Point","coordinates":[139.468566736925,35.564017099341]},"properties":{"id":"F016:S77_1","feed_id":"F016","feed_slug":"machida-community-bus","municipality":"町田市","service_name":"市民バス・コミュニティバス","license":"CC0 1.0","source_stop_id":"S77_1","stop_code":null,"stop_name":"鶯谷北","stop_desc":null,"zone_id":"S77_1","location_type":0,"parent_station":null,"wheelchair_boarding":null}},{"type":"Feature","id":"F016:S78_1","geometry":{"type":"Point","coordinates":[139.465164260476,35.5637045440481]},"properties":{"id":"F016:S78_1","feed_id":"F016","feed_slug":"machida-community-bus","municipality":"町田市","service_name":"市民バス・コミュニティバス","license":"CC0 1.0","source_stop_id":"S78_1","stop_code":null,"stop_name":"ぬぼこ山","stop_desc":null,"zone_id":"S78_1","location_type":0,"parent_station":null,"wheelchair_boarding":null}},{"type":"Feature","id":"F016:S79_1","geometry":{"type":"Point","coordinates":[139.463636704629,35.5613870556468]},"properties":{"id":"F016:S79_1","feed_id":"F016","feed_slug":"machida-community-bus","municipality":"町田市","service_name":"市民バス・コミュニティバス","license":"CC0 1.0","source_stop_id":"S79_1","stop_code":null,"stop_name":"七丁目児童公園前","stop_desc":null,"zone_id":"S79_1","location_type":0,"parent_station":null,"wheelchair_boarding":null}},{"type":"Feature","id":"F016:S80_1","geometry":{"type":"Point","coordinates":[139.462595236564,35.5586182420059]},"properties":{"id":"F016:S80_1","feed_id":"F016","feed_slug":"machida-community-bus","municipality":"町田市","service_name":"市民バス・コミュニティバス","license":"CC0 1.0","source_stop_id":"S80_1","stop_code":null,"stop_name":"松見ヶ丘北","stop_desc":null,"zone_id":"S80_1","location_type":0,"parent_station":null,"wheelchair_boarding":null}},{"type":"Feature","id":"F016:S81_1","geometry":{"type":"Point","coordinates":[139.462421697168,35.5571861067175]},"properties":{"id":"F016:S81_1","feed_id":"F016","feed_slug":"machida-community-bus","municipality":"町田市","service_name":"市民バス・コミュニティバス","license":"CC0 1.0","source_stop_id":"S81_1","stop_code":null,"stop_name":"松見ヶ丘西","stop_desc":null,"zone_id":"S81_1","location_type":0,"parent_station":null,"wheelchair_boarding":null}},{"type":"Feature","id":"F016:S82_1","geometry":{"type":"Point","coordinates":[139.463046688306,35.5560751370966]},"properties":{"id":"F016:S82_1","feed_id":"F016","feed_slug":"machida-community-bus","municipality":"町田市","service_name":"市民バス・コミュニティバス","license":"CC0 1.0","source_stop_id":"S82_1","stop_code":null,"stop_name":"松見ヶ丘南","stop_desc":null,"zone_id":"S82_1","location_type":0,"parent_station":null,"wheelchair_boarding":null}},{"type":"Feature","id":"F016:S83_1","geometry":{"type":"Point","coordinates":[139.463324405211,35.5570125391026]},"properties":{"id":"F016:S83_1","feed_id":"F016","feed_slug":"machida-community-bus","municipality":"町田市","service_name":"市民バス・コミュニティバス","license":"CC0 1.0","source_stop_id":"S83_1","stop_code":null,"stop_name":"松見ヶ丘尾根","stop_desc":null,"zone_id":"S83_1","location_type":0,"parent_station":null,"wheelchair_boarding":null}},{"type":"Feature","id":"F016:S84_1","geometry":{"type":"Point","coordinates":[139.463671547194,35.5582884465671]},"properties":{"id":"F016:S84_1","feed_id":"F016","feed_slug":"machida-community-bus","municipality":"町田市","service_name":"市民バス・コミュニティバス","license":"CC0 1.0","source_stop_id":"S84_1","stop_code":null,"stop_name":"松見ヶ丘東","stop_desc":null,"zone_id":"S84_1","location_type":0,"parent_station":null,"wheelchair_boarding":null}},{"type":"Feature","id":"F016:S85_1","geometry":{"type":"Point","coordinates":[139.463740949828,35.5591911247167]},"properties":{"id":"F016:S85_1","feed_id":"F016","feed_slug":"machida-community-bus","municipality":"町田市","service_name":"市民バス・コミュニティバス","license":"CC0 1.0","source_stop_id":"S85_1","stop_code":null,"stop_name":"無窮坂上","stop_desc":null,"zone_id":"S85_1","location_type":0,"parent_station":null,"wheelchair_boarding":null}},{"type":"Feature","id":"F016:S86_1","geometry":{"type":"Point","coordinates":[139.462317373586,35.5613523022725]},"properties":{"id":"F016:S86_1","feed_id":"F016","feed_slug":"machida-community-bus","municipality":"町田市","service_name":"市民バス・コミュニティバス","license":"CC0 1.0","source_stop_id":"S86_1","stop_code":null,"stop_name":"のらくろ坂下","stop_desc":null,"zone_id":"S86_1","location_type":0,"parent_station":null,"wheelchair_boarding":null}},{"type":"Feature","id":"F016:S87_1","geometry":{"type":"Point","coordinates":[139.462976953451,35.5635222147501]},"properties":{"id":"F016:S87_1","feed_id":"F016","feed_slug":"machida-community-bus","municipality":"町田市","service_name":"市民バス・コミュニティバス","license":"CC0 1.0","source_stop_id":"S87_1","stop_code":null,"stop_name":"玉川学園前駅","stop_desc":null,"zone_id":"S87_1","location_type":0,"parent_station":null,"wheelchair_boarding":null}},{"type":"Feature","id":"F016:S87_2","geometry":{"type":"Point","coordinates":[139.462976953451,35.5635222147501]},"properties":{"id":"F016:S87_2","feed_id":"F016","feed_slug":"machida-community-bus","municipality":"町田市","service_name":"市民バス・コミュニティバス","license":"CC0 1.0","source_stop_id":"S87_2","stop_code":null,"stop_name":"玉川学園前駅","stop_desc":null,"zone_id":"S87_2","location_type":0,"parent_station":null,"wheelchair_boarding":null}},{"type":"Feature","id":"F016:S88_1","geometry":{"type":"Point","coordinates":[139.461727141434,35.5614651211278]},"properties":{"id":"F016:S88_1","feed_id":"F016","feed_slug":"machida-community-bus","municipality":"町田市","service_name":"市民バス・コミュニティバス","license":"CC0 1.0","source_stop_id":"S88_1","stop_code":null,"stop_name":"玉川学園前駅西","stop_desc":null,"zone_id":"S88_1","location_type":0,"parent_station":null,"wheelchair_boarding":null}},{"type":"Feature","id":"F016:S89_1","geometry":{"type":"Point","coordinates":[139.461310569888,35.5599635427505]},"properties":{"id":"F016:S89_1","feed_id":"F016","feed_slug":"machida-community-bus","municipality":"町田市","service_name":"市民バス・コミュニティバス","license":"CC0 1.0","source_stop_id":"S89_1","stop_code":null,"stop_name":"玉川学園一丁目","stop_desc":null,"zone_id":"S89_1","location_type":0,"parent_station":null,"wheelchair_boarding":null}},{"type":"Feature","id":"F016:S90_1","geometry":{"type":"Point","coordinates":[139.460199571758,35.5594948159229]},"properties":{"id":"F016:S90_1","feed_id":"F016","feed_slug":"machida-community-bus","municipality":"町田市","service_name":"市民バス・コミュニティバス","license":"CC0 1.0","source_stop_id":"S90_1","stop_code":null,"stop_name":"月見ヶ丘","stop_desc":null,"zone_id":"S90_1","location_type":0,"parent_station":null,"wheelchair_boarding":null}},{"type":"Feature","id":"F016:S91_1","geometry":{"type":"Point","coordinates":[139.458845502451,35.5599374385207]},"properties":{"id":"F016:S91_1","feed_id":"F016","feed_slug":"machida-community-bus","municipality":"町田市","service_name":"市民バス・コミュニティバス","license":"CC0 1.0","source_stop_id":"S91_1","stop_code":null,"stop_name":"一丁目児童公園","stop_desc":null,"zone_id":"S91_1","location_type":0,"parent_station":null,"wheelchair_boarding":null}},{"type":"Feature","id":"F016:S92_1","geometry":{"type":"Point","coordinates":[139.457144246275,35.5602324990388]},"properties":{"id":"F016:S92_1","feed_id":"F016","feed_slug":"machida-community-bus","municipality":"町田市","service_name":"市民バス・コミュニティバス","license":"CC0 1.0","source_stop_id":"S92_1","stop_code":null,"stop_name":"玉園台児童遊園","stop_desc":null,"zone_id":"S92_1","location_type":0,"parent_station":null,"wheelchair_boarding":null}},{"type":"Feature","id":"F016:S93_1","geometry":{"type":"Point","coordinates":[139.455234584334,35.5627929243438]},"properties":{"id":"F016:S93_1","feed_id":"F016","feed_slug":"machida-community-bus","municipality":"町田市","service_name":"市民バス・コミュニティバス","license":"CC0 1.0","source_stop_id":"S93_1","stop_code":null,"stop_name":"玉園台","stop_desc":null,"zone_id":"S93_1","location_type":0,"parent_station":null,"wheelchair_boarding":null}},{"type":"Feature","id":"F016:S94_1","geometry":{"type":"Point","coordinates":[139.454922074263,35.5637129514958]},"properties":{"id":"F016:S94_1","feed_id":"F016","feed_slug":"machida-community-bus","municipality":"町田市","service_name":"市民バス・コミュニティバス","license":"CC0 1.0","source_stop_id":"S94_1","stop_code":null,"stop_name":"玉林台駐在所","stop_desc":null,"zone_id":"S94_1","location_type":0,"parent_station":null,"wheelchair_boarding":null}},{"type":"Feature","id":"F016:S95_1","geometry":{"type":"Point","coordinates":[139.456901049396,35.5643032154943]},"properties":{"id":"F016:S95_1","feed_id":"F016","feed_slug":"machida-community-bus","municipality":"町田市","service_name":"市民バス・コミュニティバス","license":"CC0 1.0","source_stop_id":"S95_1","stop_code":null,"stop_name":"第五小学校","stop_desc":null,"zone_id":"S95_1","location_type":0,"parent_station":null,"wheelchair_boarding":null}},{"type":"Feature","id":"F016:S96_1","geometry":{"type":"Point","coordinates":[139.458046819975,35.563435287959]},"properties":{"id":"F016:S96_1","feed_id":"F016","feed_slug":"machida-community-bus","municipality":"町田市","service_name":"市民バス・コミュニティバス","license":"CC0 1.0","source_stop_id":"S96_1","stop_code":null,"stop_name":"さくらんぼホール","stop_desc":null,"zone_id":"S96_1","location_type":0,"parent_station":null,"wheelchair_boarding":null}},{"type":"Feature","id":"F016:S97_1","geometry":{"type":"Point","coordinates":[139.454609562119,35.5646850561246]},"properties":{"id":"F016:S97_1","feed_id":"F016","feed_slug":"machida-community-bus","municipality":"町田市","service_name":"市民バス・コミュニティバス","license":"CC0 1.0","source_stop_id":"S97_1","stop_code":null,"stop_name":"朝日公園","stop_desc":null,"zone_id":"S97_1","location_type":0,"parent_station":null,"wheelchair_boarding":null}},{"type":"Feature","id":"F016:S98_1","geometry":{"type":"Point","coordinates":[139.454748352871,35.5668549547422]},"properties":{"id":"F016:S98_1","feed_id":"F016","feed_slug":"machida-community-bus","municipality":"町田市","service_name":"市民バス・コミュニティバス","license":"CC0 1.0","source_stop_id":"S98_1","stop_code":null,"stop_name":"すみれ児童公園","stop_desc":null,"zone_id":"S98_1","location_type":0,"parent_station":null,"wheelchair_boarding":null}},{"type":"Feature","id":"F016:S99_1","geometry":{"type":"Point","coordinates":[139.455650984218,35.5686082538233]},"properties":{"id":"F016:S99_1","feed_id":"F016","feed_slug":"machida-community-bus","municipality":"町田市","service_name":"市民バス・コミュニティバス","license":"CC0 1.0","source_stop_id":"S99_1","stop_code":null,"stop_name":"金井なかよし公園","stop_desc":null,"zone_id":"S99_1","location_type":0,"parent_station":null,"wheelchair_boarding":null}},{"type":"Feature","id":"F016:S100_1","geometry":{"type":"Point","coordinates":[139.456067540541,35.5704917336819]},"properties":{"id":"F016:S100_1","feed_id":"F016","feed_slug":"machida-community-bus","municipality":"町田市","service_name":"市民バス・コミュニティバス","license":"CC0 1.0","source_stop_id":"S100_1","stop_code":null,"stop_name":"ゆうき山公園","stop_desc":null,"zone_id":"S100_1","location_type":0,"parent_station":null,"wheelchair_boarding":null}},{"type":"Feature","id":"F016:S101_1","geometry":{"type":"Point","coordinates":[139.457109048965,35.5722450364484]},"properties":{"id":"F016:S101_1","feed_id":"F016","feed_slug":"machida-community-bus","municipality":"町田市","service_name":"市民バス・コミュニティバス","license":"CC0 1.0","source_stop_id":"S101_1","stop_code":null,"stop_name":"木倉有楽","stop_desc":null,"zone_id":"S101_1","location_type":0,"parent_station":null,"wheelchair_boarding":null}},{"type":"Feature","id":"F016:S102_1","geometry":{"type":"Point","coordinates":[139.458845030273,35.5718024240172]},"properties":{"id":"F016:S102_1","feed_id":"F016","feed_slug":"machida-community-bus","municipality":"町田市","service_name":"市民バス・コミュニティバス","license":"CC0 1.0","source_stop_id":"S102_1","stop_code":null,"stop_name":"有楽入口","stop_desc":null,"zone_id":"S102_1","location_type":0,"parent_station":null,"wheelchair_boarding":null}},{"type":"Feature","id":"F016:S103_1","geometry":{"type":"Point","coordinates":[139.458845109046,35.5698234798522]},"properties":{"id":"F016:S103_1","feed_id":"F016","feed_slug":"machida-community-bus","municipality":"町田市","service_name":"市民バス・コミュニティバス","license":"CC0 1.0","source_stop_id":"S103_1","stop_code":null,"stop_name":"金井小学校","stop_desc":null,"zone_id":"S103_1","location_type":0,"parent_station":null,"wheelchair_boarding":null}},{"type":"Feature","id":"F016:S104_1","geometry":{"type":"Point","coordinates":[139.459539542891,35.5686083571468]},"properties":{"id":"F016:S104_1","feed_id":"F016","feed_slug":"machida-community-bus","municipality":"町田市","service_name":"市民バス・コミュニティバス","license":"CC0 1.0","source_stop_id":"S104_1","stop_code":null,"stop_name":"松風台","stop_desc":null,"zone_id":"S104_1","location_type":0,"parent_station":null,"wheelchair_boarding":null}},{"type":"Feature","id":"F016:S105_1","geometry":{"type":"Point","coordinates":[139.462004601668,35.5688514508841]},"properties":{"id":"F016:S105_1","feed_id":"F016","feed_slug":"machida-community-bus","municipality":"町田市","service_name":"市民バス・コミュニティバス","license":"CC0 1.0","source_stop_id":"S105_1","stop_code":null,"stop_name":"夕日ヶ丘","stop_desc":null,"zone_id":"S105_1","location_type":0,"parent_station":null,"wheelchair_boarding":null}},{"type":"Feature","id":"F016:S106_1","geometry":{"type":"Point","coordinates":[139.463914198019,35.5679401457592]},"properties":{"id":"F016:S106_1","feed_id":"F016","feed_slug":"machida-community-bus","municipality":"町田市","service_name":"市民バス・コミュニティバス","license":"CC0 1.0","source_stop_id":"S106_1","stop_code":null,"stop_name":"玉川学園なかよし公園","stop_desc":null,"zone_id":"S106_1","location_type":0,"parent_station":null,"wheelchair_boarding":null}},{"type":"Feature","id":"F016:S107_1","geometry":{"type":"Point","coordinates":[139.402277,35.588364]},"properties":{"id":"F016:S107_1","feed_id":"F016","feed_slug":"machida-community-bus","municipality":"町田市","service_name":"市民バス・コミュニティバス","license":"CC0 1.0","source_stop_id":"S107_1","stop_code":null,"stop_name":"小山田桜台","stop_desc":null,"zone_id":"S107_1","location_type":0,"parent_station":null,"wheelchair_boarding":null}},{"type":"Feature","id":"F016:S108_1","geometry":{"type":"Point","coordinates":[139.406617,35.588264]},"properties":{"id":"F016:S108_1","feed_id":"F016","feed_slug":"machida-community-bus","municipality":"町田市","service_name":"市民バス・コミュニティバス","license":"CC0 1.0","source_stop_id":"S108_1","stop_code":null,"stop_name":"桜台入口","stop_desc":null,"zone_id":"S108_1","location_type":0,"parent_station":null,"wheelchair_boarding":null}},{"type":"Feature","id":"F016:S109_1","geometry":{"type":"Point","coordinates":[139.408903,35.592016]},"properties":{"id":"F016:S109_1","feed_id":"F016","feed_slug":"machida-community-bus","municipality":"町田市","service_name":"市民バス・コミュニティバス","license":"CC0 1.0","source_stop_id":"S109_1","stop_code":null,"stop_name":"清住平","stop_desc":null,"zone_id":"S109_1","location_type":0,"parent_station":null,"wheelchair_boarding":null}},{"type":"Feature","id":"F016:S109_2","geometry":{"type":"Point","coordinates":[139.410625,35.59291]},"properties":{"id":"F016:S109_2","feed_id":"F016","feed_slug":"machida-community-bus","municipality":"町田市","service_name":"市民バス・コミュニティバス","license":"CC0 1.0","source_stop_id":"S109_2","stop_code":null,"stop_name":"清住平","stop_desc":null,"zone_id":"S109_2","location_type":0,"parent_station":null,"wheelchair_boarding":null}},{"type":"Feature","id":"F016:S110_1","geometry":{"type":"Point","coordinates":[139.411129,35.596051]},"properties":{"id":"F016:S110_1","feed_id":"F016","feed_slug":"machida-community-bus","municipality":"町田市","service_name":"市民バス・コミュニティバス","license":"CC0 1.0","source_stop_id":"S110_1","stop_code":null,"stop_name":"大泉寺","stop_desc":null,"zone_id":"S110_1","location_type":0,"parent_station":null,"wheelchair_boarding":null}},{"type":"Feature","id":"F016:S110_2","geometry":{"type":"Point","coordinates":[139.410866,35.596413]},"properties":{"id":"F016:S110_2","feed_id":"F016","feed_slug":"machida-community-bus","municipality":"町田市","service_name":"市民バス・コミュニティバス","license":"CC0 1.0","source_stop_id":"S110_2","stop_code":null,"stop_name":"大泉寺","stop_desc":null,"zone_id":"S110_2","location_type":0,"parent_station":null,"wheelchair_boarding":null}},{"type":"Feature","id":"F016:S111_1","geometry":{"type":"Point","coordinates":[139.408833,35.596962]},"properties":{"id":"F016:S111_1","feed_id":"F016","feed_slug":"machida-community-bus","municipality":"町田市","service_name":"市民バス・コミュニティバス","license":"CC0 1.0","source_stop_id":"S111_1","stop_code":null,"stop_name":"山の端","stop_desc":null,"zone_id":"S111_1","location_type":0,"parent_station":null,"wheelchair_boarding":null}},{"type":"Feature","id":"F016:S111_2","geometry":{"type":"Point","coordinates":[139.40872,35.597076]},"properties":{"id":"F016:S111_2","feed_id":"F016","feed_slug":"machida-community-bus","municipality":"町田市","service_name":"市民バス・コミュニティバス","license":"CC0 1.0","source_stop_id":"S111_2","stop_code":null,"stop_name":"山の端","stop_desc":null,"zone_id":"S111_2","location_type":0,"parent_station":null,"wheelchair_boarding":null}},{"type":"Feature","id":"F016:S112_1","geometry":{"type":"Point","coordinates":[139.408253,35.602031]},"properties":{"id":"F016:S112_1","feed_id":"F016","feed_slug":"machida-community-bus","municipality":"町田市","service_name":"市民バス・コミュニティバス","license":"CC0 1.0","source_stop_id":"S112_1","stop_code":null,"stop_name":"大善倶楽部","stop_desc":null,"zone_id":"S112_1","location_type":0,"parent_station":null,"wheelchair_boarding":null}},{"type":"Feature","id":"F016:S112_2","geometry":{"type":"Point","coordinates":[139.408506,35.601725]},"properties":{"id":"F016:S112_2","feed_id":"F016","feed_slug":"machida-community-bus","municipality":"町田市","service_name":"市民バス・コミュニティバス","license":"CC0 1.0","source_stop_id":"S112_2","stop_code":null,"stop_name":"大善倶楽部","stop_desc":null,"zone_id":"S112_2","location_type":0,"parent_station":null,"wheelchair_boarding":null}},{"type":"Feature","id":"F016:S113_1","geometry":{"type":"Point","coordinates":[139.407502,35.60844]},"properties":{"id":"F016:S113_1","feed_id":"F016","feed_slug":"machida-community-bus","municipality":"町田市","service_name":"市民バス・コミュニティバス","license":"CC0 1.0","source_stop_id":"S113_1","stop_code":null,"stop_name":"山中集会所","stop_desc":null,"zone_id":"S113_1","location_type":0,"parent_station":null,"wheelchair_boarding":null}},{"type":"Feature","id":"F016:S113_2","geometry":{"type":"Point","coordinates":[139.407701,35.608423]},"properties":{"id":"F016:S113_2","feed_id":"F016","feed_slug":"machida-community-bus","municipality":"町田市","service_name":"市民バス・コミュニティバス","license":"CC0 1.0","source_stop_id":"S113_2","stop_code":null,"stop_name":"山中集会所","stop_desc":null,"zone_id":"S113_2","location_type":0,"parent_station":null,"wheelchair_boarding":null}},{"type":"Feature","id":"F016:S114_1","geometry":{"type":"Point","coordinates":[139.412003,35.616009]},"properties":{"id":"F016:S114_1","feed_id":"F016","feed_slug":"machida-community-bus","municipality":"町田市","service_name":"市民バス・コミュニティバス","license":"CC0 1.0","source_stop_id":"S114_1","stop_code":null,"stop_name":"唐木田駅東","stop_desc":null,"zone_id":"S114_1","location_type":0,"parent_station":null,"wheelchair_boarding":null}},{"type":"Feature","id":"F016:S114_2","geometry":{"type":"Point","coordinates":[139.412159,35.615882]},"properties":{"id":"F016:S114_2","feed_id":"F016","feed_slug":"machida-community-bus","municipality":"町田市","service_name":"市民バス・コミュニティバス","license":"CC0 1.0","source_stop_id":"S114_2","stop_code":null,"stop_name":"唐木田駅東","stop_desc":null,"zone_id":"S114_2","location_type":0,"parent_station":null,"wheelchair_boarding":null}},{"type":"Feature","id":"F016:S115_1","geometry":{"type":"Point","coordinates":[139.414905,35.622367]},"properties":{"id":"F016:S115_1","feed_id":"F016","feed_slug":"machida-community-bus","municipality":"町田市","service_name":"市民バス・コミュニティバス","license":"CC0 1.0","source_stop_id":"S115_1","stop_code":null,"stop_name":"多摩南部地域病院","stop_desc":null,"zone_id":"S115_1","location_type":0,"parent_station":null,"wheelchair_boarding":null}},{"type":"Feature","id":"F016:S116_1","geometry":{"type":"Point","coordinates":[139.467064,35.52769]},"properties":{"id":"F016:S116_1","feed_id":"F016","feed_slug":"machida-community-bus","municipality":"町田市","service_name":"市民バス・コミュニティバス","license":"CC0 1.0","source_stop_id":"S116_1","stop_code":null,"stop_name":"柳橋","stop_desc":null,"zone_id":"S116_1","location_type":0,"parent_station":null,"wheelchair_boarding":null}}]}
