{"type":"FeatureCollection","name":"itabashi-rinringo_routes","features":[{"type":"Feature","id":"F008:8011:fallback-1","geometry":{"type":"LineString","coordinates":[[139.650747,35.792545],[139.653193,35.790817],[139.651932,35.786549],[139.649025,35.783946],[139.645275,35.782449],[139.647276,35.778263],[139.647008,35.775516],[139.646482,35.772922],[139.646021,35.770672],[139.649245,35.770254],[139.652672,35.770189],[139.654861,35.771421],[139.655505,35.774376],[139.654641,35.777192],[139.654706,35.780143],[139.652383,35.781422],[139.653659,35.784099],[139.651782,35.786614],[139.652426,35.790265],[139.650747,35.792545]]},"properties":{"id":"F008:8011:fallback-1","feed_id":"F008","feed_slug":"itabashi-rinringo","municipality":"板橋区","service_name":"りんりんGO","license":"CC BY 4.0","source_route_id":"8011","route_short_name":null,"route_long_name":"りんりんＧＯ（反時計回り）","route_desc":null,"route_type":3,"route_url":null,"route_color":null,"route_text_color":"000000","directions":["1"],"geometry_source":"stop_times.txt fallback"}},{"type":"Feature","id":"F008:8021:fallback-1","geometry":{"type":"LineString","coordinates":[[139.650747,35.792545],[139.653193,35.790817],[139.651932,35.786549],[139.649025,35.783946],[139.645275,35.782449],[139.647276,35.778263],[139.647008,35.775516],[139.646482,35.772922],[139.646021,35.770672],[139.649245,35.770254],[139.652672,35.770189],[139.654861,35.771421],[139.655505,35.774376],[139.654641,35.777192],[139.654706,35.780143],[139.652383,35.781422],[139.653659,35.784099],[139.651782,35.786614],[139.652426,35.790265],[139.650747,35.792545]]},"properties":{"id":"F008:8021:fallback-1","feed_id":"F008","feed_slug":"itabashi-rinringo","municipality":"板橋区","service_name":"りんりんGO","license":"CC BY 4.0","source_route_id":"8021","route_short_name":null,"route_long_name":"りんりんＧＯ（時計回り）","route_desc":null,"route_type":3,"route_url":null,"route_color":null,"route_text_color":"000000","directions":["1"],"geometry_source":"stop_times.txt fallback"}}]}
