{"type":"FeatureCollection","name":"itabashi-rinringo_stops","features":[{"type":"Feature","id":"F008:80001_1","geometry":{"type":"Point","coordinates":[139.650747,35.792545]},"properties":{"id":"F008:80001_1","feed_id":"F008","feed_slug":"itabashi-rinringo","municipality":"板橋区","service_name":"りんりんGO","license":"CC BY 4.0","source_stop_id":"80001_1","stop_code":null,"stop_name":"板橋市場","stop_desc":null,"zone_id":"80001_1","location_type":0,"parent_station":null,"wheelchair_boarding":null}},{"type":"Feature","id":"F008:80002_1","geometry":{"type":"Point","coordinates":[139.653193,35.790817]},"properties":{"id":"F008:80002_1","feed_id":"F008","feed_slug":"itabashi-rinringo","municipality":"板橋区","service_name":"りんりんGO","license":"CC BY 4.0","source_stop_id":"80002_1","stop_code":null,"stop_name":"新高島平駅","stop_desc":null,"zone_id":"80002_1","location_type":0,"parent_station":null,"wheelchair_boarding":null}},{"type":"Feature","id":"F008:80002_2","geometry":{"type":"Point","coordinates":[139.652426,35.790265]},"properties":{"id":"F008:80002_2","feed_id":"F008","feed_slug":"itabashi-rinringo","municipality":"板橋区","service_name":"りんりんGO","license":"CC BY 4.0","source_stop_id":"80002_2","stop_code":null,"stop_name":"新高島平駅","stop_desc":null,"zone_id":"80002_2","location_type":0,"parent_station":null,"wheelchair_boarding":null}},{"type":"Feature","id":"F008:80003_1","geometry":{"type":"Point","coordinates":[139.651932,35.786549]},"properties":{"id":"F008:80003_1","feed_id":"F008","feed_slug":"itabashi-rinringo","municipality":"板橋区","service_name":"りんりんGO","license":"CC BY 4.0","source_stop_id":"80003_1","stop_code":null,"stop_name":"高島平三丁目","stop_desc":null,"zone_id":"80003_1","location_type":0,"parent_station":null,"wheelchair_boarding":null}},{"type":"Feature","id":"F008:80003_2","geometry":{"type":"Point","coordinates":[139.651782,35.786614]},"properties":{"id":"F008:80003_2","feed_id":"F008","feed_slug":"itabashi-rinringo","municipality":"板橋区","service_name":"りんりんGO","license":"CC BY 4.0","source_stop_id":"80003_2","stop_code":null,"stop_name":"高島平三丁目","stop_desc":null,"zone_id":"80003_2","location_type":0,"parent_station":null,"wheelchair_boarding":null}},{"type":"Feature","id":"F008:80004_1","geometry":{"type":"Point","coordinates":[139.649025,35.783946]},"properties":{"id":"F008:80004_1","feed_id":"F008","feed_slug":"itabashi-rinringo","municipality":"板橋区","service_name":"りんりんGO","license":"CC BY 4.0","source_stop_id":"80004_1","stop_code":null,"stop_name":"大門竹の子公園","stop_desc":null,"zone_id":"80004_1","location_type":0,"parent_station":null,"wheelchair_boarding":null}},{"type":"Feature","id":"F008:80004_2","geometry":{"type":"Point","coordinates":[139.647957,35.784055]},"properties":{"id":"F008:80004_2","feed_id":"F008","feed_slug":"itabashi-rinringo","municipality":"板橋区","service_name":"りんりんGO","license":"CC BY 4.0","source_stop_id":"80004_2","stop_code":null,"stop_name":"大門竹の子公園","stop_desc":null,"zone_id":"80004_2","location_type":0,"parent_station":null,"wheelchair_boarding":null}},{"type":"Feature","id":"F008:80005_1","geometry":{"type":"Point","coordinates":[139.645275,35.782449]},"properties":{"id":"F008:80005_1","feed_id":"F008","feed_slug":"itabashi-rinringo","municipality":"板橋区","service_name":"りんりんGO","license":"CC BY 4.0","source_stop_id":"80005_1","stop_code":null,"stop_name":"区立美術館入口","stop_desc":null,"zone_id":"80005_1","location_type":0,"parent_station":null,"wheelchair_boarding":null}},{"type":"Feature","id":"F008:80005_2","geometry":{"type":"Point","coordinates":[139.644899,35.783011]},"properties":{"id":"F008:80005_2","feed_id":"F008","feed_slug":"itabashi-rinringo","municipality":"板橋区","service_name":"りんりんGO","license":"CC BY 4.0","source_stop_id":"80005_2","stop_code":null,"stop_name":"区立美術館入口","stop_desc":null,"zone_id":"80005_2","location_type":0,"parent_station":null,"wheelchair_boarding":null}},{"type":"Feature","id":"F008:80006_1","geometry":{"type":"Point","coordinates":[139.647276,35.778263]},"properties":{"id":"F008:80006_1","feed_id":"F008","feed_slug":"itabashi-rinringo","municipality":"板橋区","service_name":"りんりんGO","license":"CC BY 4.0","source_stop_id":"80006_1","stop_code":null,"stop_name":"赤塚庁舎入口","stop_desc":null,"zone_id":"80006_1","location_type":0,"parent_station":null,"wheelchair_boarding":null}},{"type":"Feature","id":"F008:80006_2","geometry":{"type":"Point","coordinates":[139.647185,35.778432]},"properties":{"id":"F008:80006_2","feed_id":"F008","feed_slug":"itabashi-rinringo","municipality":"板橋区","service_name":"りんりんGO","license":"CC BY 4.0","source_stop_id":"80006_2","stop_code":null,"stop_name":"赤塚庁舎入口","stop_desc":null,"zone_id":"80006_2","location_type":0,"parent_station":null,"wheelchair_boarding":null}},{"type":"Feature","id":"F008:80007_1","geometry":{"type":"Point","coordinates":[139.647008,35.775516]},"properties":{"id":"F008:80007_1","feed_id":"F008","feed_slug":"itabashi-rinringo","municipality":"板橋区","service_name":"りんりんGO","license":"CC BY 4.0","source_stop_id":"80007_1","stop_code":null,"stop_name":"赤塚六丁目","stop_desc":null,"zone_id":"80007_1","location_type":0,"parent_station":null,"wheelchair_boarding":null}},{"type":"Feature","id":"F008:80007_2","geometry":{"type":"Point","coordinates":[139.646863,35.775312]},"properties":{"id":"F008:80007_2","feed_id":"F008","feed_slug":"itabashi-rinringo","municipality":"板橋区","service_name":"りんりんGO","license":"CC BY 4.0","source_stop_id":"80007_2","stop_code":null,"stop_name":"赤塚六丁目","stop_desc":null,"zone_id":"80007_2","location_type":0,"parent_station":null,"wheelchair_boarding":null}},{"type":"Feature","id":"F008:80008_1","geometry":{"type":"Point","coordinates":[139.646482,35.772922]},"properties":{"id":"F008:80008_1","feed_id":"F008","feed_slug":"itabashi-rinringo","municipality":"板橋区","service_name":"りんりんGO","license":"CC BY 4.0","source_stop_id":"80008_1","stop_code":null,"stop_name":"赤塚健康福祉センター入口","stop_desc":null,"zone_id":"80008_1","location_type":0,"parent_station":null,"wheelchair_boarding":null}},{"type":"Feature","id":"F008:80008_2","geometry":{"type":"Point","coordinates":[139.646557,35.773884]},"properties":{"id":"F008:80008_2","feed_id":"F008","feed_slug":"itabashi-rinringo","municipality":"板橋区","service_name":"りんりんGO","license":"CC BY 4.0","source_stop_id":"80008_2","stop_code":null,"stop_name":"赤塚健康福祉センター入口","stop_desc":null,"zone_id":"80008_2","location_type":0,"parent_station":null,"wheelchair_boarding":null}},{"type":"Feature","id":"F008:80009_1","geometry":{"type":"Point","coordinates":[139.646021,35.770672]},"properties":{"id":"F008:80009_1","feed_id":"F008","feed_slug":"itabashi-rinringo","municipality":"板橋区","service_name":"りんりんGO","license":"CC BY 4.0","source_stop_id":"80009_1","stop_code":null,"stop_name":"下赤塚駅","stop_desc":null,"zone_id":"80009_1","location_type":0,"parent_station":null,"wheelchair_boarding":null}},{"type":"Feature","id":"F008:80009_2","geometry":{"type":"Point","coordinates":[139.646203,35.770529]},"properties":{"id":"F008:80009_2","feed_id":"F008","feed_slug":"itabashi-rinringo","municipality":"板橋区","service_name":"りんりんGO","license":"CC BY 4.0","source_stop_id":"80009_2","stop_code":null,"stop_name":"下赤塚駅","stop_desc":null,"zone_id":"80009_2","location_type":0,"parent_station":null,"wheelchair_boarding":null}},{"type":"Feature","id":"F008:80010_1","geometry":{"type":"Point","coordinates":[139.649245,35.770254]},"properties":{"id":"F008:80010_1","feed_id":"F008","feed_slug":"itabashi-rinringo","municipality":"板橋区","service_name":"りんりんGO","license":"CC BY 4.0","source_stop_id":"80010_1","stop_code":null,"stop_name":"赤塚一丁目","stop_desc":null,"zone_id":"80010_1","location_type":0,"parent_station":null,"wheelchair_boarding":null}},{"type":"Feature","id":"F008:80010_2","geometry":{"type":"Point","coordinates":[139.649207,35.770176]},"properties":{"id":"F008:80010_2","feed_id":"F008","feed_slug":"itabashi-rinringo","municipality":"板橋区","service_name":"りんりんGO","license":"CC BY 4.0","source_stop_id":"80010_2","stop_code":null,"stop_name":"赤塚一丁目","stop_desc":null,"zone_id":"80010_2","location_type":0,"parent_station":null,"wheelchair_boarding":null}},{"type":"Feature","id":"F008:80011_1","geometry":{"type":"Point","coordinates":[139.652672,35.770189]},"properties":{"id":"F008:80011_1","feed_id":"F008","feed_slug":"itabashi-rinringo","municipality":"板橋区","service_name":"りんりんGO","license":"CC BY 4.0","source_stop_id":"80011_1","stop_code":null,"stop_name":"赤塚第一中学校","stop_desc":null,"zone_id":"80011_1","location_type":0,"parent_station":null,"wheelchair_boarding":null}},{"type":"Feature","id":"F008:80011_2","geometry":{"type":"Point","coordinates":[139.652597,35.770115]},"properties":{"id":"F008:80011_2","feed_id":"F008","feed_slug":"itabashi-rinringo","municipality":"板橋区","service_name":"りんりんGO","license":"CC BY 4.0","source_stop_id":"80011_2","stop_code":null,"stop_name":"赤塚第一中学校","stop_desc":null,"zone_id":"80011_2","location_type":0,"parent_station":null,"wheelchair_boarding":null}},{"type":"Feature","id":"F008:80012_1","geometry":{"type":"Point","coordinates":[139.654861,35.771421]},"properties":{"id":"F008:80012_1","feed_id":"F008","feed_slug":"itabashi-rinringo","municipality":"板橋区","service_name":"りんりんGO","license":"CC BY 4.0","source_stop_id":"80012_1","stop_code":null,"stop_name":"徳丸本町公園入口","stop_desc":null,"zone_id":"80012_1","location_type":0,"parent_station":null,"wheelchair_boarding":null}},{"type":"Feature","id":"F008:80012_2","geometry":{"type":"Point","coordinates":[139.65499,35.771517]},"properties":{"id":"F008:80012_2","feed_id":"F008","feed_slug":"itabashi-rinringo","municipality":"板橋区","service_name":"りんりんGO","license":"CC BY 4.0","source_stop_id":"80012_2","stop_code":null,"stop_name":"徳丸本町公園入口","stop_desc":null,"zone_id":"80012_2","location_type":0,"parent_station":null,"wheelchair_boarding":null}},{"type":"Feature","id":"F008:80013_1","geometry":{"type":"Point","coordinates":[139.655505,35.774376]},"properties":{"id":"F008:80013_1","feed_id":"F008","feed_slug":"itabashi-rinringo","municipality":"板橋区","service_name":"りんりんGO","license":"CC BY 4.0","source_stop_id":"80013_1","stop_code":null,"stop_name":"おいせ坂上","stop_desc":null,"zone_id":"80013_1","location_type":0,"parent_station":null,"wheelchair_boarding":null}},{"type":"Feature","id":"F008:80013_2","geometry":{"type":"Point","coordinates":[139.655601,35.77452]},"properties":{"id":"F008:80013_2","feed_id":"F008","feed_slug":"itabashi-rinringo","municipality":"板橋区","service_name":"りんりんGO","license":"CC BY 4.0","source_stop_id":"80013_2","stop_code":null,"stop_name":"おいせ坂上","stop_desc":null,"zone_id":"80013_2","location_type":0,"parent_station":null,"wheelchair_boarding":null}},{"type":"Feature","id":"F008:80014_1","geometry":{"type":"Point","coordinates":[139.654641,35.777192]},"properties":{"id":"F008:80014_1","feed_id":"F008","feed_slug":"itabashi-rinringo","municipality":"板橋区","service_name":"りんりんGO","license":"CC BY 4.0","source_stop_id":"80014_1","stop_code":null,"stop_name":"徳丸五丁目","stop_desc":null,"zone_id":"80014_1","location_type":0,"parent_station":null,"wheelchair_boarding":null}},{"type":"Feature","id":"F008:80014_2","geometry":{"type":"Point","coordinates":[139.654791,35.776839]},"properties":{"id":"F008:80014_2","feed_id":"F008","feed_slug":"itabashi-rinringo","municipality":"板橋区","service_name":"りんりんGO","license":"CC BY 4.0","source_stop_id":"80014_2","stop_code":null,"stop_name":"徳丸五丁目","stop_desc":null,"zone_id":"80014_2","location_type":0,"parent_station":null,"wheelchair_boarding":null}},{"type":"Feature","id":"F008:80015_1","geometry":{"type":"Point","coordinates":[139.654706,35.780143]},"properties":{"id":"F008:80015_1","feed_id":"F008","feed_slug":"itabashi-rinringo","municipality":"板橋区","service_name":"りんりんGO","license":"CC BY 4.0","source_stop_id":"80015_1","stop_code":null,"stop_name":"徳丸西","stop_desc":null,"zone_id":"80015_1","location_type":0,"parent_station":null,"wheelchair_boarding":null}},{"type":"Feature","id":"F008:80015_2","geometry":{"type":"Point","coordinates":[139.654706,35.780487]},"properties":{"id":"F008:80015_2","feed_id":"F008","feed_slug":"itabashi-rinringo","municipality":"板橋区","service_name":"りんりんGO","license":"CC BY 4.0","source_stop_id":"80015_2","stop_code":null,"stop_name":"徳丸西","stop_desc":null,"zone_id":"80015_2","location_type":0,"parent_station":null,"wheelchair_boarding":null}},{"type":"Feature","id":"F008:80016_1","geometry":{"type":"Point","coordinates":[139.652383,35.781422]},"properties":{"id":"F008:80016_1","feed_id":"F008","feed_slug":"itabashi-rinringo","municipality":"板橋区","service_name":"りんりんGO","license":"CC BY 4.0","source_stop_id":"80016_1","stop_code":null,"stop_name":"四葉二丁目","stop_desc":null,"zone_id":"80016_1","location_type":0,"parent_station":null,"wheelchair_boarding":null}},{"type":"Feature","id":"F008:80016_2","geometry":{"type":"Point","coordinates":[139.652474,35.781474]},"properties":{"id":"F008:80016_2","feed_id":"F008","feed_slug":"itabashi-rinringo","municipality":"板橋区","service_name":"りんりんGO","license":"CC BY 4.0","source_stop_id":"80016_2","stop_code":null,"stop_name":"四葉二丁目","stop_desc":null,"zone_id":"80016_2","location_type":0,"parent_station":null,"wheelchair_boarding":null}},{"type":"Feature","id":"F008:80017_1","geometry":{"type":"Point","coordinates":[139.653659,35.784099]},"properties":{"id":"F008:80017_1","feed_id":"F008","feed_slug":"itabashi-rinringo","municipality":"板橋区","service_name":"りんりんGO","license":"CC BY 4.0","source_stop_id":"80017_1","stop_code":null,"stop_name":"赤塚高速下","stop_desc":null,"zone_id":"80017_1","location_type":0,"parent_station":null,"wheelchair_boarding":null}},{"type":"Feature","id":"F008:80017_2","geometry":{"type":"Point","coordinates":[139.652597,35.78473]},"properties":{"id":"F008:80017_2","feed_id":"F008","feed_slug":"itabashi-rinringo","municipality":"板橋区","service_name":"りんりんGO","license":"CC BY 4.0","source_stop_id":"80017_2","stop_code":null,"stop_name":"赤塚高速下","stop_desc":null,"zone_id":"80017_2","location_type":0,"parent_station":null,"wheelchair_boarding":null}}]}
