{"type":"FeatureCollection","name":"ogasawara-village-bus_routes","features":[{"type":"Feature","id":"F023:10:fallback-0","geometry":{"type":"LineString","coordinates":[[142.192109,27.094564],[142.194712,27.094942],[142.196281,27.095342],[142.198214,27.098869],[142.199788,27.099802],[142.203705,27.099552],[142.207249,27.087027],[142.204013,27.07294],[142.202782,27.071198],[142.204714,27.067051],[142.196856,27.060263]]},"properties":{"id":"F023:10:fallback-0","feed_id":"F023","feed_slug":"ogasawara-village-bus","municipality":"小笠原村","service_name":"村営バス","license":"CC BY 4.0","source_route_id":"10","route_short_name":null,"route_long_name":"村営バス　扇浦線","route_desc":null,"route_type":3,"route_url":null,"route_color":null,"route_text_color":null,"directions":["0"],"geometry_source":"stop_times.txt fallback"}},{"type":"Feature","id":"F023:10:fallback-1","geometry":{"type":"LineString","coordinates":[[142.196856,27.060263],[142.204714,27.067051],[142.202782,27.071198],[142.204007,27.073012],[142.207259,27.086962],[142.203707,27.099458],[142.199875,27.099763],[142.198282,27.098813],[142.196303,27.095271],[142.194584,27.094849],[142.192078,27.094497]]},"properties":{"id":"F023:10:fallback-1","feed_id":"F023","feed_slug":"ogasawara-village-bus","municipality":"小笠原村","service_name":"村営バス","license":"CC BY 4.0","source_route_id":"10","route_short_name":null,"route_long_name":"村営バス　扇浦線","route_desc":null,"route_type":3,"route_url":null,"route_color":null,"route_text_color":null,"directions":["1"],"geometry_source":"stop_times.txt fallback"}},{"type":"Feature","id":"F023:11:fallback-0","geometry":{"type":"LineString","coordinates":[[142.192109,27.094564],[142.194712,27.094942],[142.196281,27.095342],[142.198214,27.098869],[142.199788,27.099802],[142.201679,27.099518],[142.203707,27.099458],[142.199875,27.099763],[142.198282,27.098813],[142.196209,27.098854],[142.194519,27.09895],[142.194892,27.100962],[142.19803,27.100582],[142.194892,27.100962],[142.194607,27.099826],[142.191627,27.09697],[142.189546,27.094576],[142.191478,27.093351],[142.192078,27.094497]]},"properties":{"id":"F023:11:fallback-0","feed_id":"F023","feed_slug":"ogasawara-village-bus","municipality":"小笠原村","service_name":"村営バス","license":"CC BY 4.0","source_route_id":"11","route_short_name":null,"route_long_name":"村営バス　ブルーライン","route_desc":null,"route_type":3,"route_url":null,"route_color":"C5D9F1","route_text_color":"000000","directions":["0"],"geometry_source":"stop_times.txt fallback"}},{"type":"Feature","id":"F023:12:fallback-0","geometry":{"type":"LineString","coordinates":[[142.192109,27.094564],[142.191551,27.093313],[142.189546,27.094576],[142.191627,27.09697],[142.194607,27.099826],[142.194892,27.100962],[142.19803,27.100582],[142.194892,27.100962],[142.194519,27.09895],[142.196209,27.098854],[142.198214,27.098869],[142.199788,27.099802],[142.201679,27.099518],[142.203707,27.099458],[142.199875,27.099763],[142.198282,27.098813],[142.196303,27.095271],[142.194584,27.094849],[142.192078,27.094497]]},"properties":{"id":"F023:12:fallback-0","feed_id":"F023","feed_slug":"ogasawara-village-bus","municipality":"小笠原村","service_name":"村営バス","license":"CC BY 4.0","source_route_id":"12","route_short_name":null,"route_long_name":"村営バス　オレンジライン","route_desc":null,"route_type":3,"route_url":null,"route_color":"FCD5B4","route_text_color":"000000","directions":["0"],"geometry_source":"stop_times.txt fallback"}}]}
