{"type":"FeatureCollection","name":"ogasawara-village-bus_stops","features":[{"type":"Feature","id":"F023:1_01","geometry":{"type":"Point","coordinates":[142.192109,27.094564]},"properties":{"id":"F023:1_01","feed_id":"F023","feed_slug":"ogasawara-village-bus","municipality":"小笠原村","service_name":"村営バス","license":"CC BY 4.0","source_stop_id":"1_01","stop_code":null,"stop_name":"村役場前","stop_desc":null,"zone_id":"1_01","location_type":0,"parent_station":null,"wheelchair_boarding":null}},{"type":"Feature","id":"F023:1_02","geometry":{"type":"Point","coordinates":[142.192078,27.094497]},"properties":{"id":"F023:1_02","feed_id":"F023","feed_slug":"ogasawara-village-bus","municipality":"小笠原村","service_name":"村営バス","license":"CC BY 4.0","source_stop_id":"1_02","stop_code":null,"stop_name":"村役場前","stop_desc":null,"zone_id":"1_02","location_type":0,"parent_station":null,"wheelchair_boarding":null}},{"type":"Feature","id":"F023:10_01","geometry":{"type":"Point","coordinates":[142.194892,27.100962]},"properties":{"id":"F023:10_01","feed_id":"F023","feed_slug":"ogasawara-village-bus","municipality":"小笠原村","service_name":"村営バス","license":"CC BY 4.0","source_stop_id":"10_01","stop_code":null,"stop_name":"清瀬西","stop_desc":null,"zone_id":"10_01","location_type":0,"parent_station":null,"wheelchair_boarding":null}},{"type":"Feature","id":"F023:11_01","geometry":{"type":"Point","coordinates":[142.19803,27.100582]},"properties":{"id":"F023:11_01","feed_id":"F023","feed_slug":"ogasawara-village-bus","municipality":"小笠原村","service_name":"村営バス","license":"CC BY 4.0","source_stop_id":"11_01","stop_code":null,"stop_name":"清瀬","stop_desc":null,"zone_id":"11_01","location_type":0,"parent_station":null,"wheelchair_boarding":null}},{"type":"Feature","id":"F023:12_01","geometry":{"type":"Point","coordinates":[142.194607,27.099826]},"properties":{"id":"F023:12_01","feed_id":"F023","feed_slug":"ogasawara-village-bus","municipality":"小笠原村","service_name":"村営バス","license":"CC BY 4.0","source_stop_id":"12_01","stop_code":null,"stop_name":"宮之浜入口","stop_desc":null,"zone_id":"12_01","location_type":0,"parent_station":null,"wheelchair_boarding":null}},{"type":"Feature","id":"F023:13_01","geometry":{"type":"Point","coordinates":[142.191627,27.09697]},"properties":{"id":"F023:13_01","feed_id":"F023","feed_slug":"ogasawara-village-bus","municipality":"小笠原村","service_name":"村営バス","license":"CC BY 4.0","source_stop_id":"13_01","stop_code":null,"stop_name":"小中学校裏","stop_desc":null,"zone_id":"13_01","location_type":0,"parent_station":null,"wheelchair_boarding":null}},{"type":"Feature","id":"F023:14_01","geometry":{"type":"Point","coordinates":[142.189546,27.094576]},"properties":{"id":"F023:14_01","feed_id":"F023","feed_slug":"ogasawara-village-bus","municipality":"小笠原村","service_name":"村営バス","license":"CC BY 4.0","source_stop_id":"14_01","stop_code":null,"stop_name":"三日月山入口","stop_desc":null,"zone_id":"14_01","location_type":0,"parent_station":null,"wheelchair_boarding":null}},{"type":"Feature","id":"F023:15_01","geometry":{"type":"Point","coordinates":[142.191478,27.093351]},"properties":{"id":"F023:15_01","feed_id":"F023","feed_slug":"ogasawara-village-bus","municipality":"小笠原村","service_name":"村営バス","license":"CC BY 4.0","source_stop_id":"15_01","stop_code":null,"stop_name":"西町","stop_desc":null,"zone_id":"15_01","location_type":0,"parent_station":null,"wheelchair_boarding":null}},{"type":"Feature","id":"F023:15_02","geometry":{"type":"Point","coordinates":[142.191551,27.093313]},"properties":{"id":"F023:15_02","feed_id":"F023","feed_slug":"ogasawara-village-bus","municipality":"小笠原村","service_name":"村営バス","license":"CC BY 4.0","source_stop_id":"15_02","stop_code":null,"stop_name":"西町","stop_desc":null,"zone_id":"15_02","location_type":0,"parent_station":null,"wheelchair_boarding":null}},{"type":"Feature","id":"F023:16_01","geometry":{"type":"Point","coordinates":[142.207249,27.087027]},"properties":{"id":"F023:16_01","feed_id":"F023","feed_slug":"ogasawara-village-bus","municipality":"小笠原村","service_name":"村営バス","license":"CC BY 4.0","source_stop_id":"16_01","stop_code":null,"stop_name":"境浦海岸","stop_desc":null,"zone_id":"16_01","location_type":0,"parent_station":null,"wheelchair_boarding":null}},{"type":"Feature","id":"F023:16_02","geometry":{"type":"Point","coordinates":[142.207259,27.086962]},"properties":{"id":"F023:16_02","feed_id":"F023","feed_slug":"ogasawara-village-bus","municipality":"小笠原村","service_name":"村営バス","license":"CC BY 4.0","source_stop_id":"16_02","stop_code":null,"stop_name":"境浦海岸","stop_desc":null,"zone_id":"16_02","location_type":0,"parent_station":null,"wheelchair_boarding":null}},{"type":"Feature","id":"F023:17_01","geometry":{"type":"Point","coordinates":[142.204013,27.07294]},"properties":{"id":"F023:17_01","feed_id":"F023","feed_slug":"ogasawara-village-bus","municipality":"小笠原村","service_name":"村営バス","license":"CC BY 4.0","source_stop_id":"17_01","stop_code":null,"stop_name":"扇浦海岸","stop_desc":null,"zone_id":"17_01","location_type":0,"parent_station":null,"wheelchair_boarding":null}},{"type":"Feature","id":"F023:17_02","geometry":{"type":"Point","coordinates":[142.204007,27.073012]},"properties":{"id":"F023:17_02","feed_id":"F023","feed_slug":"ogasawara-village-bus","municipality":"小笠原村","service_name":"村営バス","license":"CC BY 4.0","source_stop_id":"17_02","stop_code":null,"stop_name":"扇浦海岸","stop_desc":null,"zone_id":"17_02","location_type":0,"parent_station":null,"wheelchair_boarding":null}},{"type":"Feature","id":"F023:18_01","geometry":{"type":"Point","coordinates":[142.202782,27.071198]},"properties":{"id":"F023:18_01","feed_id":"F023","feed_slug":"ogasawara-village-bus","municipality":"小笠原村","service_name":"村営バス","license":"CC BY 4.0","source_stop_id":"18_01","stop_code":null,"stop_name":"交流センター","stop_desc":null,"zone_id":"18_01","location_type":0,"parent_station":null,"wheelchair_boarding":null}},{"type":"Feature","id":"F023:19_01","geometry":{"type":"Point","coordinates":[142.204714,27.067051]},"properties":{"id":"F023:19_01","feed_id":"F023","feed_slug":"ogasawara-village-bus","municipality":"小笠原村","service_name":"村営バス","license":"CC BY 4.0","source_stop_id":"19_01","stop_code":null,"stop_name":"農業センター","stop_desc":null,"zone_id":"19_01","location_type":0,"parent_station":null,"wheelchair_boarding":null}},{"type":"Feature","id":"F023:2_01","geometry":{"type":"Point","coordinates":[142.194712,27.094942]},"properties":{"id":"F023:2_01","feed_id":"F023","feed_slug":"ogasawara-village-bus","municipality":"小笠原村","service_name":"村営バス","license":"CC BY 4.0","source_stop_id":"2_01","stop_code":null,"stop_name":"青灯台入口","stop_desc":null,"zone_id":"2_01","location_type":0,"parent_station":null,"wheelchair_boarding":null}},{"type":"Feature","id":"F023:2_02","geometry":{"type":"Point","coordinates":[142.194584,27.094849]},"properties":{"id":"F023:2_02","feed_id":"F023","feed_slug":"ogasawara-village-bus","municipality":"小笠原村","service_name":"村営バス","license":"CC BY 4.0","source_stop_id":"2_02","stop_code":null,"stop_name":"青灯台入口","stop_desc":null,"zone_id":"2_02","location_type":0,"parent_station":null,"wheelchair_boarding":null}},{"type":"Feature","id":"F023:20_01","geometry":{"type":"Point","coordinates":[142.196856,27.060263]},"properties":{"id":"F023:20_01","feed_id":"F023","feed_slug":"ogasawara-village-bus","municipality":"小笠原村","service_name":"村営バス","license":"CC BY 4.0","source_stop_id":"20_01","stop_code":null,"stop_name":"小港海岸","stop_desc":null,"zone_id":"20_01","location_type":0,"parent_station":null,"wheelchair_boarding":null}},{"type":"Feature","id":"F023:3_01","geometry":{"type":"Point","coordinates":[142.196281,27.095342]},"properties":{"id":"F023:3_01","feed_id":"F023","feed_slug":"ogasawara-village-bus","municipality":"小笠原村","service_name":"村営バス","license":"CC BY 4.0","source_stop_id":"3_01","stop_code":null,"stop_name":"船客待合所","stop_desc":null,"zone_id":"3_01","location_type":0,"parent_station":null,"wheelchair_boarding":null}},{"type":"Feature","id":"F023:3_02","geometry":{"type":"Point","coordinates":[142.196303,27.095271]},"properties":{"id":"F023:3_02","feed_id":"F023","feed_slug":"ogasawara-village-bus","municipality":"小笠原村","service_name":"村営バス","license":"CC BY 4.0","source_stop_id":"3_02","stop_code":null,"stop_name":"船客待合所","stop_desc":null,"zone_id":"3_02","location_type":0,"parent_station":null,"wheelchair_boarding":null}},{"type":"Feature","id":"F023:4_01","geometry":{"type":"Point","coordinates":[142.198214,27.098869]},"properties":{"id":"F023:4_01","feed_id":"F023","feed_slug":"ogasawara-village-bus","municipality":"小笠原村","service_name":"村営バス","license":"CC BY 4.0","source_stop_id":"4_01","stop_code":null,"stop_name":"清瀬交差点","stop_desc":null,"zone_id":"4_01","location_type":0,"parent_station":null,"wheelchair_boarding":null}},{"type":"Feature","id":"F023:4_02","geometry":{"type":"Point","coordinates":[142.198282,27.098813]},"properties":{"id":"F023:4_02","feed_id":"F023","feed_slug":"ogasawara-village-bus","municipality":"小笠原村","service_name":"村営バス","license":"CC BY 4.0","source_stop_id":"4_02","stop_code":null,"stop_name":"清瀬交差点","stop_desc":null,"zone_id":"4_02","location_type":0,"parent_station":null,"wheelchair_boarding":null}},{"type":"Feature","id":"F023:5_01","geometry":{"type":"Point","coordinates":[142.199788,27.099802]},"properties":{"id":"F023:5_01","feed_id":"F023","feed_slug":"ogasawara-village-bus","municipality":"小笠原村","service_name":"村営バス","license":"CC BY 4.0","source_stop_id":"5_01","stop_code":null,"stop_name":"福祉センター","stop_desc":null,"zone_id":"5_01","location_type":0,"parent_station":null,"wheelchair_boarding":null}},{"type":"Feature","id":"F023:5_02","geometry":{"type":"Point","coordinates":[142.199875,27.099763]},"properties":{"id":"F023:5_02","feed_id":"F023","feed_slug":"ogasawara-village-bus","municipality":"小笠原村","service_name":"村営バス","license":"CC BY 4.0","source_stop_id":"5_02","stop_code":null,"stop_name":"福祉センター","stop_desc":null,"zone_id":"5_02","location_type":0,"parent_station":null,"wheelchair_boarding":null}},{"type":"Feature","id":"F023:6_01","geometry":{"type":"Point","coordinates":[142.201679,27.099518]},"properties":{"id":"F023:6_01","feed_id":"F023","feed_slug":"ogasawara-village-bus","municipality":"小笠原村","service_name":"村営バス","license":"CC BY 4.0","source_stop_id":"6_01","stop_code":null,"stop_name":"奥村運動場","stop_desc":null,"zone_id":"6_01","location_type":0,"parent_station":null,"wheelchair_boarding":null}},{"type":"Feature","id":"F023:7_01","geometry":{"type":"Point","coordinates":[142.203705,27.099552]},"properties":{"id":"F023:7_01","feed_id":"F023","feed_slug":"ogasawara-village-bus","municipality":"小笠原村","service_name":"村営バス","license":"CC BY 4.0","source_stop_id":"7_01","stop_code":null,"stop_name":"奥村","stop_desc":null,"zone_id":"7_01","location_type":0,"parent_station":null,"wheelchair_boarding":null}},{"type":"Feature","id":"F023:7_02","geometry":{"type":"Point","coordinates":[142.203707,27.099458]},"properties":{"id":"F023:7_02","feed_id":"F023","feed_slug":"ogasawara-village-bus","municipality":"小笠原村","service_name":"村営バス","license":"CC BY 4.0","source_stop_id":"7_02","stop_code":null,"stop_name":"奥村","stop_desc":null,"zone_id":"7_02","location_type":0,"parent_station":null,"wheelchair_boarding":null}},{"type":"Feature","id":"F023:8_01","geometry":{"type":"Point","coordinates":[142.196209,27.098854]},"properties":{"id":"F023:8_01","feed_id":"F023","feed_slug":"ogasawara-village-bus","municipality":"小笠原村","service_name":"村営バス","license":"CC BY 4.0","source_stop_id":"8_01","stop_code":null,"stop_name":"診療所","stop_desc":null,"zone_id":"8_01","location_type":0,"parent_station":null,"wheelchair_boarding":null}},{"type":"Feature","id":"F023:9_01","geometry":{"type":"Point","coordinates":[142.194519,27.09895]},"properties":{"id":"F023:9_01","feed_id":"F023","feed_slug":"ogasawara-village-bus","municipality":"小笠原村","service_name":"村営バス","license":"CC BY 4.0","source_stop_id":"9_01","stop_code":null,"stop_name":"二見台新都住","stop_desc":null,"zone_id":"9_01","location_type":0,"parent_station":null,"wheelchair_boarding":null}}]}
