{"type":"FeatureCollection","name":"mizuho-community-bus_routes","features":[{"type":"Feature","id":"F018:4:SHP0011","geometry":{"type":"LineString","coordinates":[[139.347127,35.770943],[139.347142,35.77116],[139.34756,35.771073],[139.347743,35.771064],[139.347866,35.771673],[139.347941,35.772104],[139.348102,35.772953],[139.348226,35.773301],[139.348928,35.773001],[139.349293,35.772788],[139.350581,35.772087],[139.351144,35.771665],[139.351541,35.771334],[139.352517,35.770629],[139.352893,35.771094],[139.35344,35.771834],[139.353644,35.772117],[139.353735,35.772226],[139.354126,35.772722],[139.354797,35.772431],[139.355205,35.772239],[139.355339,35.772435],[139.355537,35.772774],[139.355881,35.773036],[139.35638,35.772735],[139.356589,35.772962],[139.35698,35.773667],[139.357077,35.773823],[139.357415,35.774167],[139.35727,35.774211],[139.35737,35.774311],[139.357511,35.774224],[139.357141,35.773832],[139.356991,35.773562],[139.356648,35.772992],[139.356412,35.772692],[139.355902,35.773018],[139.355543,35.772796],[139.355355,35.772422],[139.355183,35.772209],[139.354776,35.772404],[139.354159,35.7727],[139.353756,35.772139],[139.353504,35.771791],[139.352909,35.771047],[139.35256,35.770581],[139.35153,35.771321],[139.351101,35.77163],[139.350548,35.772078],[139.349245,35.7728],[139.34888,35.773018],[139.348236,35.773275],[139.348113,35.772905],[139.348006,35.772087],[139.347807,35.771038],[139.347743,35.770659],[139.347169,35.770942]]},"properties":{"id":"F018:4:SHP0011","feed_id":"F018","feed_slug":"mizuho-community-bus","municipality":"瑞穂町","service_name":"コミュニティバス","license":"CC BY 4.0","source_route_id":"4","route_short_name":null,"route_long_name":"瑞穂町コミュニティバス　ふれあいセンターコース","route_desc":null,"route_type":3,"route_url":null,"route_color":"CCFF66","route_text_color":"000000","directions":["0"],"geometry_source":"shapes.txt"}},{"type":"Feature","id":"F018:5:R5_shape","geometry":{"type":"LineString","coordinates":[[139.34715095086455,35.770968813132924],[139.34708523674902,35.77102049875321],[139.3471080355238,35.77118371628095],[139.34760893801663,35.771064567518714],[139.34777389391246,35.77105586257932],[139.3479539783935,35.772090672368684],[139.34806133494843,35.77283202],[139.34821383724585,35.77329394891086],[139.34860978788493,35.773177964272456],[139.3488471159649,35.77306392227222],[139.34928292378652,35.77282036468837],[139.35062637023924,35.77206447181326],[139.35139556753217,35.77143751654198],[139.35206799709883,35.77095612],[139.3525497165945,35.77061283933674],[139.3527784795075,35.77091179422336],[139.35347888717754,35.77185037555511],[139.35412376972621,35.77271344],[139.35430105944081,35.77268765],[139.35520516642632,35.77224523],[139.3553556154784,35.77242632],[139.35553926222238,35.772751832421385],[139.3557052506087,35.77291401],[139.35588677834122,35.77303034786208],[139.35598425236756,35.77300054790331],[139.3564017,35.772708278481716],[139.35656768392153,35.772904844114116],[139.3566743402837,35.77304868629282],[139.35692346835833,35.77351787684781],[139.35714172542654,35.773865731105225],[139.35743556020046,35.77409725105473],[139.35726392115416,35.77421243770763],[139.35734373684238,35.77430412845544],[139.35757965223948,35.77421186464012],[139.3574807655461,35.77409897026089],[139.35719046245677,35.77386573110754],[139.35705979073725,35.77370355212852],[139.35676524963134,35.77315053651414],[139.35664799825338,35.772947667643145],[139.35641349552336,35.772679467333276],[139.3559176493558,35.77301930218976],[139.35570645563203,35.772894371501266],[139.35560827523167,35.77281585990853],[139.35551666204506,35.77267014638776],[139.35527156430467,35.77224205550251],[139.3551288849223,35.77223288619193],[139.3541760409331,35.772689631056025],[139.3540211375777,35.772514572447996],[139.35312949243732,35.77132554282103],[139.35260963093086,35.77063095674867],[139.35224019024378,35.77013820561123],[139.3516998450522,35.76941438096278],[139.35059019500616,35.76793117892213],[139.35017698987448,35.76741480263093],[139.3499749784669,35.767349467321026],[139.34945441061265,35.767605077078436],[139.34912314016273,35.767724284936655],[139.34753600858272,35.76856962399376],[139.34744277253876,35.768699146335884],[139.34750139823063,35.76897939528551],[139.34761200882792,35.76968956306528],[139.34766357118122,35.77007010062625],[139.34766074585232,35.77025234538238],[139.34771160186168,35.77069649358277],[139.34715095086455,35.770968813132924]]},"properties":{"id":"F018:5:R5_shape","feed_id":"F018","feed_slug":"mizuho-community-bus","municipality":"瑞穂町","service_name":"コミュニティバス","license":"CC BY 4.0","source_route_id":"5","route_short_name":null,"route_long_name":"瑞穂町コミュニティバス　箱根ケ崎駅東口循環コース","route_desc":null,"route_type":3,"route_url":null,"route_color":"800080","route_text_color":"FFFFFF","directions":["1"],"geometry_source":"shapes.txt"}},{"type":"Feature","id":"F018:1:SHP0007","geometry":{"type":"LineString","coordinates":[[139.3547281,35.78636484],[139.3548104,35.78655931],[139.3550169,35.78729256],[139.3554059,35.78865026],[139.355422,35.78870901],[139.3555722,35.78927907],[139.3556687,35.78957498],[139.3559316,35.79017768],[139.3560737,35.79043866],[139.3560845,35.79045836],[139.3561623,35.7906259],[139.356181,35.79069117],[139.356299,35.79108282],[139.3563259,35.79116549],[139.3563554,35.79125033],[139.3565029,35.79166804],[139.3566343,35.79200961],[139.3573532,35.79185297],[139.3582034,35.79166804],[139.3583322,35.79163976],[139.3584165,35.79162137],[139.3584727,35.79160913],[139.358941,35.79150705],[139.359574,35.79136782],[139.3598396,35.79133083],[139.3599388,35.7913243],[139.3601856,35.79133518],[139.3606737,35.79138957],[139.3607461,35.7913961],[139.3615723,35.79149617],[139.3618459,35.79152663],[139.3619987,35.79154186],[139.3627122,35.79161583],[139.3628302,35.79162453],[139.3630126,35.79161365],[139.3631333,35.79159407],[139.3638843,35.79143308],[139.364064,35.79140915],[139.364281,35.79140231],[139.3645468,35.79139392],[139.3647319,35.79138522],[139.3648365,35.79138957],[139.3653749,35.79143012],[139.365963,35.79147442],[139.3665934,35.79154186],[139.3666658,35.79154404],[139.3670091,35.79155056],[139.3671298,35.79155056],[139.3680364,35.79165281],[139.3680686,35.79165499],[139.3681732,35.79166804],[139.3689778,35.79175942],[139.3697745,35.79184862],[139.3702841,35.79192694],[139.3702975,35.79193129],[139.3704504,35.79166804],[139.3707803,35.79108282],[139.3708849,35.79090222],[139.3709119,35.79085347],[139.3711585,35.79040832],[139.3713516,35.7900406],[139.3711853,35.78986219],[139.3710271,35.78974034],[139.3707374,35.78960544],[139.3704423,35.78950535],[139.3694794,35.78917898],[139.3693024,35.78911806],[139.3690369,35.78902233],[139.3689778,35.78899622],[139.3686908,35.78886132],[139.3686753,35.78885238],[139.3685944,35.78880592],[139.3684521,35.78872424],[139.3675724,35.7882151],[139.367331,35.78804104],[139.3673122,35.78803016],[139.3666658,35.78749056],[139.3661937,35.78709673],[139.3660328,35.78695966],[139.3658211,35.78678434],[139.3656519,35.78664417],[139.3655875,35.78659195],[139.3653201,35.78637163],[139.3647212,35.78587828],[139.3644556,35.78572815],[139.3644047,35.78570639],[139.3640855,35.78557367],[139.3637717,35.7854453],[139.3636027,35.78537785],[139.3635517,35.78535609],[139.363313,35.78526906],[139.363018,35.78514503],[139.3625298,35.78496009],[139.3624815,35.78494268],[139.3624038,35.78491222],[139.3621683,35.78482371],[139.3620738,35.7847882],[139.3620417,35.78477515],[139.3617466,35.78464895],[139.3615723,35.7845728],[139.3614542,35.7845184],[139.3613309,35.7844466],[139.3612289,35.78437262],[139.3610573,35.78421596],[139.3609849,35.78412676],[139.3607944,35.78385478],[139.3606898,35.78372205],[139.3606201,35.78365025],[139.3604565,35.78353276],[139.3603465,35.78347619],[139.3599522,35.78333476],[139.3598396,35.78329342],[139.3594989,35.7831607],[139.3592897,35.78307802],[139.3586448,35.78268781],[139.3584974,35.78259861],[139.3584663,35.78257976],[139.3583322,35.7824862],[139.3582892,35.78245573],[139.3579566,35.78224468],[139.3578386,35.7821707],[139.3567979,35.78151136],[139.3566424,35.78142649],[139.3558388,35.78095373],[139.3556955,35.78086942],[139.3555158,35.7807715],[139.3555024,35.78076497],[139.3552986,35.7806714],[139.3548426,35.7804625],[139.3546012,35.78039722],[139.3544456,35.78020138],[139.3543088,35.78000335],[139.3542016,35.77987062],[139.3541238,35.77974658],[139.3539199,35.77948763],[139.3538529,35.77938753],[139.3534264,35.77880217],[139.3533996,35.7787543],[139.3530777,35.77830603],[139.3529758,35.77817982],[139.3528149,35.7779731],[139.352611,35.77768151],[139.3524367,35.77740297],[139.3521014,35.776946],[139.3518573,35.77661524],[139.3515998,35.7762823],[139.3512726,35.7759559],[139.3509829,35.77574482],[139.3509105,35.77570565],[139.3506396,35.77556421],[139.3505859,35.77553809],[139.3499985,35.77524215],[139.3497866,35.77512247],[139.349623,35.77500714],[139.3496123,35.77500061],[139.3493897,35.77484176],[139.3491831,35.77465897],[139.3490705,35.77450447],[139.3489578,35.77443919],[139.3484482,35.77366887],[139.348231,35.77332505],[139.3482041,35.77325759],[139.3481237,35.77299861],[139.3481022,35.77287892],[139.3479654,35.77209327],[139.3478635,35.77143821],[139.3478286,35.77126628],[139.3478099,35.77112482],[139.3477347,35.77063298],[139.3475577,35.77074179],[139.3474746,35.77079185],[139.3474317,35.77081361],[139.3472734,35.77089631],[139.3472117,35.77092678],[139.3471377,35.77095922]]},"properties":{"id":"F018:1:SHP0007","feed_id":"F018","feed_slug":"mizuho-community-bus","municipality":"瑞穂町","service_name":"コミュニティバス","license":"CC BY 4.0","source_route_id":"1","route_short_name":null,"route_long_name":"瑞穂町コミュニティバス　元狭山コース","route_desc":null,"route_type":3,"route_url":null,"route_color":"FF0000","route_text_color":"FFFFFF","directions":["1"],"geometry_source":"shapes.txt"}},{"type":"Feature","id":"F018:1:SHP0008","geometry":{"type":"LineString","coordinates":[[139.3471377,35.77095922],[139.3470776,35.77098554],[139.3471098,35.77117488],[139.3472654,35.77117052],[139.3475792,35.77109435],[139.3476275,35.77108347],[139.3476892,35.77107912],[139.3478099,35.77112482],[139.3478286,35.77126628],[139.3478635,35.77143821],[139.3479654,35.77209327],[139.3481022,35.77287892],[139.3481237,35.77299861],[139.3482041,35.77325759],[139.348231,35.77332505],[139.3484482,35.77366887],[139.3489578,35.77443919],[139.3490705,35.77450447],[139.3491831,35.77465897],[139.3493897,35.77484176],[139.3496123,35.77500061],[139.349623,35.77500714],[139.3497866,35.77512247],[139.3499985,35.77524215],[139.3505859,35.77553809],[139.3506396,35.77556421],[139.3509105,35.77570565],[139.3509829,35.77574482],[139.3512726,35.7759559],[139.3515998,35.7762823],[139.3518573,35.77661524],[139.3521014,35.776946],[139.3524367,35.77740297],[139.352611,35.77768151],[139.3528149,35.7779731],[139.3529758,35.77817982],[139.3530777,35.77830603],[139.3533996,35.7787543],[139.3534264,35.77880217],[139.3538529,35.77938753],[139.3539199,35.77948763],[139.3541238,35.77974658],[139.3542016,35.77987062],[139.3543088,35.78000335],[139.3544456,35.78020138],[139.3546012,35.78039722],[139.3548426,35.7804625],[139.3552986,35.7806714],[139.3555024,35.78076497],[139.3555158,35.7807715],[139.3556955,35.78086942],[139.3558388,35.78095373],[139.3566424,35.78142649],[139.3567979,35.78151136],[139.3578386,35.7821707],[139.3579566,35.78224468],[139.3582892,35.78245573],[139.3583322,35.7824862],[139.3584663,35.78257976],[139.3584974,35.78259861],[139.3586448,35.78268781],[139.3592897,35.78307802],[139.3594989,35.7831607],[139.3598396,35.78329342],[139.3599522,35.78333476],[139.3603465,35.78347619],[139.3604565,35.78353276],[139.3606201,35.78365025],[139.3606898,35.78372205],[139.3607944,35.78385478],[139.3609849,35.78412676],[139.3610573,35.78421596],[139.3612289,35.78437262],[139.3613309,35.7844466],[139.3614542,35.7845184],[139.3615723,35.7845728],[139.3617466,35.78464895],[139.3620417,35.78477515],[139.3620738,35.7847882],[139.3621683,35.78482371],[139.3624038,35.78491222],[139.3624815,35.78494268],[139.3625298,35.78496009],[139.363018,35.78514503],[139.363313,35.78526906],[139.3635517,35.78535609],[139.3636027,35.78537785],[139.3637717,35.7854453],[139.3640855,35.78557367],[139.3644047,35.78570639],[139.3644556,35.78572815],[139.3647212,35.78587828],[139.3653201,35.78637163],[139.3655875,35.78659195],[139.3656519,35.78664417],[139.3658211,35.78678434],[139.3660328,35.78695966],[139.3661937,35.78709673],[139.3666658,35.78749056],[139.3673122,35.78803016],[139.367331,35.78804104],[139.3675724,35.7882151],[139.3684521,35.78872424],[139.3685944,35.78880592],[139.3686753,35.78885238],[139.3686908,35.78886132],[139.3689778,35.78899622],[139.3690369,35.78902233],[139.3693024,35.78911806],[139.3694794,35.78917898],[139.3704423,35.78950535],[139.3707374,35.78960544],[139.3710271,35.78974034],[139.3711853,35.78986219],[139.3713516,35.7900406],[139.3711585,35.79040832],[139.3709119,35.79085347],[139.3708849,35.79090222],[139.3707803,35.79108282],[139.3704504,35.79166804],[139.3702975,35.79193129],[139.3702841,35.79192694],[139.3697745,35.79184862],[139.3689778,35.79175942],[139.3681732,35.79166804],[139.3680686,35.79165499],[139.3680364,35.79165281],[139.3671298,35.79155056],[139.3670091,35.79155056],[139.3666658,35.79154404],[139.3665934,35.79154186],[139.365963,35.79147442],[139.3653749,35.79143012],[139.3648365,35.79138957],[139.3647319,35.79138522],[139.3645468,35.79139392],[139.364281,35.79140231],[139.364064,35.79140915],[139.3638843,35.79143308],[139.3631333,35.79159407],[139.3630126,35.79161365],[139.3628302,35.79162453],[139.3627122,35.79161583],[139.3619987,35.79154186],[139.3618459,35.79152663],[139.3615723,35.79149617],[139.3607461,35.7913961],[139.3606737,35.79138957],[139.3601856,35.79133518],[139.3599388,35.7913243],[139.3598396,35.79133083],[139.359574,35.79136782],[139.358941,35.79150705],[139.3584727,35.79160913],[139.3584165,35.79162137],[139.3583322,35.79163976],[139.3582034,35.79166804],[139.3573532,35.79185297],[139.3566343,35.79200961],[139.3560496,35.79214014],[139.3559557,35.7921619],[139.3554622,35.79226197],[139.3551586,35.7923151],[139.3548158,35.7923751],[139.3546039,35.79241209],[139.3538475,35.79251869],[139.3533459,35.79258831],[139.3530723,35.79263835],[139.3530241,35.79264705],[139.3529114,35.79266228],[139.3525305,35.79271667],[139.3521202,35.79277541],[139.3513745,35.79288326],[139.3505859,35.79299731],[139.3505323,35.79300384],[139.3501595,35.79306258],[139.3499985,35.79308869],[139.3497974,35.79312132],[139.3492958,35.79318876],[139.3490142,35.79321052],[139.3486896,35.7932214],[139.348298,35.79321269],[139.3480915,35.79319964],[139.3476972,35.79316048],[139.3474907,35.7931409],[139.3471232,35.79310392],[139.3466324,35.79306258],[139.3466002,35.79305823],[139.3463695,35.79303865],[139.3451546,35.79293146],[139.3440762,35.79283632],[139.3442023,35.79243819],[139.3443847,35.79181163],[139.3444169,35.79166804],[139.344441,35.79157885],[139.3445107,35.79136129],[139.3445912,35.79108282],[139.3447226,35.79063025],[139.3447736,35.79047577],[139.3448735,35.79012141],[139.3448947,35.79004617],[139.3450391,35.78953364],[139.3450606,35.78945966],[139.3451893,35.78920727],[139.3455729,35.78862633],[139.3456587,35.78850883],[139.3458813,35.7881346],[139.3458894,35.78809543],[139.3459028,35.78803668],[139.3460798,35.78778864],[139.3465251,35.78720335],[139.3468949,35.78670734],[139.3469274,35.78666375],[139.3474531,35.78597837],[139.3474934,35.78592615],[139.3477294,35.78561718],[139.3478635,35.78544747],[139.3481371,35.78508194],[139.3481827,35.78495356],[139.3481988,35.78475339],[139.3481451,35.78438785],[139.3499985,35.7847077],[139.3505859,35.78480996],[139.3510285,35.78487741],[139.3513316,35.78491222],[139.3514764,35.7849231],[139.3517017,35.78492745],[139.3517849,35.78492528],[139.3519378,35.7849231],[139.3521121,35.78491222],[139.3526512,35.78485783],[139.3537456,35.78472945],[139.3539467,35.78470117],[139.3540165,35.78488829],[139.3542579,35.78537785],[139.3546575,35.78619813],[139.3547281,35.78636484],[139.3548104,35.78655931],[139.3550169,35.78729256],[139.3554059,35.78865026],[139.355422,35.78870901],[139.3555722,35.78927907],[139.3556687,35.78957498],[139.3559316,35.79017768],[139.3560737,35.79043866],[139.3560845,35.79045836],[139.3561623,35.7906259],[139.356181,35.79069117],[139.356299,35.79108282],[139.3563259,35.79116549],[139.3563554,35.79125033],[139.3565029,35.79166804],[139.3566343,35.79200961],[139.3573532,35.79185297],[139.3582034,35.79166804],[139.3583322,35.79163976],[139.3584165,35.79162137],[139.3584727,35.79160913],[139.358941,35.79150705],[139.359574,35.79136782],[139.3598396,35.79133083],[139.3599388,35.7913243],[139.3601856,35.79133518],[139.3606737,35.79138957],[139.3607461,35.7913961],[139.3615723,35.79149617],[139.3618459,35.79152663],[139.3619987,35.79154186],[139.3627122,35.79161583],[139.3628302,35.79162453],[139.3630126,35.79161365],[139.3631333,35.79159407],[139.3638843,35.79143308],[139.364064,35.79140915],[139.364281,35.79140231],[139.3645468,35.79139392],[139.3647319,35.79138522],[139.3648365,35.79138957],[139.3653749,35.79143012],[139.365963,35.79147442],[139.3665934,35.79154186],[139.3666658,35.79154404],[139.3670091,35.79155056],[139.3671298,35.79155056],[139.3680364,35.79165281],[139.3680686,35.79165499],[139.3681732,35.79166804],[139.3689778,35.79175942],[139.3697745,35.79184862],[139.3702841,35.79192694],[139.3702975,35.79193129],[139.3704504,35.79166804],[139.3707803,35.79108282],[139.3708849,35.79090222],[139.3709119,35.79085347],[139.3711585,35.79040832],[139.3713516,35.7900406],[139.3711853,35.78986219],[139.3710271,35.78974034],[139.3707374,35.78960544],[139.3704423,35.78950535],[139.3694794,35.78917898],[139.3693024,35.78911806],[139.3690369,35.78902233],[139.3689778,35.78899622],[139.3686908,35.78886132],[139.3686753,35.78885238],[139.3685944,35.78880592],[139.3684521,35.78872424],[139.3675724,35.7882151],[139.367331,35.78804104],[139.3673122,35.78803016],[139.3666658,35.78749056],[139.3661937,35.78709673],[139.3660328,35.78695966],[139.3658211,35.78678434],[139.3656519,35.78664417],[139.3655875,35.78659195],[139.3653201,35.78637163],[139.3647212,35.78587828],[139.3644556,35.78572815],[139.3644047,35.78570639],[139.3640855,35.78557367],[139.3637717,35.7854453],[139.3636027,35.78537785],[139.3635517,35.78535609],[139.363313,35.78526906],[139.363018,35.78514503],[139.3625298,35.78496009],[139.3624815,35.78494268],[139.3624038,35.78491222],[139.3621683,35.78482371],[139.3620738,35.7847882],[139.3620417,35.78477515],[139.3617466,35.78464895],[139.3615723,35.7845728],[139.3614542,35.7845184],[139.3613309,35.7844466],[139.3612289,35.78437262],[139.3610573,35.78421596],[139.3609849,35.78412676],[139.3607944,35.78385478],[139.3606898,35.78372205],[139.3606201,35.78365025],[139.3604565,35.78353276],[139.3603465,35.78347619],[139.3599522,35.78333476],[139.3598396,35.78329342],[139.3594989,35.7831607],[139.3592897,35.78307802],[139.3586448,35.78268781],[139.3584974,35.78259861],[139.3584663,35.78257976],[139.3583322,35.7824862],[139.3582892,35.78245573],[139.3579566,35.78224468],[139.3578386,35.7821707],[139.3567979,35.78151136],[139.3566424,35.78142649],[139.3558388,35.78095373],[139.3556955,35.78086942],[139.3555158,35.7807715],[139.3555024,35.78076497],[139.3552986,35.7806714],[139.3548426,35.7804625],[139.3546012,35.78039722],[139.3544456,35.78020138],[139.3543088,35.78000335],[139.3542016,35.77987062],[139.3541238,35.77974658],[139.3539199,35.77948763],[139.3538529,35.77938753],[139.3534264,35.77880217],[139.3533996,35.7787543],[139.3530777,35.77830603],[139.3529758,35.77817982],[139.3528149,35.7779731],[139.352611,35.77768151],[139.3524367,35.77740297],[139.3521014,35.776946],[139.3518573,35.77661524],[139.3515998,35.7762823],[139.3512726,35.7759559],[139.3509829,35.77574482],[139.3509105,35.77570565],[139.3506396,35.77556421],[139.3505859,35.77553809],[139.3499985,35.77524215],[139.3497866,35.77512247],[139.349623,35.77500714],[139.3496123,35.77500061],[139.3493897,35.77484176],[139.3491831,35.77465897],[139.3490705,35.77450447],[139.3489578,35.77443919],[139.3484482,35.77366887],[139.348231,35.77332505],[139.3482041,35.77325759],[139.3481237,35.77299861],[139.3481022,35.77287892],[139.3479654,35.77209327],[139.3478635,35.77143821],[139.3478286,35.77126628],[139.3478099,35.77112482],[139.3477347,35.77063298],[139.3475577,35.77074179],[139.3474746,35.77079185],[139.3474317,35.77081361],[139.3472734,35.77089631],[139.3472117,35.77092678],[139.3471377,35.77095922]]},"properties":{"id":"F018:1:SHP0008","feed_id":"F018","feed_slug":"mizuho-community-bus","municipality":"瑞穂町","service_name":"コミュニティバス","license":"CC BY 4.0","source_route_id":"1","route_short_name":null,"route_long_name":"瑞穂町コミュニティバス　元狭山コース","route_desc":null,"route_type":3,"route_url":null,"route_color":"FF0000","route_text_color":"FFFFFF","directions":["0"],"geometry_source":"shapes.txt"}},{"type":"Feature","id":"F018:1:SHP0009","geometry":{"type":"LineString","coordinates":[[139.3471377,35.77095922],[139.3470776,35.77098554],[139.3471098,35.77117488],[139.3472654,35.77117052],[139.3475792,35.77109435],[139.3476275,35.77108347],[139.3476892,35.77107912],[139.3478099,35.77112482],[139.3478286,35.77126628],[139.3478635,35.77143821],[139.3479654,35.77209327],[139.3481022,35.77287892],[139.3481237,35.77299861],[139.3482041,35.77325759],[139.348231,35.77332505],[139.3483758,35.77325759],[139.3487835,35.77307043],[139.3491831,35.77285062],[139.3492663,35.77278751],[139.3497759,35.772522],[139.3499985,35.77239795],[139.3500468,35.77236966],[139.3505859,35.77207804],[139.3506208,35.77205845],[139.351294,35.77149697],[139.351522,35.77132504],[139.3517795,35.771127],[139.3518814,35.77106606],[139.3520504,35.77094636],[139.3525466,35.77059163],[139.3527505,35.77085061],[139.352788,35.77089849],[139.3529087,35.77107694],[139.3530214,35.77122275],[139.3530938,35.77131633],[139.3531206,35.77137727],[139.3532869,35.77158184],[139.3534747,35.77182994],[139.3537007,35.77212552],[139.3538341,35.77230002],[139.3541399,35.77273746],[139.3537053,35.77295944],[139.3534371,35.77308566],[139.3531662,35.77322712],[139.3530938,35.77325759],[139.3528873,35.77334681],[139.3522355,35.77357747],[139.351581,35.77379508],[139.3517876,35.77415195],[139.3522757,35.77500061],[139.3523186,35.77507024],[139.3524286,35.7752835],[139.3525225,35.77546411],[139.3525332,35.77552504],[139.3525171,35.77578834],[139.3525305,35.77598201],[139.3525761,35.77637587],[139.3525838,35.77651379],[139.3525869,35.77656954],[139.3526566,35.77708309],[139.3526566,35.77746608],[139.3526325,35.77759882],[139.352611,35.77768151],[139.3525815,35.77779901],[139.3525305,35.77803185],[139.3525171,35.77831256],[139.3525279,35.77841919],[139.3525413,35.77855628],[139.3525976,35.77910682],[139.3526781,35.77986626],[139.3527144,35.78026286],[139.3527459,35.78060616],[139.352788,35.78106527],[139.3528014,35.78118278],[139.3528631,35.78151136],[139.3529356,35.78183777],[139.3530026,35.78213153],[139.3530107,35.7821707],[139.3530858,35.78246009],[139.3531528,35.7827016],[139.3531609,35.78273424],[139.3532789,35.78305191],[139.3533491,35.78321294],[139.3534023,35.78333476],[139.3534034,35.78333732],[139.3537295,35.78406583],[139.3537349,35.78407671],[139.3537885,35.7842399],[139.3539467,35.78470117],[139.3542069,35.78466853],[139.3552503,35.78454451],[139.3553737,35.78453363],[139.3561596,35.7844466],[139.3563741,35.78443354],[139.3565914,35.78442702],[139.356747,35.78443354],[139.3569079,35.78445748],[139.3571654,35.78450752],[139.3572861,35.78454451],[139.3572915,35.78427036],[139.3572861,35.78420073],[139.3572459,35.78407671],[139.3572083,35.78401579],[139.356747,35.78339786],[139.3567014,35.78333476],[139.3566826,35.7832956],[139.3564278,35.78293224],[139.3561596,35.78257976],[139.3561274,35.78253189],[139.3558645,35.7821707],[139.355371,35.78148307],[139.3552127,35.78127635],[139.3546012,35.78039722],[139.3548426,35.7804625],[139.3552986,35.7806714],[139.3555024,35.78076497],[139.3555158,35.7807715],[139.3556955,35.78086942],[139.3558388,35.78095373],[139.3566424,35.78142649],[139.3567979,35.78151136],[139.3578386,35.7821707],[139.3579566,35.78224468],[139.3582892,35.78245573],[139.3583322,35.7824862],[139.3584663,35.78257976],[139.3584974,35.78259861],[139.3586448,35.78268781],[139.3592897,35.78307802],[139.3594989,35.7831607],[139.3598396,35.78329342],[139.3599522,35.78333476],[139.3603465,35.78347619],[139.3604565,35.78353276],[139.3606201,35.78365025],[139.3606898,35.78372205],[139.3607944,35.78385478],[139.3609849,35.78412676],[139.3610573,35.78421596],[139.3612289,35.78437262],[139.3613309,35.7844466],[139.3614542,35.7845184],[139.3615723,35.7845728],[139.3617466,35.78464895],[139.3620417,35.78477515],[139.3620738,35.7847882],[139.3621683,35.78482371],[139.3624038,35.78491222],[139.3624815,35.78494268],[139.3625298,35.78496009],[139.363018,35.78514503],[139.363313,35.78526906],[139.3635517,35.78535609],[139.3636027,35.78537785],[139.3637717,35.7854453],[139.3640855,35.78557367],[139.3644047,35.78570639],[139.3644556,35.78572815],[139.3647212,35.78587828],[139.3653201,35.78637163],[139.3655875,35.78659195],[139.3656519,35.78664417],[139.3658211,35.78678434],[139.3660328,35.78695966],[139.3661937,35.78709673],[139.3666658,35.78749056],[139.3673122,35.78803016],[139.367331,35.78804104],[139.3675724,35.7882151],[139.3684521,35.78872424],[139.3685944,35.78880592],[139.3686753,35.78885238],[139.3686908,35.78886132],[139.3689778,35.78899622],[139.3690369,35.78902233],[139.3693024,35.78911806],[139.3694794,35.78917898],[139.3704423,35.78950535],[139.3707374,35.78960544],[139.3710271,35.78974034],[139.3711853,35.78986219],[139.3713516,35.7900406],[139.3711585,35.79040832],[139.3709119,35.79085347],[139.3708849,35.79090222],[139.3707803,35.79108282],[139.3704504,35.79166804],[139.3702975,35.79193129],[139.3702841,35.79192694],[139.3697745,35.79184862],[139.3689778,35.79175942],[139.3681732,35.79166804],[139.3680686,35.79165499],[139.3680364,35.79165281],[139.3671298,35.79155056],[139.3670091,35.79155056],[139.3666658,35.79154404],[139.3665934,35.79154186],[139.365963,35.79147442],[139.3653749,35.79143012],[139.3648365,35.79138957],[139.3647319,35.79138522],[139.3645468,35.79139392],[139.364281,35.79140231],[139.364064,35.79140915],[139.3638843,35.79143308],[139.3631333,35.79159407],[139.3630126,35.79161365],[139.3628302,35.79162453],[139.3627122,35.79161583],[139.3619987,35.79154186],[139.3618459,35.79152663],[139.3615723,35.79149617],[139.3607461,35.7913961],[139.3606737,35.79138957],[139.3601856,35.79133518],[139.3599388,35.7913243],[139.3598396,35.79133083],[139.359574,35.79136782],[139.358941,35.79150705],[139.3584727,35.79160913],[139.3584165,35.79162137],[139.3583322,35.79163976],[139.3582034,35.79166804],[139.3573532,35.79185297],[139.3566343,35.79200961],[139.3560496,35.79214014],[139.3559557,35.7921619],[139.3554622,35.79226197],[139.3551586,35.7923151],[139.3548158,35.7923751],[139.3546039,35.79241209],[139.3538475,35.79251869],[139.3533459,35.79258831],[139.3530723,35.79263835],[139.3530241,35.79264705],[139.3529114,35.79266228],[139.3525305,35.79271667],[139.3521202,35.79277541],[139.3513745,35.79288326],[139.3505859,35.79299731],[139.3505323,35.79300384],[139.3501595,35.79306258],[139.3499985,35.79308869],[139.3497974,35.79312132],[139.3492958,35.79318876],[139.3490142,35.79321052],[139.3486896,35.7932214],[139.348298,35.79321269],[139.3480915,35.79319964],[139.3476972,35.79316048],[139.3474907,35.7931409],[139.3471232,35.79310392],[139.3466324,35.79306258],[139.3466002,35.79305823],[139.3463695,35.79303865],[139.3451546,35.79293146],[139.3440762,35.79283632],[139.3442023,35.79243819],[139.3443847,35.79181163],[139.3444169,35.79166804],[139.344441,35.79157885],[139.3445107,35.79136129],[139.3445912,35.79108282],[139.3447226,35.79063025],[139.3447736,35.79047577],[139.3448735,35.79012141],[139.3448947,35.79004617],[139.3450391,35.78953364],[139.3450606,35.78945966],[139.3451893,35.78920727],[139.3455729,35.78862633],[139.3456587,35.78850883],[139.3458813,35.7881346],[139.3458894,35.78809543],[139.3459028,35.78803668],[139.3460798,35.78778864],[139.3465251,35.78720335],[139.3468949,35.78670734],[139.3469274,35.78666375],[139.3474531,35.78597837],[139.3474934,35.78592615],[139.3477294,35.78561718],[139.3478635,35.78544747],[139.3481371,35.78508194],[139.3481827,35.78495356],[139.3481988,35.78475339],[139.3481451,35.78438785],[139.3499985,35.7847077],[139.3505859,35.78480996],[139.3510285,35.78487741],[139.3513316,35.78491222],[139.3514764,35.7849231],[139.3517017,35.78492745],[139.3517849,35.78492528],[139.3519378,35.7849231],[139.3521121,35.78491222],[139.3526512,35.78485783],[139.3537456,35.78472945],[139.3539467,35.78470117],[139.3540165,35.78488829],[139.3542579,35.78537785],[139.3546575,35.78619813],[139.3547281,35.78636484],[139.3548104,35.78655931],[139.3550169,35.78729256],[139.3554059,35.78865026],[139.355422,35.78870901],[139.3555722,35.78927907],[139.3556687,35.78957498],[139.3559316,35.79017768],[139.3560737,35.79043866],[139.3560845,35.79045836],[139.3561623,35.7906259],[139.356181,35.79069117],[139.356299,35.79108282],[139.3563259,35.79116549],[139.3563554,35.79125033],[139.3565029,35.79166804],[139.3566343,35.79200961],[139.3573532,35.79185297],[139.3582034,35.79166804],[139.3583322,35.79163976],[139.3584165,35.79162137],[139.3584727,35.79160913],[139.358941,35.79150705],[139.359574,35.79136782],[139.3598396,35.79133083],[139.3599388,35.7913243],[139.3601856,35.79133518],[139.3606737,35.79138957],[139.3607461,35.7913961],[139.3615723,35.79149617],[139.3618459,35.79152663],[139.3619987,35.79154186],[139.3627122,35.79161583],[139.3628302,35.79162453],[139.3630126,35.79161365],[139.3631333,35.79159407],[139.3638843,35.79143308],[139.364064,35.79140915],[139.364281,35.79140231],[139.3645468,35.79139392],[139.3647319,35.79138522],[139.3648365,35.79138957],[139.3653749,35.79143012],[139.365963,35.79147442],[139.3665934,35.79154186],[139.3666658,35.79154404],[139.3670091,35.79155056],[139.3671298,35.79155056],[139.3680364,35.79165281],[139.3680686,35.79165499],[139.3681732,35.79166804],[139.3689778,35.79175942],[139.3697745,35.79184862],[139.3702841,35.79192694],[139.3702975,35.79193129],[139.3704504,35.79166804],[139.3707803,35.79108282],[139.3708849,35.79090222],[139.3709119,35.79085347],[139.3711585,35.79040832],[139.3713516,35.7900406],[139.3711853,35.78986219],[139.3710271,35.78974034],[139.3707374,35.78960544],[139.3704423,35.78950535],[139.3694794,35.78917898],[139.3693024,35.78911806],[139.3690369,35.78902233],[139.3689778,35.78899622],[139.3686908,35.78886132],[139.3686753,35.78885238],[139.3685944,35.78880592],[139.3684521,35.78872424],[139.3675724,35.7882151],[139.367331,35.78804104],[139.3673122,35.78803016],[139.3666658,35.78749056],[139.3661937,35.78709673],[139.3660328,35.78695966],[139.3658211,35.78678434],[139.3656519,35.78664417],[139.3655875,35.78659195],[139.3653201,35.78637163],[139.3647212,35.78587828],[139.3644556,35.78572815],[139.3644047,35.78570639],[139.3640855,35.78557367],[139.3637717,35.7854453],[139.3636027,35.78537785],[139.3635517,35.78535609],[139.363313,35.78526906],[139.363018,35.78514503],[139.3625298,35.78496009],[139.3624815,35.78494268],[139.3624038,35.78491222],[139.3621683,35.78482371],[139.3620738,35.7847882],[139.3620417,35.78477515],[139.3617466,35.78464895],[139.3615723,35.7845728],[139.3614542,35.7845184],[139.3613309,35.7844466],[139.3612289,35.78437262],[139.3610573,35.78421596],[139.3609849,35.78412676],[139.3607944,35.78385478],[139.3606898,35.78372205],[139.3606201,35.78365025],[139.3604565,35.78353276],[139.3603465,35.78347619],[139.3599522,35.78333476],[139.3598396,35.78329342],[139.3594989,35.7831607],[139.3592897,35.78307802],[139.3586448,35.78268781],[139.3584974,35.78259861],[139.3584663,35.78257976],[139.3583322,35.7824862],[139.3582892,35.78245573],[139.3579566,35.78224468],[139.3578386,35.7821707],[139.3567979,35.78151136],[139.3566424,35.78142649],[139.3558388,35.78095373],[139.3556955,35.78086942],[139.3555158,35.7807715],[139.3555024,35.78076497],[139.3552986,35.7806714],[139.3548426,35.7804625],[139.3546012,35.78039722],[139.3552127,35.78127635],[139.355371,35.78148307],[139.3558645,35.7821707],[139.3561274,35.78253189],[139.3561596,35.78257976],[139.3564278,35.78293224],[139.3566826,35.7832956],[139.3567014,35.78333476],[139.356747,35.78339786],[139.3572083,35.78401579],[139.3572459,35.78407671],[139.3572861,35.78420073],[139.3572915,35.78427036],[139.3572861,35.78454451],[139.3571654,35.78450752],[139.3569079,35.78445748],[139.356747,35.78443354],[139.3565914,35.78442702],[139.3563741,35.78443354],[139.3561596,35.7844466],[139.3553737,35.78453363],[139.3552503,35.78454451],[139.3542069,35.78466853],[139.3539467,35.78470117],[139.3537885,35.7842399],[139.3537349,35.78407671],[139.3537295,35.78406583],[139.3534034,35.78333732],[139.3534023,35.78333476],[139.3533491,35.78321294],[139.3532789,35.78305191],[139.3531609,35.78273424],[139.3531528,35.7827016],[139.3530858,35.78246009],[139.3530107,35.7821707],[139.3530026,35.78213153],[139.3529356,35.78183777],[139.3528631,35.78151136],[139.3528014,35.78118278],[139.352788,35.78106527],[139.3527459,35.78060616],[139.3527144,35.78026286],[139.3526781,35.77986626],[139.3525976,35.77910682],[139.3525413,35.77855628],[139.3525279,35.77841919],[139.3525171,35.77831256],[139.3525305,35.77803185],[139.3525815,35.77779901],[139.352611,35.77768151],[139.3526325,35.77759882],[139.3526566,35.77746608],[139.3526566,35.77708309],[139.3525869,35.77656954],[139.3525838,35.77651379],[139.3525761,35.77637587],[139.3525305,35.77598201],[139.3525171,35.77578834],[139.3525332,35.77552504],[139.3525225,35.77546411],[139.3524286,35.7752835],[139.3523186,35.77507024],[139.3522757,35.77500061],[139.3517876,35.77415195],[139.351581,35.77379508],[139.3522355,35.77357747],[139.3528873,35.77334681],[139.3530938,35.77325759],[139.3531662,35.77322712],[139.3534371,35.77308566],[139.3537053,35.77295944],[139.3541399,35.77273746],[139.3538341,35.77230002],[139.3537007,35.77212552],[139.3534747,35.77182994],[139.3532869,35.77158184],[139.3531206,35.77137727],[139.3530938,35.77131633],[139.3530214,35.77122275],[139.3529087,35.77107694],[139.352788,35.77089849],[139.3527505,35.77085061],[139.3525466,35.77059163],[139.3520504,35.77094636],[139.3518814,35.77106606],[139.3517795,35.771127],[139.351522,35.77132504],[139.351294,35.77149697],[139.3506208,35.77205845],[139.3505859,35.77207804],[139.3500468,35.77236966],[139.3499985,35.77239795],[139.3497759,35.772522],[139.3492663,35.77278751],[139.3491831,35.77285062],[139.3487835,35.77307043],[139.3483758,35.77325759],[139.348231,35.77332505],[139.3482041,35.77325759],[139.3481237,35.77299861],[139.3481022,35.77287892],[139.3479654,35.77209327],[139.3478635,35.77143821],[139.3478286,35.77126628],[139.3478099,35.77112482],[139.3477347,35.77063298],[139.3475577,35.77074179],[139.3474746,35.77079185],[139.3474317,35.77081361],[139.3472734,35.77089631],[139.3472117,35.77092678],[139.3471377,35.77095922]]},"properties":{"id":"F018:1:SHP0009","feed_id":"F018","feed_slug":"mizuho-community-bus","municipality":"瑞穂町","service_name":"コミュニティバス","license":"CC BY 4.0","source_route_id":"1","route_short_name":null,"route_long_name":"瑞穂町コミュニティバス　元狭山コース","route_desc":null,"route_type":3,"route_url":null,"route_color":"FF0000","route_text_color":"FFFFFF","directions":["0"],"geometry_source":"shapes.txt"}},{"type":"Feature","id":"F018:1:SHP0010","geometry":{"type":"LineString","coordinates":[[139.3471377,35.77095922],[139.3470776,35.77098554],[139.3471098,35.77117488],[139.3472654,35.77117052],[139.3475792,35.77109435],[139.3476275,35.77108347],[139.3476892,35.77107912],[139.3478099,35.77112482],[139.3478286,35.77126628],[139.3478635,35.77143821],[139.3479654,35.77209327],[139.3481022,35.77287892],[139.3481237,35.77299861],[139.3482041,35.77325759],[139.348231,35.77332505],[139.3484482,35.77366887],[139.3489578,35.77443919],[139.3490705,35.77450447],[139.3491831,35.77465897],[139.3493897,35.77484176],[139.3496123,35.77500061],[139.349623,35.77500714],[139.3497866,35.77512247],[139.3499985,35.77524215],[139.3505859,35.77553809],[139.3506396,35.77556421],[139.3509105,35.77570565],[139.3509829,35.77574482],[139.3512726,35.7759559],[139.3515998,35.7762823],[139.3518573,35.77661524],[139.3521014,35.776946],[139.3524367,35.77740297],[139.352611,35.77768151],[139.3528149,35.7779731],[139.3529758,35.77817982],[139.3530777,35.77830603],[139.3533996,35.7787543],[139.3534264,35.77880217],[139.3538529,35.77938753],[139.3539199,35.77948763],[139.3541238,35.77974658],[139.3542016,35.77987062],[139.3543088,35.78000335],[139.3544456,35.78020138],[139.3546012,35.78039722],[139.3548426,35.7804625],[139.3552986,35.7806714],[139.3555024,35.78076497],[139.3555158,35.7807715],[139.3556955,35.78086942],[139.3558388,35.78095373],[139.3566424,35.78142649],[139.3567979,35.78151136],[139.3578386,35.7821707],[139.3579566,35.78224468],[139.3582892,35.78245573],[139.3583322,35.7824862],[139.3584663,35.78257976],[139.3584974,35.78259861],[139.3586448,35.78268781],[139.3592897,35.78307802],[139.3594989,35.7831607],[139.3598396,35.78329342],[139.3599522,35.78333476],[139.3603465,35.78347619],[139.3604565,35.78353276],[139.3606201,35.78365025],[139.3606898,35.78372205],[139.3607944,35.78385478],[139.3609849,35.78412676],[139.3610573,35.78421596],[139.3612289,35.78437262],[139.3613309,35.7844466],[139.3614542,35.7845184],[139.3615723,35.7845728],[139.3617466,35.78464895],[139.3620417,35.78477515],[139.3620738,35.7847882],[139.3621683,35.78482371],[139.3624038,35.78491222],[139.3624815,35.78494268],[139.3625298,35.78496009],[139.363018,35.78514503],[139.363313,35.78526906],[139.3635517,35.78535609],[139.3636027,35.78537785],[139.3637717,35.7854453],[139.3640855,35.78557367],[139.3644047,35.78570639],[139.3644556,35.78572815],[139.3647212,35.78587828],[139.3653201,35.78637163],[139.3655875,35.78659195],[139.3656519,35.78664417],[139.3658211,35.78678434],[139.3660328,35.78695966],[139.3661937,35.78709673],[139.3666658,35.78749056],[139.3673122,35.78803016],[139.367331,35.78804104],[139.3675724,35.7882151],[139.3684521,35.78872424],[139.3685944,35.78880592],[139.3686753,35.78885238],[139.3686908,35.78886132],[139.3689778,35.78899622],[139.3690369,35.78902233],[139.3693024,35.78911806],[139.3694794,35.78917898],[139.3704423,35.78950535],[139.3707374,35.78960544],[139.3710271,35.78974034],[139.3711853,35.78986219],[139.3713516,35.7900406],[139.3711585,35.79040832],[139.3709119,35.79085347],[139.3708849,35.79090222],[139.3707803,35.79108282],[139.3704504,35.79166804],[139.3702975,35.79193129],[139.3702841,35.79192694],[139.3697745,35.79184862],[139.3689778,35.79175942],[139.3681732,35.79166804],[139.3680686,35.79165499],[139.3680364,35.79165281],[139.3671298,35.79155056],[139.3670091,35.79155056],[139.3666658,35.79154404],[139.3665934,35.79154186],[139.365963,35.79147442],[139.3653749,35.79143012],[139.3648365,35.79138957],[139.3647319,35.79138522],[139.3645468,35.79139392],[139.364281,35.79140231],[139.364064,35.79140915],[139.3638843,35.79143308],[139.3631333,35.79159407],[139.3630126,35.79161365],[139.3628302,35.79162453],[139.3627122,35.79161583],[139.3619987,35.79154186],[139.3618459,35.79152663],[139.3615723,35.79149617],[139.3607461,35.7913961],[139.3606737,35.79138957],[139.3601856,35.79133518],[139.3599388,35.7913243],[139.3598396,35.79133083],[139.359574,35.79136782],[139.358941,35.79150705],[139.3584727,35.79160913],[139.3584165,35.79162137],[139.3583322,35.79163976],[139.3582034,35.79166804],[139.3573532,35.79185297],[139.3566343,35.79200961],[139.3560496,35.79214014],[139.3559557,35.7921619],[139.3554622,35.79226197],[139.3551586,35.7923151],[139.3548158,35.7923751],[139.3546039,35.79241209],[139.3538475,35.79251869],[139.3533459,35.79258831],[139.3530723,35.79263835],[139.3530241,35.79264705],[139.3529114,35.79266228],[139.3525305,35.79271667],[139.3521202,35.79277541],[139.3513745,35.79288326],[139.3505859,35.79299731],[139.3505323,35.79300384],[139.3501595,35.79306258],[139.3499985,35.79308869],[139.3497974,35.79312132],[139.3492958,35.79318876],[139.3490142,35.79321052],[139.3486896,35.7932214],[139.348298,35.79321269],[139.3480915,35.79319964],[139.3476972,35.79316048],[139.3474907,35.7931409],[139.3471232,35.79310392],[139.3466324,35.79306258],[139.3466002,35.79305823],[139.3463695,35.79303865],[139.3451546,35.79293146],[139.3440762,35.79283632],[139.3442023,35.79243819],[139.3443847,35.79181163],[139.3444169,35.79166804],[139.344441,35.79157885],[139.3445107,35.79136129],[139.3445912,35.79108282],[139.3447226,35.79063025],[139.3447736,35.79047577],[139.3448735,35.79012141],[139.3448947,35.79004617],[139.3450391,35.78953364],[139.3450606,35.78945966],[139.3451893,35.78920727],[139.3455729,35.78862633],[139.3456587,35.78850883],[139.3458813,35.7881346],[139.3458894,35.78809543],[139.3459028,35.78803668],[139.3460798,35.78778864],[139.3465251,35.78720335],[139.3468949,35.78670734],[139.3469274,35.78666375],[139.3474531,35.78597837],[139.3474934,35.78592615],[139.3477294,35.78561718],[139.3478635,35.78544747]]},"properties":{"id":"F018:1:SHP0010","feed_id":"F018","feed_slug":"mizuho-community-bus","municipality":"瑞穂町","service_name":"コミュニティバス","license":"CC BY 4.0","source_route_id":"1","route_short_name":null,"route_long_name":"瑞穂町コミュニティバス　元狭山コース","route_desc":null,"route_type":3,"route_url":null,"route_color":"FF0000","route_text_color":"FFFFFF","directions":["0"],"geometry_source":"shapes.txt"}},{"type":"Feature","id":"F018:2:SHP0004","geometry":{"type":"LineString","coordinates":[[139.3461795,35.77147177],[139.3462005,35.77147303],[139.3462515,35.77145344],[139.3462729,35.77142297],[139.3462864,35.7713925],[139.346281,35.7713011],[139.3462729,35.77117923],[139.3462569,35.77115311],[139.3462461,35.77114223],[139.3461925,35.77113788],[139.3460879,35.77114658],[139.3459833,35.77121405],[139.3459162,35.77123146],[139.34553,35.77130545],[139.3455085,35.77137509],[139.3451867,35.77139686],[139.3448031,35.77142297],[139.3447092,35.7714295],[139.3443739,35.77139903],[139.3442962,35.77136204],[139.3441942,35.77182559],[139.3440655,35.77240231],[139.343867,35.77325759],[139.3438107,35.77350349],[139.343698,35.77396263],[139.3436229,35.77398874],[139.3436095,35.7740475],[139.3434888,35.77462633],[139.3434271,35.77498755],[139.3434244,35.77500061],[139.3433681,35.77532484],[139.3433386,35.77545105],[139.3433279,35.77552286],[139.3431723,35.77615174],[139.3431535,35.77620832],[139.3430999,35.77631712],[139.3430382,35.77641069],[139.3429846,35.77647815],[139.3428853,35.77658042],[139.3426171,35.77684808],[139.3424171,35.77709607],[139.3423328,35.7772006],[139.3423282,35.77720761],[139.3422657,35.77730287],[139.342204,35.77737251],[139.3417507,35.77800791],[139.3417105,35.77804708],[139.3416649,35.7780906],[139.3416435,35.77811236],[139.3413296,35.77837784],[139.3405813,35.77892186],[139.3402138,35.77919386],[139.3399242,35.77945717],[139.3395996,35.77983362],[139.3395111,35.77994243],[139.3392026,35.78024707],[139.3390337,35.78037981],[139.3388379,35.78052126],[139.338347,35.78089989],[139.3376926,35.78139168],[139.3375927,35.78146213],[139.3372393,35.78171156],[139.3371803,35.78177031],[139.3367929,35.78203147],[139.3366089,35.78215547],[139.3365821,35.7821707],[139.3359759,35.78255147],[139.3358579,35.7826298],[139.3358284,35.78264938],[139.3355307,35.78286043],[139.33541,35.78294529],[139.3351498,35.78313241],[139.3349487,35.78327601],[139.3348628,35.78333476],[139.3348226,35.78336087],[139.3347663,35.78339568],[139.334608,35.78349795],[139.3342915,35.7837177],[139.3340421,35.78388089],[139.3338409,35.78400926],[139.3337792,35.7840506],[139.3337068,35.78409847],[139.3336585,35.78412893],[139.3334064,35.78429212],[139.3333313,35.78433998],[139.3333098,35.78435522],[139.332996,35.78455104],[139.3329477,35.78458585],[139.3328987,35.78461587],[139.3327806,35.78468808],[139.3326205,35.78478603],[139.332355,35.78494051],[139.3319365,35.78518637],[139.3317729,35.78528646],[139.3313169,35.7855889],[139.3310916,35.78574121],[139.3308529,35.78590004],[139.3307,35.78600448],[139.3304881,35.78614591],[139.3300965,35.78641353],[139.3300134,35.78646793],[139.3296862,35.78668333],[139.3295493,35.78677908],[139.3290612,35.78712067],[139.3287045,35.78736218],[139.3286347,35.78740788],[139.3286133,35.78742311],[139.3282753,35.78764286],[139.3280366,35.78782345],[139.3278891,35.7879453],[139.3276262,35.78818464],[139.3271944,35.78855235],[139.3266231,35.78898098],[139.3254939,35.7897708],[139.3249977,35.79013416],[139.3249226,35.79019073],[139.3246919,35.79033434],[139.3249896,35.79038003],[139.3249977,35.79038003],[139.3256414,35.79051493],[139.3261135,35.79059979],[139.3276101,35.79085653],[139.3283907,35.79098926],[139.3286133,35.79102842],[139.3289512,35.79108282],[139.3295681,35.79118507],[139.3301904,35.79128732],[139.3310112,35.7914048],[139.331215,35.79143743],[139.331266,35.79144614],[139.3326232,35.79166587],[139.3326339,35.79166804],[139.3330228,35.79173113],[139.3331409,35.79174854],[139.3333313,35.79178117],[139.3342808,35.79193129],[139.3348575,35.7919922],[139.3353966,35.79203571],[139.3356085,35.79205964],[139.3361999,35.7921235],[139.3363944,35.79214449],[139.3368343,35.79219235],[139.3380412,35.79230983],[139.3383309,35.79233594],[139.3385623,35.79235242],[139.3388064,35.7923698],[139.3388808,35.7923751],[139.3392348,35.79239903],[139.3395996,35.79242514],[139.3400288,35.7924556],[139.3404016,35.79248606],[139.3406859,35.79250999],[139.3409944,35.79253609],[139.3416649,35.79260136],[139.3418956,35.79261877],[139.342424,35.79266663],[139.3426037,35.79268621],[139.3440762,35.79283632],[139.3442023,35.79243819],[139.3443847,35.79181163],[139.3444169,35.79166804],[139.344441,35.79157885],[139.3445107,35.79136129],[139.3445912,35.79108282],[139.3447226,35.79063025],[139.3447736,35.79047577],[139.3448735,35.79012141],[139.3448947,35.79004617],[139.3450391,35.78953364],[139.3450606,35.78945966],[139.3451893,35.78920727],[139.3455729,35.78862633],[139.3456587,35.78850883],[139.3458813,35.7881346],[139.3458894,35.78809543],[139.3459028,35.78803668],[139.3460798,35.78778864],[139.3465251,35.78720335],[139.3468949,35.78670734],[139.3469274,35.78666375],[139.3474531,35.78597837],[139.3474934,35.78592615],[139.3477294,35.78561718],[139.3478635,35.78544747],[139.3481371,35.78508194],[139.3481827,35.78495356],[139.3481988,35.78475339],[139.3481451,35.78438785],[139.3480432,35.78437262],[139.3478742,35.78435086],[139.347437,35.78426166],[139.3471795,35.78419638],[139.3470374,35.78415939],[139.3468979,35.78410935],[139.3465948,35.78401361],[139.3461227,35.78382649],[139.3459296,35.78373946],[139.3458867,35.78371988],[139.3457794,35.78366984],[139.3453529,35.78345008],[139.3451115,35.78333476],[139.3450874,35.78332171],[139.3449479,35.78325861],[139.3440145,35.78281692],[139.3438536,35.78274077],[139.3434513,35.78255147],[139.3426466,35.7821707],[139.3424374,35.7820706],[139.3422469,35.78198574],[139.3420377,35.78188782],[139.3419144,35.78182906],[139.3416649,35.78170938],[139.3414718,35.78161799],[139.3412706,35.78152006],[139.3410882,35.78141997],[139.3409085,35.78131551],[139.3405652,35.78109791],[139.340415,35.78097387],[139.3401334,35.78069099],[139.3400636,35.78062135],[139.3396586,35.78014262],[139.3395996,35.78006428],[139.3395111,35.77994243],[139.3395996,35.77983362],[139.3399242,35.77945717],[139.3402138,35.77919386],[139.3405813,35.77892186],[139.3413296,35.77837784],[139.3416435,35.77811236],[139.3416649,35.7780906],[139.3417105,35.77804708],[139.3417507,35.77800791],[139.342204,35.77737251],[139.3422657,35.77730287],[139.3423282,35.77720761],[139.3423328,35.7772006],[139.3424171,35.77709607],[139.3426171,35.77684808],[139.3428853,35.77658042],[139.3429846,35.77647815],[139.3430382,35.77641069],[139.3430999,35.77631712],[139.3431535,35.77620832],[139.3431723,35.77615174],[139.3433279,35.77552286],[139.3433386,35.77545105],[139.3433681,35.77532484],[139.3434244,35.77500061],[139.3434271,35.77498755],[139.3434888,35.77462633],[139.3436095,35.7740475],[139.3436229,35.77398874],[139.343698,35.77396263],[139.3438107,35.77350349],[139.343867,35.77325759],[139.3440655,35.77240231],[139.3441942,35.77182559],[139.3442962,35.77136204],[139.3443739,35.77139903],[139.3447092,35.7714295],[139.3448031,35.77142297],[139.3451867,35.77139686],[139.3455085,35.77137509],[139.3455434,35.77144474],[139.3459457,35.77145779],[139.3461795,35.77147177]]},"properties":{"id":"F018:2:SHP0004","feed_id":"F018","feed_slug":"mizuho-community-bus","municipality":"瑞穂町","service_name":"コミュニティバス","license":"CC BY 4.0","source_route_id":"2","route_short_name":null,"route_long_name":"瑞穂町コミュニティバス　元狭山・長岡コース","route_desc":null,"route_type":3,"route_url":null,"route_color":"0000CC","route_text_color":"FFFFFF","directions":["0"],"geometry_source":"shapes.txt"}},{"type":"Feature","id":"F018:2:SHP0005","geometry":{"type":"LineString","coordinates":[[139.3461795,35.77147177],[139.3462005,35.77147303],[139.3462515,35.77145344],[139.3462729,35.77142297],[139.3462864,35.7713925],[139.346281,35.7713011],[139.3462729,35.77117923],[139.3462569,35.77115311],[139.3462461,35.77114223],[139.3461925,35.77113788],[139.3460879,35.77114658],[139.3459833,35.77121405],[139.3459162,35.77123146],[139.34553,35.77130545],[139.3455085,35.77137509],[139.3451867,35.77139686],[139.3448031,35.77142297],[139.3447092,35.7714295],[139.3443739,35.77139903],[139.3442962,35.77136204],[139.3441942,35.77182559],[139.3440655,35.77240231],[139.343867,35.77325759],[139.3438107,35.77350349],[139.343698,35.77396263],[139.3436229,35.77398874],[139.3436095,35.7740475],[139.3434888,35.77462633],[139.3434271,35.77498755],[139.3434244,35.77500061],[139.3433681,35.77532484],[139.3433386,35.77545105],[139.3433279,35.77552286],[139.3431723,35.77615174],[139.3431535,35.77620832],[139.3430999,35.77631712],[139.3430382,35.77641069],[139.3429846,35.77647815],[139.3428853,35.77658042],[139.3426171,35.77684808],[139.3424171,35.77709607],[139.3423328,35.7772006],[139.3423282,35.77720761],[139.3422657,35.77730287],[139.342204,35.77737251],[139.3417507,35.77800791],[139.3417105,35.77804708],[139.3416649,35.7780906],[139.3416435,35.77811236],[139.3413296,35.77837784],[139.3405813,35.77892186],[139.3402138,35.77919386],[139.3399242,35.77945717],[139.3395996,35.77983362],[139.3395111,35.77994243],[139.3395996,35.78006428],[139.3396586,35.78014262],[139.3400636,35.78062135],[139.3401334,35.78069099],[139.340415,35.78097387],[139.3405652,35.78109791],[139.3409085,35.78131551],[139.3410882,35.78141997],[139.3412706,35.78152006],[139.3414718,35.78161799],[139.3416649,35.78170938],[139.3419144,35.78182906],[139.3420377,35.78188782],[139.3422469,35.78198574],[139.3424374,35.7820706],[139.3426466,35.7821707],[139.3434513,35.78255147],[139.3438536,35.78274077],[139.3440145,35.78281692],[139.3449479,35.78325861],[139.3450874,35.78332171],[139.3451115,35.78333476],[139.3453529,35.78345008],[139.3457794,35.78366984],[139.3458867,35.78371988],[139.3459296,35.78373946],[139.3461227,35.78382649],[139.3465948,35.78401361],[139.3468979,35.78410935],[139.3470374,35.78415939],[139.3471795,35.78419638],[139.347437,35.78426166],[139.3478742,35.78435086],[139.3480432,35.78437262],[139.3481451,35.78438785],[139.3481988,35.78475339],[139.3481827,35.78495356],[139.3481371,35.78508194],[139.3478635,35.78544747],[139.3477294,35.78561718],[139.3474934,35.78592615],[139.3474531,35.78597837],[139.3469274,35.78666375],[139.3468949,35.78670734],[139.3465251,35.78720335],[139.3460798,35.78778864],[139.3459028,35.78803668],[139.3458894,35.78809543],[139.3458813,35.7881346],[139.3456587,35.78850883],[139.3455729,35.78862633],[139.3451893,35.78920727],[139.3450606,35.78945966],[139.3450391,35.78953364],[139.3448947,35.79004617],[139.3448735,35.79012141],[139.3447736,35.79047577],[139.3447226,35.79063025],[139.3445912,35.79108282],[139.3445107,35.79136129],[139.344441,35.79157885],[139.3444169,35.79166804],[139.3443847,35.79181163],[139.3442023,35.79243819],[139.3440762,35.79283632],[139.3426037,35.79268621],[139.342424,35.79266663],[139.3418956,35.79261877],[139.3416649,35.79260136],[139.3409944,35.79253609],[139.3406859,35.79250999],[139.3404016,35.79248606],[139.3400288,35.7924556],[139.3395996,35.79242514],[139.3392348,35.79239903],[139.3388808,35.7923751],[139.3388064,35.7923698],[139.3385623,35.79235242],[139.3383309,35.79233594],[139.3380412,35.79230983],[139.3368343,35.79219235],[139.3363944,35.79214449],[139.3361999,35.7921235],[139.3356085,35.79205964],[139.3353966,35.79203571],[139.3348575,35.7919922],[139.3342808,35.79193129],[139.3333313,35.79178117],[139.3331409,35.79174854],[139.3330228,35.79173113],[139.3326339,35.79166804],[139.3326232,35.79166587],[139.331266,35.79144614],[139.331215,35.79143743],[139.3310112,35.7914048],[139.3301904,35.79128732],[139.3295681,35.79118507],[139.3289512,35.79108282],[139.3286133,35.79102842],[139.3283907,35.79098926],[139.3276101,35.79085653],[139.3261135,35.79059979],[139.3256414,35.79051493],[139.3249977,35.79038003],[139.3249896,35.79038003],[139.3246919,35.79033434],[139.3249226,35.79019073],[139.3249977,35.79013416],[139.3254939,35.7897708],[139.3266231,35.78898098],[139.3271944,35.78855235],[139.3276262,35.78818464],[139.3278891,35.7879453],[139.3280366,35.78782345],[139.3282753,35.78764286],[139.3286133,35.78742311],[139.3286347,35.78740788],[139.3287045,35.78736218],[139.3290612,35.78712067],[139.3295493,35.78677908],[139.3296862,35.78668333],[139.3300134,35.78646793],[139.3300965,35.78641353],[139.3304881,35.78614591],[139.3307,35.78600448],[139.3308529,35.78590004],[139.3310916,35.78574121],[139.3313169,35.7855889],[139.3317729,35.78528646],[139.3319365,35.78518637],[139.332355,35.78494051],[139.3326205,35.78478603],[139.3327806,35.78468808],[139.3328987,35.78461587],[139.3329477,35.78458585],[139.332996,35.78455104],[139.3333098,35.78435522],[139.3333313,35.78433998],[139.3334064,35.78429212],[139.3336585,35.78412893],[139.3337068,35.78409847],[139.3337792,35.7840506],[139.3338409,35.78400926],[139.3340421,35.78388089],[139.3342915,35.7837177],[139.334608,35.78349795],[139.3347663,35.78339568],[139.3348226,35.78336087],[139.3348628,35.78333476],[139.3349487,35.78327601],[139.3351498,35.78313241],[139.33541,35.78294529],[139.3355307,35.78286043],[139.3358284,35.78264938],[139.3358579,35.7826298],[139.3359759,35.78255147],[139.3365821,35.7821707],[139.3366089,35.78215547],[139.3367929,35.78203147],[139.3371803,35.78177031],[139.3372393,35.78171156],[139.3375927,35.78146213],[139.3376926,35.78139168],[139.338347,35.78089989],[139.3388379,35.78052126],[139.3390337,35.78037981],[139.3392026,35.78024707],[139.3395111,35.77994243],[139.3395996,35.77983362],[139.3399242,35.77945717],[139.3402138,35.77919386],[139.3405813,35.77892186],[139.3413296,35.77837784],[139.3416435,35.77811236],[139.3416649,35.7780906],[139.3417105,35.77804708],[139.3417507,35.77800791],[139.342204,35.77737251],[139.3422657,35.77730287],[139.3423282,35.77720761],[139.3423328,35.7772006],[139.3424171,35.77709607],[139.3426171,35.77684808],[139.3428853,35.77658042],[139.3429846,35.77647815],[139.3430382,35.77641069],[139.3430999,35.77631712],[139.3431535,35.77620832],[139.3431723,35.77615174],[139.3433279,35.77552286],[139.3433386,35.77545105],[139.3433681,35.77532484],[139.3434244,35.77500061],[139.3434271,35.77498755],[139.3434888,35.77462633],[139.3436095,35.7740475],[139.3436229,35.77398874],[139.343698,35.77396263],[139.3438107,35.77350349],[139.343867,35.77325759],[139.3440655,35.77240231],[139.3441942,35.77182559],[139.3442962,35.77136204],[139.3443739,35.77139903],[139.3447092,35.7714295],[139.3448031,35.77142297],[139.3451867,35.77139686],[139.3455085,35.77137509],[139.3455434,35.77144474],[139.3459457,35.77145779],[139.3461795,35.77147177]]},"properties":{"id":"F018:2:SHP0005","feed_id":"F018","feed_slug":"mizuho-community-bus","municipality":"瑞穂町","service_name":"コミュニティバス","license":"CC BY 4.0","source_route_id":"2","route_short_name":null,"route_long_name":"瑞穂町コミュニティバス　元狭山・長岡コース","route_desc":null,"route_type":3,"route_url":null,"route_color":"0000CC","route_text_color":"FFFFFF","directions":["0","1"],"geometry_source":"shapes.txt"}},{"type":"Feature","id":"F018:2:SHP0006","geometry":{"type":"LineString","coordinates":[[139.3461795,35.77147177],[139.3462005,35.77147303],[139.3462515,35.77145344],[139.3462729,35.77142297],[139.3462864,35.7713925],[139.346281,35.7713011],[139.3462729,35.77117923],[139.3462569,35.77115311],[139.3462461,35.77114223],[139.3461925,35.77113788],[139.3460879,35.77114658],[139.3459833,35.77121405],[139.3459162,35.77123146],[139.34553,35.77130545],[139.3455085,35.77137509],[139.3451867,35.77139686],[139.3448031,35.77142297],[139.3447092,35.7714295],[139.3443739,35.77139903],[139.3442962,35.77136204],[139.3441942,35.77182559],[139.3440655,35.77240231],[139.343867,35.77325759],[139.3438107,35.77350349],[139.343698,35.77396263],[139.3436229,35.77398874],[139.3436095,35.7740475],[139.3434888,35.77462633],[139.3434271,35.77498755],[139.3434244,35.77500061],[139.3433681,35.77532484],[139.3433386,35.77545105],[139.3428317,35.77550328],[139.3425286,35.77552504],[139.3416649,35.77561643],[139.3411419,35.7756556],[139.3414691,35.77516381],[139.3414986,35.77515293],[139.3416649,35.7751377],[139.3422328,35.7750884],[139.3424669,35.77506807],[139.3432742,35.77500061],[139.3434271,35.77498755],[139.3434244,35.77500061],[139.3433681,35.77532484],[139.3433386,35.77545105],[139.3433279,35.77552286],[139.3431723,35.77615174],[139.3431535,35.77620832],[139.3430999,35.77631712],[139.3430382,35.77641069],[139.3429846,35.77647815],[139.3428853,35.77658042],[139.3426171,35.77684808],[139.3424171,35.77709607],[139.3423328,35.7772006],[139.3423282,35.77720761],[139.3422657,35.77730287],[139.342204,35.77737251],[139.3417507,35.77800791],[139.3417105,35.77804708],[139.3416649,35.7780906],[139.3416435,35.77811236],[139.3413296,35.77837784],[139.3405813,35.77892186],[139.3402138,35.77919386],[139.3399242,35.77945717],[139.3395996,35.77983362],[139.3395111,35.77994243],[139.3395996,35.78006428],[139.3396586,35.78014262],[139.3400636,35.78062135],[139.3401334,35.78069099],[139.340415,35.78097387],[139.3405652,35.78109791],[139.3409085,35.78131551],[139.3410882,35.78141997],[139.3412706,35.78152006],[139.3414718,35.78161799],[139.3416649,35.78170938],[139.3419144,35.78182906],[139.3420377,35.78188782],[139.3422469,35.78198574],[139.3424374,35.7820706],[139.3426466,35.7821707],[139.3434513,35.78255147],[139.3438536,35.78274077],[139.3440145,35.78281692],[139.3449479,35.78325861],[139.3450874,35.78332171],[139.3451115,35.78333476],[139.3453529,35.78345008],[139.3457794,35.78366984],[139.3458867,35.78371988],[139.3459296,35.78373946],[139.3461227,35.78382649],[139.3465948,35.78401361],[139.3468979,35.78410935],[139.3470374,35.78415939],[139.3471795,35.78419638],[139.347437,35.78426166],[139.3478742,35.78435086],[139.3480432,35.78437262],[139.3481451,35.78438785],[139.3481988,35.78475339],[139.3481827,35.78495356],[139.3481371,35.78508194],[139.3478635,35.78544747],[139.3477294,35.78561718],[139.3474934,35.78592615],[139.3474531,35.78597837],[139.3469274,35.78666375],[139.3468949,35.78670734],[139.3465251,35.78720335],[139.3460798,35.78778864],[139.3459028,35.78803668],[139.3458894,35.78809543],[139.3458813,35.7881346],[139.3456587,35.78850883],[139.3455729,35.78862633],[139.3451893,35.78920727],[139.3450606,35.78945966],[139.3450391,35.78953364],[139.3448947,35.79004617],[139.3448735,35.79012141],[139.3447736,35.79047577],[139.3447226,35.79063025],[139.3445912,35.79108282],[139.3445107,35.79136129],[139.344441,35.79157885],[139.3444169,35.79166804],[139.3443847,35.79181163],[139.3442023,35.79243819],[139.3440762,35.79283632],[139.3426037,35.79268621],[139.342424,35.79266663],[139.3418956,35.79261877],[139.3416649,35.79260136],[139.3409944,35.79253609],[139.3406859,35.79250999],[139.3404016,35.79248606],[139.3400288,35.7924556],[139.3395996,35.79242514],[139.3392348,35.79239903],[139.3388808,35.7923751],[139.3388064,35.7923698],[139.3385623,35.79235242],[139.3383309,35.79233594],[139.3380412,35.79230983],[139.3368343,35.79219235],[139.3363944,35.79214449],[139.3361999,35.7921235],[139.3356085,35.79205964],[139.3353966,35.79203571],[139.3348575,35.7919922],[139.3342808,35.79193129],[139.3333313,35.79178117],[139.3331409,35.79174854],[139.3330228,35.79173113],[139.3326339,35.79166804],[139.3326232,35.79166587],[139.331266,35.79144614],[139.331215,35.79143743],[139.3310112,35.7914048],[139.3301904,35.79128732],[139.3295681,35.79118507],[139.3289512,35.79108282],[139.3286133,35.79102842],[139.3283907,35.79098926],[139.3276101,35.79085653],[139.3261135,35.79059979],[139.3256414,35.79051493],[139.3249977,35.79038003],[139.3249896,35.79038003],[139.3246919,35.79033434],[139.3249226,35.79019073],[139.3249977,35.79013416],[139.3254939,35.7897708],[139.3266231,35.78898098],[139.3271944,35.78855235],[139.3276262,35.78818464],[139.3278891,35.7879453],[139.3280366,35.78782345],[139.3282753,35.78764286],[139.3286133,35.78742311],[139.3286347,35.78740788],[139.3287045,35.78736218],[139.3290612,35.78712067],[139.3295493,35.78677908],[139.3296862,35.78668333],[139.3300134,35.78646793],[139.3300965,35.78641353],[139.3304881,35.78614591],[139.3307,35.78600448],[139.3308529,35.78590004],[139.3310916,35.78574121],[139.3313169,35.7855889],[139.3317729,35.78528646],[139.3319365,35.78518637],[139.332355,35.78494051],[139.3326205,35.78478603],[139.3327806,35.78468808],[139.3328987,35.78461587],[139.3329477,35.78458585],[139.332996,35.78455104],[139.3333098,35.78435522],[139.3333313,35.78433998],[139.3334064,35.78429212],[139.3336585,35.78412893],[139.3337068,35.78409847],[139.3337792,35.7840506],[139.3338409,35.78400926],[139.3340421,35.78388089],[139.3342915,35.7837177],[139.334608,35.78349795],[139.3347663,35.78339568],[139.3348226,35.78336087],[139.3348628,35.78333476],[139.3349487,35.78327601],[139.3351498,35.78313241],[139.33541,35.78294529],[139.3355307,35.78286043],[139.3358284,35.78264938],[139.3358579,35.7826298],[139.3359759,35.78255147],[139.3365821,35.7821707],[139.3366089,35.78215547],[139.3367929,35.78203147],[139.3371803,35.78177031],[139.3372393,35.78171156],[139.3375927,35.78146213],[139.3376926,35.78139168],[139.338347,35.78089989],[139.3388379,35.78052126],[139.3390337,35.78037981],[139.3392026,35.78024707],[139.3395111,35.77994243],[139.3395996,35.77983362],[139.3399242,35.77945717],[139.3402138,35.77919386],[139.3405813,35.77892186],[139.3413296,35.77837784],[139.3416435,35.77811236],[139.3416649,35.7780906],[139.3417105,35.77804708],[139.3417507,35.77800791],[139.342204,35.77737251],[139.3422657,35.77730287],[139.3423282,35.77720761],[139.3423328,35.7772006],[139.3424171,35.77709607],[139.3426171,35.77684808],[139.3428853,35.77658042],[139.3429846,35.77647815],[139.3430382,35.77641069],[139.3430999,35.77631712],[139.3431535,35.77620832],[139.3431723,35.77615174],[139.3433279,35.77552286],[139.3433386,35.77545105],[139.3428317,35.77550328],[139.3425286,35.77552504],[139.3416649,35.77561643],[139.3411419,35.7756556],[139.3414691,35.77516381],[139.3414986,35.77515293],[139.3416649,35.7751377],[139.3422328,35.7750884],[139.3424669,35.77506807],[139.3432742,35.77500061],[139.3434271,35.77498755],[139.3434888,35.77462633],[139.3436095,35.7740475],[139.3436229,35.77398874],[139.343698,35.77396263],[139.3438107,35.77350349],[139.343867,35.77325759],[139.3440655,35.77240231],[139.3441942,35.77182559],[139.3442962,35.77136204],[139.3443739,35.77139903],[139.3447092,35.7714295],[139.3448031,35.77142297],[139.3451867,35.77139686],[139.3455085,35.77137509],[139.3455434,35.77144474],[139.3459457,35.77145779],[139.3461795,35.77147177]]},"properties":{"id":"F018:2:SHP0006","feed_id":"F018","feed_slug":"mizuho-community-bus","municipality":"瑞穂町","service_name":"コミュニティバス","license":"CC BY 4.0","source_route_id":"2","route_short_name":null,"route_long_name":"瑞穂町コミュニティバス　元狭山・長岡コース","route_desc":null,"route_type":3,"route_url":null,"route_color":"0000CC","route_text_color":"FFFFFF","directions":["0","1"],"geometry_source":"shapes.txt"}},{"type":"Feature","id":"F018:3:R3_shape","geometry":{"type":"LineString","coordinates":[[139.34715095086455,35.770968813132924],[139.34708523674902,35.77102049875321],[139.3471080355238,35.77118371628095],[139.34760893801663,35.771064567518714],[139.34777389391246,35.77105586257932],[139.3479539783935,35.772090672368684],[139.34806133494843,35.77283202],[139.34821383724585,35.77329394891086],[139.34860978788493,35.773177964272456],[139.3488471159649,35.77306392227222],[139.34928292378652,35.77282036468837],[139.35062637023924,35.77206447181326],[139.35070909821,35.77221741658096],[139.35110126863734,35.77287474109042],[139.35153120033462,35.77370386200909],[139.35168408623605,35.77378057170041],[139.35225405564142,35.773581996813775],[139.35315387263546,35.773243189762084],[139.35408014139796,35.772793027773076],[139.35408885858058,35.77259771470924],[139.35375894687309,35.77216573926002],[139.35316886090214,35.771377949280655],[139.3526051445625,35.77062221819041],[139.35259927106168,35.77053008446632],[139.35282637923817,35.77022985488423],[139.3531357162754,35.769834312586156],[139.35366628800688,35.769178248139795],[139.3542458054196,35.76866832506619],[139.35464324477175,35.76844433912315],[139.35530107540438,35.76809326770098],[139.3563132731071,35.76761828624708],[139.3574644766903,35.76722273096472],[139.3584257708772,35.76681446501596],[139.3591462520616,35.76653169593166],[139.36023872076518,35.76637919084015],[139.3614486592923,35.76599157241273],[139.36239820649712,35.76559442042902],[139.3638939880136,35.7647381540123],[139.36390181937443,35.76463012716374],[139.36347501262443,35.76376908442142],[139.36294052522524,35.76283018769998],[139.36254700154163,35.762320223924135],[139.361828478204,35.76152111523101],[139.36159353871176,35.76148616397254],[139.3601584497982,35.76219948435706],[139.3586019756186,35.762962046952694],[139.35842772882856,35.76268561885961],[139.35812426525814,35.762297982437],[139.3572138746924,35.761452801403124],[139.3563211045158,35.76061237750427],[139.35606854453394,35.76035500584064],[139.35578465928688,35.75997371295564],[139.35558300286246,35.75964008018498],[139.3552560453822,35.758866364523534],[139.35528541281872,35.758821879616654],[139.3563974598046,35.75822768596137],[139.35726282031075,35.75774152422451],[139.35794638106117,35.75734181137666],[139.3590173136853,35.75850637616309],[139.36015481248555,35.759747182933886],[139.36112393801127,35.760806857908136],[139.36160556400742,35.761345427931026],[139.36214396703699,35.76192688881183],[139.3627519614059,35.76260720189605],[139.36308479237852,35.763160057678306],[139.36387678728178,35.76466704425227],[139.36385720899074,35.76473058944255],[139.36237121663586,35.765575735660946],[139.36140992244293,35.76596812193242],[139.3603801042751,35.76632237993011],[139.35921519588146,35.76649394826112],[139.35875314816082,35.766636921588976],[139.35748839049032,35.76718657220057],[139.3562882411447,35.7675948362411],[139.35582815120225,35.767769578967815],[139.35463387541213,35.768416123694834],[139.35414441803673,35.76869094333824],[139.3538292075513,35.76893875675608],[139.3531067685607,35.769807686176414],[139.35257228116234,35.77050822383094],[139.35249592582736,35.770485984635634],[139.3516618905799,35.76935813156298],[139.35051460263796,35.76783312168265],[139.3501602355429,35.767391498778636],[139.34996249480363,35.76735178436923],[139.34947695318638,35.76759165910009],[139.3491754475047,35.767696504781725],[139.34759156360357,35.76854797369536],[139.347456473329,35.76863057841042],[139.34749954556688,35.76896099638229],[139.34760918400158,35.76963294793332],[139.34765225624596,35.770001486333825],[139.34765812973325,35.77024294159233],[139.34770903329186,35.77066866356181],[139.3473096361436,35.770894231738254],[139.34715095086455,35.770968813132924]]},"properties":{"id":"F018:3:R3_shape","feed_id":"F018","feed_slug":"mizuho-community-bus","municipality":"瑞穂町","service_name":"コミュニティバス","license":"CC BY 4.0","source_route_id":"3","route_short_name":null,"route_long_name":"瑞穂町コミュニティバス　石畑・殿ケ谷コース","route_desc":null,"route_type":3,"route_url":null,"route_color":"FFC000","route_text_color":"000000","directions":["0"],"geometry_source":"shapes.txt"}}]}
