{"type":"FeatureCollection","name":"mizuho-community-bus_stops","features":[{"type":"Feature","id":"F018:37_0","geometry":{"type":"Point","coordinates":[139.351401,35.773576]},"properties":{"id":"F018:37_0","feed_id":"F018","feed_slug":"mizuho-community-bus","municipality":"瑞穂町","service_name":"コミュニティバス","license":"CC BY 4.0","source_stop_id":"37_0","stop_code":"37.0","stop_name":"大橋場","stop_desc":null,"zone_id":null,"location_type":0,"parent_station":null,"wheelchair_boarding":null}},{"type":"Feature","id":"F018:38_0","geometry":{"type":"Point","coordinates":[139.352324,35.770181]},"properties":{"id":"F018:38_0","feed_id":"F018","feed_slug":"mizuho-community-bus","municipality":"瑞穂町","service_name":"コミュニティバス","license":"CC BY 4.0","source_stop_id":"38_0","stop_code":null,"stop_name":"JAにしたま瑞穂支店前","stop_desc":null,"zone_id":null,"location_type":0,"parent_station":null,"wheelchair_boarding":null}},{"type":"Feature","id":"F018:39_0","geometry":{"type":"Point","coordinates":[139.351117,35.768597]},"properties":{"id":"F018:39_0","feed_id":"F018","feed_slug":"mizuho-community-bus","municipality":"瑞穂町","service_name":"コミュニティバス","license":"CC BY 4.0","source_stop_id":"39_0","stop_code":null,"stop_name":"西武信用金庫瑞穂支店北","stop_desc":null,"zone_id":null,"location_type":0,"parent_station":null,"wheelchair_boarding":null}},{"type":"Feature","id":"F018:1_0","geometry":{"type":"Point","coordinates":[139.347127,35.770943]},"properties":{"id":"F018:1_0","feed_id":"F018","feed_slug":"mizuho-community-bus","municipality":"瑞穂町","service_name":"コミュニティバス","license":"CC BY 4.0","source_stop_id":"1_0","stop_code":null,"stop_name":"箱根ケ崎駅東口","stop_desc":null,"zone_id":"1_0","location_type":0,"parent_station":null,"wheelchair_boarding":null}},{"type":"Feature","id":"F018:2_0","geometry":{"type":"Point","coordinates":[139.346177,35.7715]},"properties":{"id":"F018:2_0","feed_id":"F018","feed_slug":"mizuho-community-bus","municipality":"瑞穂町","service_name":"コミュニティバス","license":"CC BY 4.0","source_stop_id":"2_0","stop_code":null,"stop_name":"箱根ケ崎駅西口","stop_desc":null,"zone_id":"2_0","location_type":0,"parent_station":null,"wheelchair_boarding":null}},{"type":"Feature","id":"F018:3_1","geometry":{"type":"Point","coordinates":[139.353686,35.772133]},"properties":{"id":"F018:3_1","feed_id":"F018","feed_slug":"mizuho-community-bus","municipality":"瑞穂町","service_name":"コミュニティバス","license":"CC BY 4.0","source_stop_id":"3_1","stop_code":null,"stop_name":"瑞穂町役場","stop_desc":null,"zone_id":"3_1","location_type":0,"parent_station":null,"wheelchair_boarding":null}},{"type":"Feature","id":"F018:3_2","geometry":{"type":"Point","coordinates":[139.353766,35.772094]},"properties":{"id":"F018:3_2","feed_id":"F018","feed_slug":"mizuho-community-bus","municipality":"瑞穂町","service_name":"コミュニティバス","license":"CC BY 4.0","source_stop_id":"3_2","stop_code":null,"stop_name":"瑞穂町役場","stop_desc":null,"zone_id":"3_2","location_type":0,"parent_station":null,"wheelchair_boarding":null}},{"type":"Feature","id":"F018:4_1","geometry":{"type":"Point","coordinates":[139.352551,35.776515]},"properties":{"id":"F018:4_1","feed_id":"F018","feed_slug":"mizuho-community-bus","municipality":"瑞穂町","service_name":"コミュニティバス","license":"CC BY 4.0","source_stop_id":"4_1","stop_code":null,"stop_name":"病院前","stop_desc":null,"zone_id":"4_1","location_type":0,"parent_station":null,"wheelchair_boarding":null}},{"type":"Feature","id":"F018:4_2","geometry":{"type":"Point","coordinates":[139.352626,35.776502]},"properties":{"id":"F018:4_2","feed_id":"F018","feed_slug":"mizuho-community-bus","municipality":"瑞穂町","service_name":"コミュニティバス","license":"CC BY 4.0","source_stop_id":"4_2","stop_code":null,"stop_name":"病院前","stop_desc":null,"zone_id":"4_2","location_type":0,"parent_station":null,"wheelchair_boarding":null}},{"type":"Feature","id":"F018:5_1","geometry":{"type":"Point","coordinates":[139.355813,35.780983]},"properties":{"id":"F018:5_1","feed_id":"F018","feed_slug":"mizuho-community-bus","municipality":"瑞穂町","service_name":"コミュニティバス","license":"CC BY 4.0","source_stop_id":"5_1","stop_code":null,"stop_name":"狭山丘陵西","stop_desc":null,"zone_id":"5_1","location_type":0,"parent_station":null,"wheelchair_boarding":null}},{"type":"Feature","id":"F018:5_2","geometry":{"type":"Point","coordinates":[139.355877,35.780931]},"properties":{"id":"F018:5_2","feed_id":"F018","feed_slug":"mizuho-community-bus","municipality":"瑞穂町","service_name":"コミュニティバス","license":"CC BY 4.0","source_stop_id":"5_2","stop_code":null,"stop_name":"狭山丘陵西","stop_desc":null,"zone_id":"5_2","location_type":0,"parent_station":null,"wheelchair_boarding":null}},{"type":"Feature","id":"F018:6_1","geometry":{"type":"Point","coordinates":[139.358478,35.78262]},"properties":{"id":"F018:6_1","feed_id":"F018","feed_slug":"mizuho-community-bus","municipality":"瑞穂町","service_name":"コミュニティバス","license":"CC BY 4.0","source_stop_id":"6_1","stop_code":null,"stop_name":"瑞穂ケーブルテレビ前","stop_desc":null,"zone_id":"6_1","location_type":0,"parent_station":null,"wheelchair_boarding":null}},{"type":"Feature","id":"F018:6_2","geometry":{"type":"Point","coordinates":[139.358671,35.782659]},"properties":{"id":"F018:6_2","feed_id":"F018","feed_slug":"mizuho-community-bus","municipality":"瑞穂町","service_name":"コミュニティバス","license":"CC BY 4.0","source_stop_id":"6_2","stop_code":null,"stop_name":"瑞穂ケーブルテレビ前","stop_desc":null,"zone_id":"6_2","location_type":0,"parent_station":null,"wheelchair_boarding":null}},{"type":"Feature","id":"F018:7_1","geometry":{"type":"Point","coordinates":[139.36176,35.784713]},"properties":{"id":"F018:7_1","feed_id":"F018","feed_slug":"mizuho-community-bus","municipality":"瑞穂町","service_name":"コミュニティバス","license":"CC BY 4.0","source_stop_id":"7_1","stop_code":null,"stop_name":"高根下","stop_desc":null,"zone_id":"7_1","location_type":0,"parent_station":null,"wheelchair_boarding":null}},{"type":"Feature","id":"F018:7_2","geometry":{"type":"Point","coordinates":[139.362189,35.784787]},"properties":{"id":"F018:7_2","feed_id":"F018","feed_slug":"mizuho-community-bus","municipality":"瑞穂町","service_name":"コミュニティバス","license":"CC BY 4.0","source_stop_id":"7_2","stop_code":null,"stop_name":"高根下","stop_desc":null,"zone_id":"7_2","location_type":0,"parent_station":null,"wheelchair_boarding":null}},{"type":"Feature","id":"F018:8_1","geometry":{"type":"Point","coordinates":[139.365788,35.786811]},"properties":{"id":"F018:8_1","feed_id":"F018","feed_slug":"mizuho-community-bus","municipality":"瑞穂町","service_name":"コミュニティバス","license":"CC BY 4.0","source_stop_id":"8_1","stop_code":null,"stop_name":"水天宮入口","stop_desc":null,"zone_id":"8_1","location_type":0,"parent_station":null,"wheelchair_boarding":null}},{"type":"Feature","id":"F018:8_2","geometry":{"type":"Point","coordinates":[139.365353,35.786345]},"properties":{"id":"F018:8_2","feed_id":"F018","feed_slug":"mizuho-community-bus","municipality":"瑞穂町","service_name":"コミュニティバス","license":"CC BY 4.0","source_stop_id":"8_2","stop_code":null,"stop_name":"水天宮入口","stop_desc":null,"zone_id":"8_2","location_type":0,"parent_station":null,"wheelchair_boarding":null}},{"type":"Feature","id":"F018:9_1","geometry":{"type":"Point","coordinates":[139.368642,35.788891]},"properties":{"id":"F018:9_1","feed_id":"F018","feed_slug":"mizuho-community-bus","municipality":"瑞穂町","service_name":"コミュニティバス","license":"CC BY 4.0","source_stop_id":"9_1","stop_code":null,"stop_name":"坊","stop_desc":null,"zone_id":"9_1","location_type":0,"parent_station":null,"wheelchair_boarding":null}},{"type":"Feature","id":"F018:9_2","geometry":{"type":"Point","coordinates":[139.368615,35.788782]},"properties":{"id":"F018:9_2","feed_id":"F018","feed_slug":"mizuho-community-bus","municipality":"瑞穂町","service_name":"コミュニティバス","license":"CC BY 4.0","source_stop_id":"9_2","stop_code":null,"stop_name":"坊","stop_desc":null,"zone_id":"9_2","location_type":0,"parent_station":null,"wheelchair_boarding":null}},{"type":"Feature","id":"F018:10_1","geometry":{"type":"Point","coordinates":[139.37087,35.790838]},"properties":{"id":"F018:10_1","feed_id":"F018","feed_slug":"mizuho-community-bus","municipality":"瑞穂町","service_name":"コミュニティバス","license":"CC BY 4.0","source_stop_id":"10_1","stop_code":null,"stop_name":"太子堂入口","stop_desc":null,"zone_id":"10_1","location_type":0,"parent_station":null,"wheelchair_boarding":null}},{"type":"Feature","id":"F018:10_2","geometry":{"type":"Point","coordinates":[139.370908,35.790916]},"properties":{"id":"F018:10_2","feed_id":"F018","feed_slug":"mizuho-community-bus","municipality":"瑞穂町","service_name":"コミュニティバス","license":"CC BY 4.0","source_stop_id":"10_2","stop_code":null,"stop_name":"太子堂入口","stop_desc":null,"zone_id":"10_2","location_type":0,"parent_station":null,"wheelchair_boarding":null}},{"type":"Feature","id":"F018:11_1","geometry":{"type":"Point","coordinates":[139.364279,35.79136]},"properties":{"id":"F018:11_1","feed_id":"F018","feed_slug":"mizuho-community-bus","municipality":"瑞穂町","service_name":"コミュニティバス","license":"CC BY 4.0","source_stop_id":"11_1","stop_code":null,"stop_name":"駒形町","stop_desc":null,"zone_id":"11_1","location_type":0,"parent_station":null,"wheelchair_boarding":null}},{"type":"Feature","id":"F018:11_2","geometry":{"type":"Point","coordinates":[139.365368,35.791491]},"properties":{"id":"F018:11_2","feed_id":"F018","feed_slug":"mizuho-community-bus","municipality":"瑞穂町","service_name":"コミュニティバス","license":"CC BY 4.0","source_stop_id":"11_2","stop_code":null,"stop_name":"駒形町","stop_desc":null,"zone_id":"11_2","location_type":0,"parent_station":null,"wheelchair_boarding":null}},{"type":"Feature","id":"F018:12_1","geometry":{"type":"Point","coordinates":[139.358402,35.791577]},"properties":{"id":"F018:12_1","feed_id":"F018","feed_slug":"mizuho-community-bus","municipality":"瑞穂町","service_name":"コミュニティバス","license":"CC BY 4.0","source_stop_id":"12_1","stop_code":null,"stop_name":"瑞穂二本木","stop_desc":null,"zone_id":"12_1","location_type":0,"parent_station":null,"wheelchair_boarding":null}},{"type":"Feature","id":"F018:12_2","geometry":{"type":"Point","coordinates":[139.358488,35.791656]},"properties":{"id":"F018:12_2","feed_id":"F018","feed_slug":"mizuho-community-bus","municipality":"瑞穂町","service_name":"コミュニティバス","license":"CC BY 4.0","source_stop_id":"12_2","stop_code":null,"stop_name":"瑞穂二本木","stop_desc":null,"zone_id":"12_2","location_type":0,"parent_station":null,"wheelchair_boarding":null}},{"type":"Feature","id":"F018:13_0","geometry":{"type":"Point","coordinates":[139.355151,35.792286]},"properties":{"id":"F018:13_0","feed_id":"F018","feed_slug":"mizuho-community-bus","municipality":"瑞穂町","service_name":"コミュニティバス","license":"CC BY 4.0","source_stop_id":"13_0","stop_code":null,"stop_name":"二本木公園北","stop_desc":null,"zone_id":"13_0","location_type":0,"parent_station":null,"wheelchair_boarding":null}},{"type":"Feature","id":"F018:14_0","geometry":{"type":"Point","coordinates":[139.351364,35.792835]},"properties":{"id":"F018:14_0","feed_id":"F018","feed_slug":"mizuho-community-bus","municipality":"瑞穂町","service_name":"コミュニティバス","license":"CC BY 4.0","source_stop_id":"14_0","stop_code":null,"stop_name":"元狭山広域防災広場","stop_desc":null,"zone_id":"14_0","location_type":0,"parent_station":null,"wheelchair_boarding":null}},{"type":"Feature","id":"F018:15_0","geometry":{"type":"Point","coordinates":[139.345161,35.792883]},"properties":{"id":"F018:15_0","feed_id":"F018","feed_slug":"mizuho-community-bus","municipality":"瑞穂町","service_name":"コミュニティバス","license":"CC BY 4.0","source_stop_id":"15_0","stop_code":null,"stop_name":"栗原新田","stop_desc":null,"zone_id":"15_0","location_type":0,"parent_station":null,"wheelchair_boarding":null}},{"type":"Feature","id":"F018:16_1","geometry":{"type":"Point","coordinates":[139.344834,35.790114]},"properties":{"id":"F018:16_1","feed_id":"F018","feed_slug":"mizuho-community-bus","municipality":"瑞穂町","service_name":"コミュニティバス","license":"CC BY 4.0","source_stop_id":"16_1","stop_code":null,"stop_name":"飯能街道","stop_desc":null,"zone_id":"16_1","location_type":0,"parent_station":null,"wheelchair_boarding":null}},{"type":"Feature","id":"F018:16_2","geometry":{"type":"Point","coordinates":[139.344963,35.790059]},"properties":{"id":"F018:16_2","feed_id":"F018","feed_slug":"mizuho-community-bus","municipality":"瑞穂町","service_name":"コミュニティバス","license":"CC BY 4.0","source_stop_id":"16_2","stop_code":null,"stop_name":"飯能街道","stop_desc":null,"zone_id":"16_2","location_type":0,"parent_station":null,"wheelchair_boarding":null}},{"type":"Feature","id":"F018:17_1","geometry":{"type":"Point","coordinates":[139.34686,35.78669]},"properties":{"id":"F018:17_1","feed_id":"F018","feed_slug":"mizuho-community-bus","municipality":"瑞穂町","service_name":"コミュニティバス","license":"CC BY 4.0","source_stop_id":"17_1","stop_code":null,"stop_name":"松山町西","stop_desc":null,"zone_id":"17_1","location_type":0,"parent_station":null,"wheelchair_boarding":null}},{"type":"Feature","id":"F018:17_2","geometry":{"type":"Point","coordinates":[139.347928,35.785462]},"properties":{"id":"F018:17_2","feed_id":"F018","feed_slug":"mizuho-community-bus","municipality":"瑞穂町","service_name":"コミュニティバス","license":"CC BY 4.0","source_stop_id":"17_2","stop_code":null,"stop_name":"松山町西","stop_desc":null,"zone_id":"17_2","location_type":0,"parent_station":null,"wheelchair_boarding":null}},{"type":"Feature","id":"F018:18_1","geometry":{"type":"Point","coordinates":[139.354685,35.786377]},"properties":{"id":"F018:18_1","feed_id":"F018","feed_slug":"mizuho-community-bus","municipality":"瑞穂町","service_name":"コミュニティバス","license":"CC BY 4.0","source_stop_id":"18_1","stop_code":null,"stop_name":"松山町入口","stop_desc":null,"zone_id":"18_1","location_type":0,"parent_station":null,"wheelchair_boarding":null}},{"type":"Feature","id":"F018:19_1","geometry":{"type":"Point","coordinates":[139.356048,35.790448]},"properties":{"id":"F018:19_1","feed_id":"F018","feed_slug":"mizuho-community-bus","municipality":"瑞穂町","service_name":"コミュニティバス","license":"CC BY 4.0","source_stop_id":"19_1","stop_code":null,"stop_name":"農協前","stop_desc":null,"zone_id":"19_1","location_type":0,"parent_station":null,"wheelchair_boarding":null}},{"type":"Feature","id":"F018:20_1","geometry":{"type":"Point","coordinates":[139.352663,35.780266]},"properties":{"id":"F018:20_1","feed_id":"F018","feed_slug":"mizuho-community-bus","municipality":"瑞穂町","service_name":"コミュニティバス","license":"CC BY 4.0","source_stop_id":"20_1","stop_code":null,"stop_name":"駒形富士山","stop_desc":null,"zone_id":"20_1","location_type":0,"parent_station":null,"wheelchair_boarding":null}},{"type":"Feature","id":"F018:20_2","geometry":{"type":"Point","coordinates":[139.352814,35.780602]},"properties":{"id":"F018:20_2","feed_id":"F018","feed_slug":"mizuho-community-bus","municipality":"瑞穂町","service_name":"コミュニティバス","license":"CC BY 4.0","source_stop_id":"20_2","stop_code":null,"stop_name":"駒形富士山","stop_desc":null,"zone_id":"20_2","location_type":0,"parent_station":null,"wheelchair_boarding":null}},{"type":"Feature","id":"F018:21_1","geometry":{"type":"Point","coordinates":[139.353287,35.783231]},"properties":{"id":"F018:21_1","feed_id":"F018","feed_slug":"mizuho-community-bus","municipality":"瑞穂町","service_name":"コミュニティバス","license":"CC BY 4.0","source_stop_id":"21_1","stop_code":null,"stop_name":"瑞穂バイパス南","stop_desc":null,"zone_id":"21_1","location_type":0,"parent_station":null,"wheelchair_boarding":null}},{"type":"Feature","id":"F018:21_2","geometry":{"type":"Point","coordinates":[139.353438,35.783327]},"properties":{"id":"F018:21_2","feed_id":"F018","feed_slug":"mizuho-community-bus","municipality":"瑞穂町","service_name":"コミュニティバス","license":"CC BY 4.0","source_stop_id":"21_2","stop_code":null,"stop_name":"瑞穂バイパス南","stop_desc":null,"zone_id":"21_2","location_type":0,"parent_station":null,"wheelchair_boarding":null}},{"type":"Feature","id":"F018:22_1","geometry":{"type":"Point","coordinates":[139.33881,35.792336]},"properties":{"id":"F018:22_1","feed_id":"F018","feed_slug":"mizuho-community-bus","municipality":"瑞穂町","service_name":"コミュニティバス","license":"CC BY 4.0","source_stop_id":"22_1","stop_code":null,"stop_name":"竜泉寺前","stop_desc":null,"zone_id":"22_1","location_type":0,"parent_station":null,"wheelchair_boarding":null}},{"type":"Feature","id":"F018:22_2","geometry":{"type":"Point","coordinates":[139.338558,35.792393]},"properties":{"id":"F018:22_2","feed_id":"F018","feed_slug":"mizuho-community-bus","municipality":"瑞穂町","service_name":"コミュニティバス","license":"CC BY 4.0","source_stop_id":"22_2","stop_code":null,"stop_name":"竜泉寺前","stop_desc":null,"zone_id":"22_2","location_type":0,"parent_station":null,"wheelchair_boarding":null}},{"type":"Feature","id":"F018:23_1","geometry":{"type":"Point","coordinates":[139.336371,35.792183]},"properties":{"id":"F018:23_1","feed_id":"F018","feed_slug":"mizuho-community-bus","municipality":"瑞穂町","service_name":"コミュニティバス","license":"CC BY 4.0","source_stop_id":"23_1","stop_code":null,"stop_name":"みずほ園入口","stop_desc":null,"zone_id":"23_1","location_type":0,"parent_station":null,"wheelchair_boarding":null}},{"type":"Feature","id":"F018:23_2","geometry":{"type":"Point","coordinates":[139.336205,35.792092]},"properties":{"id":"F018:23_2","feed_id":"F018","feed_slug":"mizuho-community-bus","municipality":"瑞穂町","service_name":"コミュニティバス","license":"CC BY 4.0","source_stop_id":"23_2","stop_code":null,"stop_name":"みずほ園入口","stop_desc":null,"zone_id":"23_2","location_type":0,"parent_station":null,"wheelchair_boarding":null}},{"type":"Feature","id":"F018:24_1","geometry":{"type":"Point","coordinates":[139.329607,35.786834]},"properties":{"id":"F018:24_1","feed_id":"F018","feed_slug":"mizuho-community-bus","municipality":"瑞穂町","service_name":"コミュニティバス","license":"CC BY 4.0","source_stop_id":"24_1","stop_code":null,"stop_name":"けんちの苑","stop_desc":null,"zone_id":"24_1","location_type":0,"parent_station":null,"wheelchair_boarding":null}},{"type":"Feature","id":"F018:24_2","geometry":{"type":"Point","coordinates":[139.32995,35.78645]},"properties":{"id":"F018:24_2","feed_id":"F018","feed_slug":"mizuho-community-bus","municipality":"瑞穂町","service_name":"コミュニティバス","license":"CC BY 4.0","source_stop_id":"24_2","stop_code":null,"stop_name":"けんちの苑","stop_desc":null,"zone_id":"24_2","location_type":0,"parent_station":null,"wheelchair_boarding":null}},{"type":"Feature","id":"F018:25_1","geometry":{"type":"Point","coordinates":[139.332941,35.784662]},"properties":{"id":"F018:25_1","feed_id":"F018","feed_slug":"mizuho-community-bus","municipality":"瑞穂町","service_name":"コミュニティバス","license":"CC BY 4.0","source_stop_id":"25_1","stop_code":null,"stop_name":"長岡長谷部","stop_desc":null,"zone_id":"25_1","location_type":0,"parent_station":null,"wheelchair_boarding":null}},{"type":"Feature","id":"F018:25_2","geometry":{"type":"Point","coordinates":[139.332753,35.784658]},"properties":{"id":"F018:25_2","feed_id":"F018","feed_slug":"mizuho-community-bus","municipality":"瑞穂町","service_name":"コミュニティバス","license":"CC BY 4.0","source_stop_id":"25_2","stop_code":null,"stop_name":"長岡長谷部","stop_desc":null,"zone_id":"25_2","location_type":0,"parent_station":null,"wheelchair_boarding":null}},{"type":"Feature","id":"F018:26_1","geometry":{"type":"Point","coordinates":[139.337636,35.781503]},"properties":{"id":"F018:26_1","feed_id":"F018","feed_slug":"mizuho-community-bus","municipality":"瑞穂町","service_name":"コミュニティバス","license":"CC BY 4.0","source_stop_id":"26_1","stop_code":null,"stop_name":"第二中学校","stop_desc":null,"zone_id":"26_1","location_type":0,"parent_station":null,"wheelchair_boarding":null}},{"type":"Feature","id":"F018:26_2","geometry":{"type":"Point","coordinates":[139.336756,35.781995]},"properties":{"id":"F018:26_2","feed_id":"F018","feed_slug":"mizuho-community-bus","municipality":"瑞穂町","service_name":"コミュニティバス","license":"CC BY 4.0","source_stop_id":"26_2","stop_code":null,"stop_name":"第二中学校","stop_desc":null,"zone_id":"26_2","location_type":0,"parent_station":null,"wheelchair_boarding":null}},{"type":"Feature","id":"F018:27_1","geometry":{"type":"Point","coordinates":[139.342384,35.777232]},"properties":{"id":"F018:27_1","feed_id":"F018","feed_slug":"mizuho-community-bus","municipality":"瑞穂町","service_name":"コミュニティバス","license":"CC BY 4.0","source_stop_id":"27_1","stop_code":null,"stop_name":"岩蔵街道入口","stop_desc":null,"zone_id":"27_1","location_type":0,"parent_station":null,"wheelchair_boarding":null}},{"type":"Feature","id":"F018:27_2","geometry":{"type":"Point","coordinates":[139.342363,35.777067]},"properties":{"id":"F018:27_2","feed_id":"F018","feed_slug":"mizuho-community-bus","municipality":"瑞穂町","service_name":"コミュニティバス","license":"CC BY 4.0","source_stop_id":"27_2","stop_code":null,"stop_name":"岩蔵街道入口","stop_desc":null,"zone_id":"27_2","location_type":0,"parent_station":null,"wheelchair_boarding":null}},{"type":"Feature","id":"F018:28_0","geometry":{"type":"Point","coordinates":[139.342237,35.775121]},"properties":{"id":"F018:28_0","feed_id":"F018","feed_slug":"mizuho-community-bus","municipality":"瑞穂町","service_name":"コミュニティバス","license":"CC BY 4.0","source_stop_id":"28_0","stop_code":null,"stop_name":"オリンピック","stop_desc":null,"zone_id":"28_0","location_type":0,"parent_station":null,"wheelchair_boarding":null}},{"type":"Feature","id":"F018:29_0","geometry":{"type":"Point","coordinates":[139.357386,35.774161]},"properties":{"id":"F018:29_0","feed_id":"F018","feed_slug":"mizuho-community-bus","municipality":"瑞穂町","service_name":"コミュニティバス","license":"CC BY 4.0","source_stop_id":"29_0","stop_code":null,"stop_name":"ふれあいセンター","stop_desc":null,"zone_id":"29_0","location_type":0,"parent_station":null,"wheelchair_boarding":null}},{"type":"Feature","id":"F018:30_1","geometry":{"type":"Point","coordinates":[139.354954,35.768337]},"properties":{"id":"F018:30_1","feed_id":"F018","feed_slug":"mizuho-community-bus","municipality":"瑞穂町","service_name":"コミュニティバス","license":"CC BY 4.0","source_stop_id":"30_1","stop_code":null,"stop_name":"瑞穂第一小学校","stop_desc":null,"zone_id":"30_1","location_type":0,"parent_station":null,"wheelchair_boarding":null}},{"type":"Feature","id":"F018:30_2","geometry":{"type":"Point","coordinates":[139.355142,35.768093]},"properties":{"id":"F018:30_2","feed_id":"F018","feed_slug":"mizuho-community-bus","municipality":"瑞穂町","service_name":"コミュニティバス","license":"CC BY 4.0","source_stop_id":"30_2","stop_code":null,"stop_name":"瑞穂第一小学校","stop_desc":null,"zone_id":"30_2","location_type":0,"parent_station":null,"wheelchair_boarding":null}},{"type":"Feature","id":"F018:31_1","geometry":{"type":"Point","coordinates":[139.361014,35.766164]},"properties":{"id":"F018:31_1","feed_id":"F018","feed_slug":"mizuho-community-bus","municipality":"瑞穂町","service_name":"コミュニティバス","license":"CC BY 4.0","source_stop_id":"31_1","stop_code":null,"stop_name":"寄り合いハウスいこい","stop_desc":null,"zone_id":"31_1","location_type":0,"parent_station":null,"wheelchair_boarding":null}},{"type":"Feature","id":"F018:31_2","geometry":{"type":"Point","coordinates":[139.360735,35.766177]},"properties":{"id":"F018:31_2","feed_id":"F018","feed_slug":"mizuho-community-bus","municipality":"瑞穂町","service_name":"コミュニティバス","license":"CC BY 4.0","source_stop_id":"31_2","stop_code":null,"stop_name":"寄り合いハウスいこい","stop_desc":null,"zone_id":"31_2","location_type":0,"parent_station":null,"wheelchair_boarding":null}},{"type":"Feature","id":"F018:32_1","geometry":{"type":"Point","coordinates":[139.363414,35.763637]},"properties":{"id":"F018:32_1","feed_id":"F018","feed_slug":"mizuho-community-bus","municipality":"瑞穂町","service_name":"コミュニティバス","license":"CC BY 4.0","source_stop_id":"32_1","stop_code":null,"stop_name":"阿豆佐味通り北","stop_desc":null,"zone_id":"32_1","location_type":0,"parent_station":null,"wheelchair_boarding":null}},{"type":"Feature","id":"F018:32_2","geometry":{"type":"Point","coordinates":[139.363334,35.763668]},"properties":{"id":"F018:32_2","feed_id":"F018","feed_slug":"mizuho-community-bus","municipality":"瑞穂町","service_name":"コミュニティバス","license":"CC BY 4.0","source_stop_id":"32_2","stop_code":null,"stop_name":"阿豆佐味通り北","stop_desc":null,"zone_id":"32_2","location_type":0,"parent_station":null,"wheelchair_boarding":null}},{"type":"Feature","id":"F018:34_0","geometry":{"type":"Point","coordinates":[139.3584,35.762511]},"properties":{"id":"F018:34_0","feed_id":"F018","feed_slug":"mizuho-community-bus","municipality":"瑞穂町","service_name":"コミュニティバス","license":"CC BY 4.0","source_stop_id":"34_0","stop_code":null,"stop_name":"ジョイフル本田","stop_desc":null,"zone_id":"34_0","location_type":0,"parent_station":null,"wheelchair_boarding":null}},{"type":"Feature","id":"F018:35_0","geometry":{"type":"Point","coordinates":[139.3568,35.758031]},"properties":{"id":"F018:35_0","feed_id":"F018","feed_slug":"mizuho-community-bus","municipality":"瑞穂町","service_name":"コミュニティバス","license":"CC BY 4.0","source_stop_id":"35_0","stop_code":null,"stop_name":"菜の花クリニック","stop_desc":null,"zone_id":"35_0","location_type":0,"parent_station":null,"wheelchair_boarding":null}},{"type":"Feature","id":"F018:36_0","geometry":{"type":"Point","coordinates":[139.359561,35.759175]},"properties":{"id":"F018:36_0","feed_id":"F018","feed_slug":"mizuho-community-bus","municipality":"瑞穂町","service_name":"コミュニティバス","license":"CC BY 4.0","source_stop_id":"36_0","stop_code":null,"stop_name":"阿豆佐味通り南","stop_desc":null,"zone_id":"36_0","location_type":0,"parent_station":null,"wheelchair_boarding":null}}]}
