{"type":"FeatureCollection","name":"kokubunji-bunbus_routes","features":[{"type":"Feature","id":"F010:ROT_000001:SHP_000001","geometry":{"type":"LineString","coordinates":[[139.469284,35.69648],[139.46923,35.696124],[139.469208,35.696044],[139.469084,35.695984],[139.467978,35.695759],[139.466976,35.69556],[139.466006,35.695353],[139.465394,35.695234],[139.465102,35.695172],[139.464989,35.695148],[139.464998,35.695112],[139.464974,35.695094],[139.464887,35.695072],[139.464726,35.695024],[139.464628,35.695007],[139.464561,35.695035],[139.464518,35.695036],[139.46426,35.694931],[139.464046,35.694842],[139.463982,35.694852],[139.463952,35.694885],[139.463983,35.694918],[139.46436,35.695212],[139.464496,35.695293],[139.464577,35.695312],[139.46459,35.695333],[139.464472,35.69594],[139.464385,35.696403],[139.464266,35.69702],[139.464281,35.697095],[139.464341,35.697136],[139.464442,35.697145],[139.465621,35.697128],[139.465656,35.697143],[139.465677,35.697179],[139.465698,35.697791],[139.465694,35.698193],[139.465692,35.698582],[139.465659,35.698603],[139.465559,35.698635],[139.465459,35.698667],[139.465457,35.698708],[139.46546,35.69879],[139.465504,35.698852],[139.465595,35.698854],[139.465669,35.698802],[139.465697,35.698696],[139.465704,35.698626],[139.465726,35.698589],[139.465728,35.698555],[139.465724,35.698465],[139.465721,35.698375],[139.465723,35.698242],[139.465719,35.697701],[139.465699,35.697164],[139.465698,35.697127],[139.465667,35.697115],[139.465627,35.697106],[139.465027,35.69712],[139.464374,35.697117],[139.464312,35.69709],[139.464286,35.697021],[139.464341,35.696751],[139.464371,35.696605],[139.46445,35.696197],[139.464496,35.695937],[139.464613,35.695334],[139.46469,35.695306],[139.465076,35.695298],[139.465129,35.69527],[139.465147,35.695203],[139.465102,35.695172],[139.464989,35.695148],[139.464998,35.695112],[139.464974,35.695094],[139.464887,35.695072],[139.464726,35.695024],[139.464628,35.695007],[139.464561,35.695035],[139.464518,35.695036],[139.46426,35.694931],[139.464046,35.694842],[139.464002,35.694821],[139.463809,35.694712],[139.463422,35.694493],[139.463109,35.694314],[139.462896,35.694219],[139.462573,35.694119],[139.462226,35.694071],[139.461946,35.694081],[139.460077,35.694295],[139.459974,35.694322],[139.459931,35.694374],[139.459908,35.694706],[139.459907,35.695472],[139.459899,35.696059],[139.459903,35.696673],[139.459871,35.696714],[139.459823,35.696787],[139.459843,35.697496],[139.459906,35.698201],[139.460003,35.698996],[139.459959,35.699099],[139.459836,35.699209],[139.459662,35.699321],[139.459431,35.699364],[139.459386,35.699421],[139.459346,35.699591],[139.459331,35.699709],[139.459296,35.699739],[139.459175,35.699788],[139.45901,35.699852],[139.458975,35.699868],[139.458941,35.69988],[139.458872,35.699925],[139.458758,35.700003],[139.458644,35.700091],[139.458504,35.700196],[139.458421,35.700259],[139.458313,35.70034],[139.458247,35.700393],[139.458179,35.700444],[139.45814,35.700472],[139.458061,35.700556],[139.457925,35.700671],[139.457812,35.700768],[139.457711,35.700852],[139.457673,35.700869],[139.457579,35.700939],[139.45743,35.701065],[139.457278,35.701194],[139.457198,35.701263],[139.457141,35.701307],[139.457005,35.701394],[139.45693,35.701441],[139.456879,35.701472],[139.456786,35.701531],[139.456707,35.701583],[139.456616,35.701623],[139.456546,35.701651],[139.456412,35.701695],[139.456349,35.701715],[139.456258,35.701741],[139.456014,35.701817],[139.455967,35.701852],[139.455852,35.70195],[139.455617,35.702169],[139.455343,35.702432],[139.455141,35.702629],[139.454931,35.702826],[139.454727,35.703005],[139.454526,35.70319],[139.454475,35.703222],[139.454321,35.703357],[139.454253,35.703424],[139.454103,35.703557],[139.453927,35.703714],[139.453809,35.703818],[139.453674,35.703937],[139.45358,35.704022],[139.453442,35.704145],[139.453267,35.704304],[139.453113,35.70445],[139.453013,35.704542],[139.452898,35.704643],[139.4528,35.704734],[139.452647,35.704897],[139.45249,35.70502],[139.452448,35.705079],[139.451916,35.705618],[139.451736,35.705799],[139.451591,35.705944],[139.451547,35.705984],[139.451449,35.706081],[139.451387,35.706146],[139.451187,35.706344],[139.450837,35.706689],[139.450741,35.706782],[139.450607,35.706914],[139.450531,35.706981],[139.450343,35.70717],[139.450132,35.707387],[139.450081,35.707436],[139.450015,35.707504],[139.449949,35.707572],[139.449769,35.707754],[139.449807,35.707819],[139.450236,35.708062],[139.450474,35.708186],[139.450613,35.708268],[139.450861,35.708408],[139.451245,35.708622],[139.451745,35.7089],[139.452091,35.709101],[139.452289,35.70921],[139.452492,35.709322],[139.45268,35.709431],[139.453195,35.709716],[139.453837,35.710073],[139.454252,35.710298],[139.454305,35.710286],[139.454493,35.710095],[139.454612,35.709972],[139.454644,35.709854],[139.454726,35.709602],[139.455127,35.709186],[139.455328,35.708983],[139.45537,35.708939],[139.455398,35.708943],[139.455416,35.708924],[139.455412,35.708909],[139.455482,35.708828],[139.455532,35.708829],[139.455953,35.709067],[139.456241,35.70922],[139.456252,35.70923],[139.456339,35.709277],[139.456623,35.709432],[139.456685,35.709432],[139.456727,35.709412],[139.456836,35.709299],[139.457049,35.709076],[139.45741,35.708711],[139.457514,35.708608],[139.457643,35.708476],[139.457713,35.708396],[139.45814,35.707997],[139.458145,35.707978],[139.458141,35.707954],[139.458117,35.707933],[139.457946,35.707853],[139.457872,35.707821],[139.457732,35.707762],[139.457637,35.707723],[139.457613,35.707708],[139.457595,35.707646],[139.457603,35.707623],[139.457623,35.707586],[139.457632,35.707556],[139.457631,35.707537],[139.45762,35.707512],[139.457604,35.707486],[139.457611,35.707457],[139.457769,35.70722],[139.457879,35.707059],[139.458115,35.7067],[139.458144,35.706686],[139.45818,35.706689],[139.458422,35.706812],[139.458599,35.706901],[139.458947,35.707051],[139.459317,35.707188],[139.459506,35.707261],[139.459677,35.707346],[139.459776,35.707401],[139.459883,35.707479],[139.460003,35.707583],[139.460147,35.70773],[139.460318,35.707884],[139.460466,35.708012],[139.46067,35.708167],[139.460787,35.708251],[139.461001,35.708395],[139.461355,35.708629],[139.461425,35.708678],[139.461556,35.7088],[139.46161,35.708869],[139.461815,35.709119],[139.462014,35.709368],[139.462132,35.709485],[139.462184,35.709524],[139.46238,35.709647],[139.462488,35.709718],[139.462625,35.709798],[139.462921,35.70996],[139.46294,35.709985],[139.462936,35.710018],[139.462797,35.710165],[139.462639,35.710337],[139.462498,35.710479],[139.462307,35.710615],[139.462254,35.710688],[139.462318,35.710728],[139.462378,35.710714],[139.462483,35.710602],[139.462539,35.710526],[139.463,35.71004],[139.463015,35.709995],[139.462973,35.709961],[139.462597,35.709747],[139.462523,35.70968],[139.462272,35.709537],[139.462198,35.709487],[139.462111,35.709406],[139.462017,35.709303],[139.461849,35.7091],[139.461755,35.708984],[139.46163,35.708813],[139.461643,35.708768],[139.461996,35.70837],[139.46224,35.708091],[139.462388,35.707932],[139.462546,35.707778],[139.462615,35.70773],[139.462646,35.707703],[139.462728,35.707605],[139.462892,35.707411],[139.463141,35.707108],[139.463366,35.706877],[139.463392,35.70685],[139.463402,35.706823],[139.4634,35.706775],[139.463416,35.706753],[139.464201,35.706433],[139.464958,35.706138],[139.465313,35.706009],[139.465378,35.705977],[139.465544,35.705925],[139.466005,35.705778],[139.466247,35.705697],[139.466345,35.705621],[139.466616,35.705343],[139.466716,35.705255],[139.466978,35.705088],[139.467053,35.70505],[139.467059,35.705002],[139.467025,35.704901],[139.466919,35.704659],[139.466756,35.704309],[139.466615,35.70401],[139.466425,35.703592],[139.466281,35.703291],[139.466148,35.702859],[139.46612,35.702682],[139.466109,35.702352],[139.466124,35.70212],[139.466154,35.701871],[139.466192,35.701693],[139.466289,35.701196],[139.466422,35.700504],[139.466434,35.700443],[139.466716,35.698987],[139.46679,35.698645],[139.466891,35.698599],[139.467654,35.6987],[139.467841,35.698774],[139.467864,35.698851],[139.467807,35.699204],[139.467816,35.699262],[139.467844,35.699311],[139.467904,35.699354],[139.468308,35.699626],[139.468381,35.699644],[139.468461,35.699643],[139.468541,35.699626],[139.469076,35.699233],[139.469178,35.69913],[139.469283,35.69899],[139.469358,35.698812],[139.469387,35.698672],[139.46939,35.698516],[139.469359,35.698001],[139.469338,35.697531],[139.469306,35.696966],[139.469288,35.696539],[139.469282,35.69648]]},"properties":{"id":"F010:ROT_000001:SHP_000001","feed_id":"F010","feed_slug":"kokubunji-bunbus","municipality":"国分寺市","service_name":"ぶんバス","license":"CC BY 4.0","source_route_id":"ROT_000001","route_short_name":null,"route_long_name":"日吉町ルート","route_desc":null,"route_type":3,"route_url":null,"route_color":"006AB7","route_text_color":"FFFFFF","directions":[],"geometry_source":"shapes.txt"}},{"type":"Feature","id":"F010:ROT_000002:SHP_000002","geometry":{"type":"LineString","coordinates":[[139.480522,35.699193],[139.48043,35.699187],[139.480398,35.69915],[139.480472,35.698728],[139.480527,35.698444],[139.480661,35.697772],[139.48073,35.697741],[139.481225,35.697796],[139.481306,35.697784],[139.481376,35.697422],[139.48138,35.697276],[139.481354,35.697139],[139.481293,35.697015],[139.481224,35.696896],[139.481126,35.696753],[139.481033,35.696572],[139.480889,35.696442],[139.480833,35.696369],[139.480811,35.696289],[139.480801,35.696105],[139.48083,35.696078],[139.480808,35.695898],[139.480811,35.695802],[139.480816,35.695403],[139.480829,35.694601],[139.48084,35.694335],[139.48087,35.694065],[139.48091,35.693562],[139.480929,35.693243],[139.480959,35.693227],[139.481477,35.693419],[139.482018,35.693612],[139.482314,35.69372],[139.48272,35.69382],[139.483106,35.693892],[139.483515,35.693961],[139.483949,35.694016],[139.484488,35.694096],[139.484605,35.69412],[139.48525,35.69422],[139.485325,35.694229],[139.485928,35.694334],[139.486391,35.694416],[139.486442,35.694416],[139.486669,35.694454],[139.487109,35.694527],[139.487478,35.694591],[139.487578,35.694607],[139.487781,35.694685],[139.48785,35.694685],[139.487932,35.694665],[139.488252,35.694525],[139.488587,35.6944],[139.488837,35.694314],[139.489038,35.694239],[139.489072,35.694244],[139.489091,35.694262],[139.489334,35.694663],[139.48956,35.695066],[139.489689,35.695305],[139.489756,35.695424],[139.489947,35.695682],[139.490122,35.695914],[139.490203,35.696029],[139.490267,35.696104],[139.490488,35.696365],[139.490713,35.696621],[139.490895,35.696808],[139.491005,35.696945],[139.490998,35.696967],[139.490973,35.696983],[139.490167,35.697068],[139.490039,35.697084],[139.489948,35.697088],[139.489374,35.697153],[139.488862,35.697201],[139.488777,35.697214],[139.48871,35.697242],[139.488374,35.697379],[139.488267,35.697448],[139.488183,35.69747],[139.48808,35.69755],[139.487909,35.697674],[139.487614,35.69789],[139.487509,35.697982],[139.486973,35.69839],[139.486495,35.698756],[139.486016,35.699115],[139.485652,35.699369],[139.485426,35.699468],[139.485203,35.69955],[139.485009,35.699599],[139.484787,35.699635],[139.484563,35.699651],[139.484483,35.69965],[139.484385,35.699665],[139.484245,35.699647],[139.483892,35.699607],[139.483731,35.699594],[139.483483,35.699575],[139.483259,35.699558],[139.483003,35.699549],[139.482647,35.699536],[139.48204,35.69952],[139.481728,35.699509],[139.481436,35.6995],[139.481329,35.699498],[139.481047,35.699491],[139.481019,35.699484],[139.480996,35.699467],[139.480992,35.699439],[139.481004,35.699392],[139.481065,35.699055],[139.481048,35.699024],[139.481006,35.698996],[139.480959,35.698994],[139.480779,35.699099],[139.480658,35.699178],[139.480625,35.699193],[139.480593,35.699195],[139.480522,35.699192]]},"properties":{"id":"F010:ROT_000002:SHP_000002","feed_id":"F010","feed_slug":"kokubunji-bunbus","municipality":"国分寺市","service_name":"ぶんバス","license":"CC BY 4.0","source_route_id":"ROT_000002","route_short_name":null,"route_long_name":"東元町ルート","route_desc":null,"route_type":3,"route_url":null,"route_color":"00803C","route_text_color":"FFFFFF","directions":[],"geometry_source":"shapes.txt"}},{"type":"Feature","id":"F010:ROT_000003:SHP_000003","geometry":{"type":"LineString","coordinates":[[139.480224,35.701864],[139.480266,35.701931],[139.480322,35.70198],[139.480368,35.702013],[139.480432,35.702035],[139.480522,35.702054],[139.480997,35.702004],[139.481127,35.701985],[139.481315,35.701946],[139.481615,35.701887],[139.481924,35.701831],[139.482237,35.70177],[139.482518,35.701713],[139.482801,35.701661],[139.48308,35.701606],[139.483361,35.701546],[139.483657,35.701474],[139.483725,35.701477],[139.483782,35.701498],[139.483811,35.701518],[139.483841,35.701613],[139.48387,35.701677],[139.483913,35.701745],[139.484042,35.701929],[139.484089,35.702011],[139.484191,35.702143],[139.484276,35.702277],[139.484398,35.702475],[139.484509,35.702681],[139.484753,35.703136],[139.484796,35.703198],[139.484935,35.703465],[139.485151,35.703873],[139.485454,35.70449],[139.485466,35.704558],[139.485445,35.704631],[139.48541,35.704653],[139.485114,35.704792],[139.484697,35.704962],[139.484542,35.705025],[139.484388,35.70508],[139.482413,35.705045],[139.482014,35.705038],[139.481796,35.705034],[139.481737,35.705051],[139.481689,35.705155],[139.481776,35.705384],[139.481838,35.705554],[139.4819,35.705732],[139.482068,35.706199],[139.482053,35.706221],[139.481881,35.706307],[139.481313,35.70657],[139.480929,35.706747],[139.480553,35.706915],[139.480502,35.706955],[139.480563,35.707155],[139.480638,35.707398],[139.480679,35.707514],[139.480712,35.707626],[139.480782,35.707851],[139.480819,35.707997],[139.480929,35.708363],[139.481086,35.708887],[139.481394,35.709908],[139.481806,35.711265],[139.481931,35.711675],[139.48205,35.712056],[139.482024,35.712087],[139.481639,35.712161],[139.481238,35.712234],[139.480498,35.71237],[139.480442,35.712349],[139.480373,35.712118],[139.480294,35.711866],[139.480166,35.711424],[139.48015,35.711333],[139.479871,35.710406],[139.479834,35.710345],[139.479796,35.710202],[139.479792,35.710051],[139.479779,35.709942],[139.479765,35.709886],[139.479643,35.709633],[139.479604,35.709528],[139.479583,35.709426],[139.47958,35.709317],[139.479566,35.709226],[139.479296,35.708268],[139.479316,35.708233],[139.479474,35.708206],[139.479501,35.70816],[139.479427,35.707866],[139.479352,35.70755],[139.479361,35.707535],[139.479579,35.707433],[139.47959,35.707344],[139.479451,35.706846],[139.479287,35.706264],[139.479208,35.705971],[139.47912,35.705678],[139.478998,35.705229],[139.478996,35.705122],[139.479011,35.705099],[139.479698,35.70511],[139.480012,35.705105],[139.480301,35.705094],[139.480902,35.705082],[139.480998,35.705079],[139.481368,35.705089],[139.481607,35.705091],[139.481696,35.705036],[139.481195,35.703677],[139.481112,35.703309],[139.481033,35.702933],[139.480983,35.702683],[139.480959,35.702535],[139.480949,35.702371],[139.480949,35.702129],[139.480949,35.702062],[139.480824,35.701978],[139.480543,35.701988],[139.480464,35.701975],[139.480398,35.701938],[139.48035,35.701911],[139.480309,35.701869],[139.48032,35.701825],[139.480372,35.701812],[139.480509,35.701845],[139.480618,35.701835],[139.480684,35.701786],[139.480729,35.701732],[139.480729,35.701624],[139.480731,35.701393],[139.480705,35.701286],[139.480623,35.70124],[139.480524,35.701241],[139.480436,35.701279],[139.48036,35.701384],[139.480351,35.701558],[139.480361,35.701683],[139.480335,35.701714],[139.48029,35.701731],[139.480244,35.70175],[139.480213,35.701779],[139.480196,35.701803],[139.480222,35.701862]]},"properties":{"id":"F010:ROT_000003:SHP_000003","feed_id":"F010","feed_slug":"kokubunji-bunbus","municipality":"国分寺市","service_name":"ぶんバス","license":"CC BY 4.0","source_route_id":"ROT_000003","route_short_name":null,"route_long_name":"本多ルート","route_desc":null,"route_type":3,"route_url":null,"route_color":"E4007F","route_text_color":"FFFFFF","directions":[],"geometry_source":"shapes.txt"}},{"type":"Feature","id":"F010:ROT_000004:SHP_004001","geometry":{"type":"LineString","coordinates":[[139.446821,35.699672],[139.447056,35.69955],[139.447147,35.699517],[139.448052,35.699552],[139.448082,35.69956],[139.448093,35.699578],[139.448037,35.700654],[139.448008,35.700689],[139.447961,35.700706],[139.446601,35.700723],[139.446528,35.700739],[139.446494,35.700771],[139.446418,35.702321],[139.446399,35.702372],[139.446371,35.702411],[139.446005,35.702865],[139.445979,35.702885],[139.445928,35.7029],[139.444365,35.702841],[139.444297,35.702867],[139.444269,35.70292],[139.444149,35.705025],[139.444129,35.705076],[139.444094,35.705124],[139.443608,35.705623],[139.44352,35.705706],[139.443374,35.705808],[139.44324,35.705864],[139.443063,35.70591],[139.44232,35.70611],[139.442172,35.706173],[139.442122,35.706252],[139.442232,35.706361],[139.442947,35.706624],[139.443707,35.706919],[139.444246,35.707151],[139.444258,35.707176],[139.44425,35.707195],[139.443985,35.707464],[139.443854,35.707601],[139.44372,35.707792],[139.443686,35.707805],[139.443645,35.707804],[139.442281,35.707139],[139.442269,35.707125],[139.442271,35.707095],[139.442333,35.706808],[139.442327,35.706663],[139.442287,35.706511],[139.442232,35.706361],[139.442122,35.706252],[139.442021,35.70627],[139.441631,35.706337],[139.441475,35.706412],[139.440992,35.706543],[139.440539,35.706606],[139.43996,35.706639],[139.437839,35.706728],[139.437808,35.706703],[139.437817,35.706669],[139.438,35.706341],[139.438024,35.706227],[139.438644,35.705133],[139.438681,35.705053],[139.438651,35.704995],[139.438387,35.704873],[139.438317,35.704828],[139.437179,35.7043],[139.436499,35.703988],[139.43618,35.703822],[139.435409,35.703422],[139.435205,35.703369],[139.434996,35.703362],[139.434759,35.703311],[139.43462,35.70335],[139.433813,35.703345],[139.433144,35.703327],[139.432524,35.703309],[139.432304,35.70329],[139.432283,35.703277],[139.43227,35.703253],[139.432314,35.70251],[139.432331,35.702495],[139.432736,35.702523],[139.432894,35.702556],[139.433693,35.702895],[139.434666,35.703305],[139.434923,35.703378],[139.43519,35.703395],[139.435417,35.70346],[139.435583,35.703544],[139.435699,35.703606],[139.436097,35.703814],[139.436125,35.703816],[139.436146,35.703809],[139.436343,35.703489],[139.436747,35.702868],[139.436767,35.702859],[139.436794,35.702858],[139.437391,35.703111],[139.437446,35.703113],[139.437489,35.703081],[139.437779,35.702612],[139.437914,35.702401],[139.438034,35.702241],[139.438317,35.70181],[139.438617,35.70134],[139.438645,35.701321],[139.438689,35.701321],[139.439292,35.701593],[139.439331,35.701591],[139.439365,35.70158],[139.439534,35.701284],[139.439676,35.701074],[139.439825,35.700848],[139.439955,35.700565],[139.439974,35.700541],[139.44002,35.700525],[139.441043,35.700574],[139.441107,35.700557],[139.441151,35.700505],[139.441292,35.700276],[139.441323,35.700239],[139.441389,35.700232],[139.441556,35.700241],[139.442291,35.700248],[139.442316,35.700255],[139.442321,35.700272],[139.442305,35.700569],[139.442365,35.700605],[139.442936,35.700619],[139.444054,35.70066],[139.444456,35.700672],[139.445394,35.700709],[139.44648,35.700749],[139.446528,35.70072],[139.446549,35.700666],[139.446582,35.699914],[139.446591,35.699851],[139.446627,35.699796],[139.446709,35.699736],[139.44682,35.699673]]},"properties":{"id":"F010:ROT_000004:SHP_004001","feed_id":"F010","feed_slug":"kokubunji-bunbus","municipality":"国分寺市","service_name":"ぶんバス","license":"CC BY 4.0","source_route_id":"ROT_000004","route_short_name":null,"route_long_name":"西町ルート","route_desc":null,"route_type":3,"route_url":null,"route_color":"E66C22","route_text_color":"FFFFFF","directions":[],"geometry_source":"shapes.txt"}},{"type":"Feature","id":"F010:ROT_000004:SHP_004002","geometry":{"type":"LineString","coordinates":[[139.446821,35.699672],[139.447056,35.69955],[139.447147,35.699517],[139.448052,35.699552],[139.448082,35.69956],[139.448093,35.699578],[139.448037,35.700654],[139.448008,35.700689],[139.447961,35.700706],[139.446601,35.700723],[139.446528,35.700739],[139.446494,35.700771],[139.446418,35.702321],[139.446399,35.702372],[139.446371,35.702411],[139.446005,35.702865],[139.445979,35.702885],[139.445928,35.7029],[139.444365,35.702841],[139.444297,35.702867],[139.444269,35.70292],[139.444149,35.705025],[139.444129,35.705076],[139.444094,35.705124],[139.443608,35.705623],[139.44352,35.705706],[139.443374,35.705808],[139.44324,35.705864],[139.443063,35.70591],[139.442318,35.706123],[139.442178,35.706188],[139.442006,35.706266],[139.441605,35.706351],[139.441487,35.706416],[139.440992,35.706543],[139.440539,35.706606],[139.43996,35.706639],[139.439517,35.706689],[139.43847,35.706691],[139.437839,35.706728],[139.437808,35.706703],[139.437817,35.706669],[139.438,35.706341],[139.438024,35.706227],[139.438644,35.705133],[139.438681,35.705053],[139.438651,35.704995],[139.438387,35.704873],[139.438317,35.704828],[139.437179,35.7043],[139.436499,35.703988],[139.43618,35.703822],[139.435409,35.703422],[139.435205,35.703369],[139.434996,35.703362],[139.434759,35.703311],[139.43462,35.70335],[139.433813,35.703345],[139.433144,35.703327],[139.432524,35.703309],[139.432304,35.70329],[139.432283,35.703277],[139.43227,35.703253],[139.432314,35.70251],[139.432331,35.702495],[139.432736,35.702523],[139.432894,35.702556],[139.433693,35.702895],[139.434666,35.703305],[139.434923,35.703378],[139.43519,35.703395],[139.435417,35.70346],[139.435583,35.703544],[139.435699,35.703606],[139.436097,35.703814],[139.436125,35.703816],[139.436146,35.703809],[139.436343,35.703489],[139.436747,35.702868],[139.436767,35.702859],[139.436794,35.702858],[139.437391,35.703111],[139.437446,35.703113],[139.437489,35.703081],[139.437779,35.702612],[139.437914,35.702401],[139.438034,35.702241],[139.438317,35.70181],[139.438617,35.70134],[139.438645,35.701321],[139.438689,35.701321],[139.439292,35.701593],[139.439331,35.701591],[139.439365,35.70158],[139.439534,35.701284],[139.439676,35.701074],[139.439825,35.700848],[139.439955,35.700565],[139.439974,35.700541],[139.44002,35.700525],[139.441043,35.700574],[139.441107,35.700557],[139.441151,35.700505],[139.441292,35.700276],[139.441323,35.700239],[139.441389,35.700232],[139.441556,35.700241],[139.442291,35.700248],[139.442316,35.700255],[139.442321,35.700272],[139.442305,35.700569],[139.442365,35.700605],[139.442936,35.700619],[139.444054,35.70066],[139.444456,35.700672],[139.445394,35.700709],[139.44648,35.700749],[139.446528,35.70072],[139.446549,35.700666],[139.446582,35.699914],[139.446591,35.699851],[139.446627,35.699796],[139.446709,35.699736],[139.44682,35.699673]]},"properties":{"id":"F010:ROT_000004:SHP_004002","feed_id":"F010","feed_slug":"kokubunji-bunbus","municipality":"国分寺市","service_name":"ぶんバス","license":"CC BY 4.0","source_route_id":"ROT_000004","route_short_name":null,"route_long_name":"西町ルート","route_desc":null,"route_type":3,"route_url":null,"route_color":"E66C22","route_text_color":"FFFFFF","directions":[],"geometry_source":"shapes.txt"}},{"type":"Feature","id":"F010:ROT_000005:SHP_000005","geometry":{"type":"LineString","coordinates":[[139.469389,35.696982],[139.469385,35.696941],[139.469369,35.696935],[139.469327,35.696933],[139.469312,35.696921],[139.469285,35.696473],[139.469223,35.696063],[139.469208,35.696029],[139.469163,35.696006],[139.468862,35.695942],[139.46842,35.695848],[139.467953,35.695747],[139.467208,35.695594],[139.467123,35.695596],[139.467086,35.695633],[139.46707,35.695709],[139.467046,35.695973],[139.467018,35.696353],[139.466997,35.696761],[139.466961,35.697152],[139.466921,35.69754],[139.466595,35.69922],[139.466443,35.7],[139.466366,35.700408],[139.466214,35.701319],[139.466123,35.701781],[139.466047,35.702199],[139.466049,35.702676],[139.466085,35.702897],[139.466129,35.703069],[139.466196,35.70329],[139.466266,35.703444],[139.466421,35.703761],[139.466737,35.704398],[139.466869,35.704684],[139.466999,35.704972],[139.467287,35.705564],[139.46754,35.706086],[139.467754,35.706521],[139.467908,35.706865],[139.468057,35.70721],[139.468122,35.707368],[139.468245,35.707699],[139.468307,35.707837],[139.468331,35.707992],[139.46838,35.708377],[139.468333,35.70862],[139.468336,35.708818],[139.468336,35.709038],[139.468335,35.7092],[139.468362,35.709274],[139.468375,35.709475],[139.46838,35.710061],[139.468375,35.710465],[139.468379,35.710724],[139.468376,35.710951],[139.468362,35.711039],[139.468333,35.711107],[139.46829,35.711256],[139.468238,35.711346],[139.468116,35.711519],[139.467987,35.711672],[139.467858,35.711824],[139.467742,35.711949],[139.467378,35.71236],[139.467243,35.71252],[139.467176,35.712618],[139.467113,35.712712],[139.467064,35.712821],[139.467031,35.712847],[139.466968,35.712867],[139.466876,35.712989],[139.466616,35.713304],[139.466484,35.713461],[139.465719,35.714388],[139.464176,35.716277],[139.464075,35.716364],[139.463768,35.716762],[139.463491,35.717171],[139.463456,35.717202],[139.463414,35.717209],[139.463095,35.717177],[139.462518,35.717131],[139.461685,35.717077],[139.461569,35.717065],[139.461431,35.717053],[139.460795,35.717006],[139.460007,35.716943],[139.458837,35.716871],[139.457912,35.716814],[139.456126,35.716698],[139.456059,35.716731],[139.456049,35.71678],[139.456102,35.717212],[139.456119,35.717346],[139.45611,35.717383],[139.456124,35.717485],[139.456141,35.717512],[139.456166,35.717698],[139.456259,35.718386],[139.456343,35.719002],[139.456334,35.719027],[139.456314,35.719043],[139.455785,35.719122],[139.455299,35.719189],[139.455171,35.719206],[139.454471,35.719319],[139.453697,35.719434],[139.452943,35.719555],[139.452181,35.719674],[139.451455,35.71978],[139.450729,35.719887],[139.449178,35.720139],[139.447108,35.720476],[139.447093,35.720503],[139.447093,35.720535],[139.447162,35.720798],[139.447222,35.721027],[139.447352,35.721534],[139.447439,35.721887],[139.44743,35.721992],[139.447568,35.722498],[139.447555,35.722526],[139.447534,35.722544],[139.447254,35.722597],[139.447211,35.722577],[139.447195,35.722547],[139.446709,35.720613],[139.446713,35.720589],[139.446735,35.720566],[139.447037,35.720516],[139.44804,35.720355],[139.448878,35.72022],[139.450646,35.719937],[139.450679,35.719908],[139.450686,35.719864],[139.450512,35.719172],[139.450329,35.718424],[139.450287,35.718249],[139.450245,35.718074],[139.45015,35.717727],[139.450064,35.717435],[139.450072,35.71737],[139.450034,35.71712],[139.450048,35.717088],[139.450088,35.717056],[139.453023,35.716797],[139.453067,35.716779],[139.45309,35.716748],[139.453074,35.716688],[139.45302,35.716488],[139.453017,35.716474],[139.453017,35.716456],[139.453029,35.716444],[139.45308,35.716428],[139.453105,35.716427],[139.453128,35.716423],[139.453147,35.716409],[139.45315,35.716379],[139.453142,35.716347],[139.453128,35.716328],[139.45311,35.716325],[139.453086,35.716326],[139.453064,35.716335],[139.453053,35.716358],[139.45306,35.716415],[139.45305,35.716424],[139.453005,35.716438],[139.452995,35.716456],[139.453001,35.716475],[139.45307,35.716741],[139.453104,35.716769],[139.453149,35.716779],[139.454138,35.716688],[139.454638,35.716654],[139.454812,35.716658],[139.454986,35.716666],[139.455341,35.716678],[139.455623,35.716696],[139.456004,35.716723],[139.45637,35.716747],[139.456931,35.716782],[139.457859,35.716843],[139.459731,35.716961],[139.460834,35.717045],[139.462507,35.717177],[139.463184,35.717229],[139.463602,35.717253],[139.463992,35.717277],[139.464398,35.717319],[139.465094,35.717368],[139.465144,35.717357],[139.465183,35.717327],[139.465241,35.717043],[139.465349,35.716794],[139.465464,35.716567],[139.465685,35.716153],[139.466279,35.715023],[139.466396,35.714794],[139.466787,35.713764],[139.466909,35.713442],[139.467022,35.71309],[139.467106,35.712845],[139.467296,35.712567],[139.467376,35.712482],[139.467521,35.712307],[139.467653,35.712146],[139.467915,35.711859],[139.468053,35.711711],[139.468187,35.711547],[139.468319,35.711381],[139.468366,35.711299],[139.468403,35.711218],[139.468423,35.711115],[139.468445,35.710962],[139.468447,35.710701],[139.468444,35.710073],[139.468439,35.709743],[139.468421,35.70889],[139.46841,35.708222],[139.468383,35.707991],[139.468345,35.707841],[139.468306,35.707695],[139.468232,35.707485],[139.468132,35.70725],[139.467965,35.706859],[139.467738,35.706401],[139.467345,35.705552],[139.467042,35.704929],[139.466964,35.704748],[139.466559,35.703854],[139.466423,35.703586],[139.466272,35.703273],[139.466191,35.702977],[139.466123,35.702652],[139.466123,35.702248],[139.466196,35.701722],[139.466254,35.701429],[139.466438,35.70044],[139.466607,35.699561],[139.46678,35.698656],[139.466798,35.69863],[139.46685,35.698616],[139.467676,35.698719],[139.467804,35.698762],[139.467849,35.698798],[139.467862,35.698858],[139.467857,35.698927],[139.467812,35.699198],[139.467814,35.699256],[139.467844,35.699306],[139.468313,35.699625],[139.468378,35.699644],[139.468494,35.699638],[139.468575,35.699597],[139.468817,35.699433],[139.468979,35.699297],[139.469106,35.699204],[139.469224,35.699073],[139.469314,35.698936],[139.469372,35.698761],[139.46939,35.698577],[139.469355,35.697909],[139.469315,35.69714],[139.469317,35.697062],[139.469332,35.697037],[139.469359,35.697032],[139.469388,35.697018],[139.469389,35.696982]]},"properties":{"id":"F010:ROT_000005:SHP_000005","feed_id":"F010","feed_slug":"kokubunji-bunbus","municipality":"国分寺市","service_name":"ぶんバス","license":"CC BY 4.0","source_route_id":"ROT_000005","route_short_name":null,"route_long_name":"北町ルート","route_desc":null,"route_type":3,"route_url":null,"route_color":"00AECC","route_text_color":"FFFFFF","directions":[],"geometry_source":"shapes.txt"}},{"type":"Feature","id":"F010:ROT_000006:SHP_000006","geometry":{"type":"LineString","coordinates":[[139.472401,35.690066],[139.472414,35.68997],[139.472394,35.689949],[139.472364,35.689941],[139.47204,35.689926],[139.471276,35.689794],[139.470512,35.689663],[139.46976,35.6896],[139.469159,35.689554],[139.469103,35.68956],[139.469061,35.689593],[139.468972,35.689843],[139.468927,35.689963],[139.468891,35.690003],[139.468843,35.690138],[139.468839,35.690204],[139.468705,35.690589],[139.4685,35.691153],[139.468083,35.69228],[139.467899,35.692775],[139.467231,35.694569],[139.467182,35.6947],[139.467144,35.69485],[139.467105,35.695115],[139.467069,35.695546],[139.467148,35.695642],[139.467238,35.695677],[139.469127,35.696044],[139.469163,35.696083],[139.469168,35.696096],[139.469191,35.696249],[139.469241,35.69655],[139.469273,35.697019],[139.469318,35.697973],[139.469358,35.698689],[139.469325,35.698827],[139.469244,35.698985],[139.469163,35.699093],[139.469085,35.699181],[139.468942,35.699288],[139.468814,35.699374],[139.46875,35.699397],[139.468684,35.699379],[139.468287,35.699033],[139.468079,35.698854],[139.467997,35.698801],[139.467918,35.698809],[139.467869,35.698868],[139.467805,35.699202],[139.467801,35.699271],[139.467822,35.699328],[139.468231,35.699598],[139.468361,35.699633],[139.468516,35.69964],[139.468677,35.699536],[139.468748,35.699532],[139.468807,35.699553],[139.468983,35.699649],[139.469162,35.699705],[139.469352,35.699745],[139.46953,35.699757],[139.470831,35.699793],[139.471054,35.6998],[139.472285,35.699822],[139.472576,35.699821],[139.472661,35.699808],[139.47274,35.699784],[139.472824,35.699743],[139.472902,35.699691],[139.472979,35.699604],[139.473042,35.699493],[139.473248,35.69857],[139.473304,35.698353],[139.473568,35.697182],[139.473615,35.696992],[139.473699,35.696557],[139.473737,35.696502],[139.473804,35.69648],[139.474343,35.696522],[139.474583,35.696539],[139.4747,35.696538],[139.474808,35.696522],[139.475103,35.696486],[139.475225,35.696479],[139.475344,35.696483],[139.475448,35.696489],[139.475539,35.696506],[139.475898,35.696581],[139.476205,35.696665],[139.476423,35.696744],[139.47719,35.69715],[139.477432,35.697286],[139.477647,35.697448],[139.47785,35.697611],[139.478036,35.697783],[139.478141,35.697885],[139.478145,35.697921],[139.478114,35.697962],[139.478012,35.698147],[139.477876,35.698378],[139.477814,35.698557],[139.477615,35.69914],[139.477549,35.699354],[139.477563,35.699395],[139.477508,35.699639],[139.477606,35.699669],[139.478082,35.699681],[139.478608,35.699678],[139.478704,35.699661],[139.478829,35.699595],[139.47891,35.699532],[139.479023,35.699511],[139.479152,35.699516],[139.479191,35.699489],[139.479224,35.699214],[139.479261,35.698922],[139.479191,35.698885],[139.478884,35.698869],[139.478493,35.698844],[139.4778,35.698806],[139.477707,35.698868],[139.477616,35.69914],[139.477549,35.699354],[139.477564,35.699394],[139.477508,35.699639],[139.477462,35.699874],[139.477442,35.700016],[139.477423,35.700233],[139.477386,35.700456],[139.477318,35.700774],[139.477296,35.700892],[139.477288,35.701086],[139.477334,35.701316],[139.477384,35.70158],[139.477417,35.701814],[139.477377,35.702076],[139.477329,35.702228],[139.477201,35.702621],[139.477115,35.702892],[139.477026,35.703207],[139.476984,35.703267],[139.476962,35.703365],[139.476917,35.70348],[139.476892,35.703781],[139.47682,35.704042],[139.476733,35.704389],[139.476732,35.704681],[139.476735,35.704874],[139.476741,35.705086],[139.476706,35.70512],[139.476659,35.705135],[139.476201,35.705196],[139.475749,35.705255],[139.475424,35.705264],[139.474918,35.705286],[139.474733,35.705291],[139.474549,35.70528],[139.473719,35.705225],[139.473422,35.705184],[139.473318,35.705175],[139.473273,35.705193],[139.473238,35.705234],[139.473196,35.705385],[139.473205,35.705413],[139.473223,35.705423],[139.473251,35.705429],[139.473281,35.705403],[139.473274,35.705376],[139.473252,35.705353],[139.473244,35.705327],[139.473257,35.705281],[139.473269,35.705254],[139.473295,35.705244],[139.473856,35.705282],[139.474541,35.705304],[139.474728,35.705312],[139.47492,35.705306],[139.475078,35.705303],[139.475398,35.705302],[139.475577,35.705293],[139.475994,35.705266],[139.476263,35.705233],[139.476711,35.705173],[139.476755,35.705149],[139.476772,35.7051],[139.476764,35.704877],[139.476767,35.704682],[139.476766,35.704389],[139.476851,35.704045],[139.476925,35.703793],[139.476951,35.70349],[139.476998,35.703381],[139.477023,35.70327],[139.477056,35.703213],[139.477146,35.702898],[139.477202,35.702715],[139.477227,35.702626],[139.477361,35.702236],[139.477406,35.702082],[139.477453,35.701819],[139.477416,35.701581],[139.477369,35.701315],[139.477338,35.701086],[139.477339,35.700896],[139.477362,35.700781],[139.477425,35.70046],[139.477468,35.700235],[139.477488,35.700012],[139.4775,35.69988],[139.477525,35.699712],[139.477606,35.699669],[139.478083,35.699681],[139.478608,35.699678],[139.478704,35.699661],[139.478829,35.699595],[139.478911,35.699531],[139.479023,35.699511],[139.479152,35.699517],[139.47919,35.699488],[139.479224,35.699213],[139.479261,35.698922],[139.479191,35.698885],[139.478883,35.698869],[139.478493,35.698844],[139.477835,35.698808],[139.477795,35.698784],[139.477798,35.698736],[139.477819,35.698674],[139.477891,35.69849],[139.477952,35.698381],[139.478209,35.69797],[139.478214,35.697936],[139.478211,35.697902],[139.47818,35.697865],[139.478059,35.697761],[139.477873,35.697593],[139.477464,35.697269],[139.476824,35.696921],[139.476339,35.696665],[139.476103,35.696587],[139.475814,35.696513],[139.475517,35.696453],[139.475352,35.696444],[139.475149,35.696444],[139.475053,35.696456],[139.474808,35.696491],[139.474659,35.696512],[139.474587,35.696511],[139.474346,35.696494],[139.473811,35.696455],[139.473713,35.696471],[139.473643,35.696506],[139.473597,35.696563],[139.473486,35.697183],[139.473356,35.697828],[139.473278,35.698212],[139.473065,35.699107],[139.47298,35.699477],[139.472929,35.699587],[139.472863,35.699646],[139.472791,35.699696],[139.472701,35.699743],[139.472585,35.699771],[139.472299,35.699769],[139.471337,35.699757],[139.471059,35.699747],[139.469524,35.699711],[139.469355,35.699699],[139.469175,35.699658],[139.469005,35.699606],[139.46885,35.699521],[139.468685,35.699378],[139.468287,35.699032],[139.468079,35.698854],[139.467996,35.698803],[139.46792,35.69881],[139.467869,35.698867],[139.467807,35.699204],[139.467799,35.699271],[139.467822,35.699329],[139.468232,35.699598],[139.46836,35.699633],[139.468516,35.69964],[139.468676,35.699536],[139.46885,35.69941],[139.468949,35.699345],[139.469079,35.699248],[139.469109,35.699224],[139.46914,35.699194],[139.469173,35.699159],[139.469202,35.699118],[139.469244,35.699064],[139.469282,35.699007],[139.469314,35.698944],[139.469341,35.698881],[139.469373,35.698793],[139.469387,35.698692],[139.469394,35.698564],[139.469361,35.697964],[139.469309,35.697039],[139.469328,35.697025],[139.469347,35.697026],[139.469368,35.697022],[139.469383,35.697012],[139.469383,35.696982],[139.469383,35.696956],[139.469371,35.696946],[139.469329,35.696944],[139.46931,35.696921],[139.469284,35.696599],[139.469234,35.696205],[139.469227,35.696126],[139.469207,35.696036],[139.469143,35.695987],[139.469042,35.695953],[139.467276,35.695616],[139.467195,35.69558],[139.467159,35.695519],[139.467161,35.695246],[139.467193,35.695005],[139.467248,35.694743],[139.467295,35.694498],[139.467646,35.693535],[139.467724,35.693347],[139.468438,35.691447],[139.468672,35.690769],[139.468915,35.690094],[139.46909,35.689618],[139.469108,35.689595],[139.469152,35.689582],[139.469799,35.689645],[139.470445,35.689696],[139.471239,35.689827],[139.471975,35.689956],[139.472173,35.689968],[139.472356,35.689976],[139.472378,35.689985],[139.472377,35.690028],[139.472379,35.690064],[139.4724,35.690064]]},"properties":{"id":"F010:ROT_000006:SHP_000006","feed_id":"F010","feed_slug":"kokubunji-bunbus","municipality":"国分寺市","service_name":"ぶんバス","license":"CC BY 4.0","source_route_id":"ROT_000006","route_short_name":null,"route_long_name":"万葉・けやきルート","route_desc":null,"route_type":3,"route_url":null,"route_color":"920783","route_text_color":"FFFFFF","directions":[],"geometry_source":"shapes.txt"}}]}
