{"type":"FeatureCollection","name":"kokubunji-bunbus_stops","features":[{"type":"Feature","id":"F010:STP_000001_001","geometry":{"type":"Point","coordinates":[139.469368,35.696534]},"properties":{"id":"F010:STP_000001_001","feed_id":"F010","feed_slug":"kokubunji-bunbus","municipality":"国分寺市","service_name":"ぶんバス","license":"CC BY 4.0","source_stop_id":"STP_000001_001","stop_code":null,"stop_name":"国分寺市役所","stop_desc":null,"zone_id":"ZON_000001_001","location_type":0,"parent_station":null,"wheelchair_boarding":null}},{"type":"Feature","id":"F010:STP_000001_002","geometry":{"type":"Point","coordinates":[139.464709,35.695003]},"properties":{"id":"F010:STP_000001_002","feed_id":"F010","feed_slug":"kokubunji-bunbus","municipality":"国分寺市","service_name":"ぶんバス","license":"CC BY 4.0","source_stop_id":"STP_000001_002","stop_code":null,"stop_name":"泉町三丁目","stop_desc":null,"zone_id":"ZON_000001_002","location_type":0,"parent_station":null,"wheelchair_boarding":null}},{"type":"Feature","id":"F010:STP_000001_003","geometry":{"type":"Point","coordinates":[139.464668,35.697157]},"properties":{"id":"F010:STP_000001_003","feed_id":"F010","feed_slug":"kokubunji-bunbus","municipality":"国分寺市","service_name":"ぶんバス","license":"CC BY 4.0","source_stop_id":"STP_000001_003","stop_code":null,"stop_name":"多喜窪公会堂北","stop_desc":null,"zone_id":"ZON_000001_003","location_type":0,"parent_station":null,"wheelchair_boarding":null}},{"type":"Feature","id":"F010:STP_000001_004","geometry":{"type":"Point","coordinates":[139.465723,35.698691]},"properties":{"id":"F010:STP_000001_004","feed_id":"F010","feed_slug":"kokubunji-bunbus","municipality":"国分寺市","service_name":"ぶんバス","license":"CC BY 4.0","source_stop_id":"STP_000001_004","stop_code":null,"stop_name":"西国分寺駅","stop_desc":null,"zone_id":"ZON_000001_004","location_type":0,"parent_station":null,"wheelchair_boarding":null}},{"type":"Feature","id":"F010:STP_000001_005","geometry":{"type":"Point","coordinates":[139.464376,35.696749]},"properties":{"id":"F010:STP_000001_005","feed_id":"F010","feed_slug":"kokubunji-bunbus","municipality":"国分寺市","service_name":"ぶんバス","license":"CC BY 4.0","source_stop_id":"STP_000001_005","stop_code":null,"stop_name":"多喜窪公会堂南","stop_desc":null,"zone_id":"ZON_000001_005","location_type":0,"parent_station":null,"wheelchair_boarding":null}},{"type":"Feature","id":"F010:STP_000001_007","geometry":{"type":"Point","coordinates":[139.461942,35.694024]},"properties":{"id":"F010:STP_000001_007","feed_id":"F010","feed_slug":"kokubunji-bunbus","municipality":"国分寺市","service_name":"ぶんバス","license":"CC BY 4.0","source_stop_id":"STP_000001_007","stop_code":null,"stop_name":"武蔵台学園","stop_desc":null,"zone_id":"ZON_000001_007","location_type":0,"parent_station":null,"wheelchair_boarding":null}},{"type":"Feature","id":"F010:STP_000001_008","geometry":{"type":"Point","coordinates":[139.459719,35.697547]},"properties":{"id":"F010:STP_000001_008","feed_id":"F010","feed_slug":"kokubunji-bunbus","municipality":"国分寺市","service_name":"ぶんバス","license":"CC BY 4.0","source_stop_id":"STP_000001_008","stop_code":null,"stop_name":"内藤橋南","stop_desc":null,"zone_id":"ZON_000001_008","location_type":0,"parent_station":null,"wheelchair_boarding":null}},{"type":"Feature","id":"F010:STP_000001_009","geometry":{"type":"Point","coordinates":[139.45848,35.700191]},"properties":{"id":"F010:STP_000001_009","feed_id":"F010","feed_slug":"kokubunji-bunbus","municipality":"国分寺市","service_name":"ぶんバス","license":"CC BY 4.0","source_stop_id":"STP_000001_009","stop_code":null,"stop_name":"内藤橋北","stop_desc":null,"zone_id":"ZON_000001_009","location_type":0,"parent_station":null,"wheelchair_boarding":null}},{"type":"Feature","id":"F010:STP_000001_010","geometry":{"type":"Point","coordinates":[139.455611,35.702161]},"properties":{"id":"F010:STP_000001_010","feed_id":"F010","feed_slug":"kokubunji-bunbus","municipality":"国分寺市","service_name":"ぶんバス","license":"CC BY 4.0","source_stop_id":"STP_000001_010","stop_code":null,"stop_name":"日吉町三丁目","stop_desc":null,"zone_id":"ZON_000001_010","location_type":0,"parent_station":null,"wheelchair_boarding":null}},{"type":"Feature","id":"F010:STP_000001_011","geometry":{"type":"Point","coordinates":[139.454097,35.703531]},"properties":{"id":"F010:STP_000001_011","feed_id":"F010","feed_slug":"kokubunji-bunbus","municipality":"国分寺市","service_name":"ぶんバス","license":"CC BY 4.0","source_stop_id":"STP_000001_011","stop_code":null,"stop_name":"日吉町交差点南","stop_desc":null,"zone_id":"ZON_000001_011","location_type":0,"parent_station":null,"wheelchair_boarding":null}},{"type":"Feature","id":"F010:STP_000001_012","geometry":{"type":"Point","coordinates":[139.451436,35.706072]},"properties":{"id":"F010:STP_000001_012","feed_id":"F010","feed_slug":"kokubunji-bunbus","municipality":"国分寺市","service_name":"ぶんバス","license":"CC BY 4.0","source_stop_id":"STP_000001_012","stop_code":null,"stop_name":"富士本一丁目","stop_desc":null,"zone_id":"ZON_000001_012","location_type":0,"parent_station":null,"wheelchair_boarding":null}},{"type":"Feature","id":"F010:STP_000001_013","geometry":{"type":"Point","coordinates":[139.45,35.7075]},"properties":{"id":"F010:STP_000001_013","feed_id":"F010","feed_slug":"kokubunji-bunbus","municipality":"国分寺市","service_name":"ぶんバス","license":"CC BY 4.0","source_stop_id":"STP_000001_013","stop_code":null,"stop_name":"富士本二丁目","stop_desc":null,"zone_id":"ZON_000001_013","location_type":0,"parent_station":null,"wheelchair_boarding":null}},{"type":"Feature","id":"F010:STP_000001_014","geometry":{"type":"Point","coordinates":[139.450466,35.708196]},"properties":{"id":"F010:STP_000001_014","feed_id":"F010","feed_slug":"kokubunji-bunbus","municipality":"国分寺市","service_name":"ぶんバス","license":"CC BY 4.0","source_stop_id":"STP_000001_014","stop_code":null,"stop_name":"戸倉三丁目","stop_desc":null,"zone_id":"ZON_000001_014","location_type":0,"parent_station":null,"wheelchair_boarding":null}},{"type":"Feature","id":"F010:STP_000001_015","geometry":{"type":"Point","coordinates":[139.452511,35.709323]},"properties":{"id":"F010:STP_000001_015","feed_id":"F010","feed_slug":"kokubunji-bunbus","municipality":"国分寺市","service_name":"ぶんバス","license":"CC BY 4.0","source_stop_id":"STP_000001_015","stop_code":null,"stop_name":"第十小学校北","stop_desc":null,"zone_id":"ZON_000001_015","location_type":0,"parent_station":null,"wheelchair_boarding":null}},{"type":"Feature","id":"F010:STP_000001_016","geometry":{"type":"Point","coordinates":[139.453842,35.710048]},"properties":{"id":"F010:STP_000001_016","feed_id":"F010","feed_slug":"kokubunji-bunbus","municipality":"国分寺市","service_name":"ぶんバス","license":"CC BY 4.0","source_stop_id":"STP_000001_016","stop_code":null,"stop_name":"戸倉神社","stop_desc":null,"zone_id":"ZON_000001_016","location_type":0,"parent_station":null,"wheelchair_boarding":null}},{"type":"Feature","id":"F010:STP_000001_017","geometry":{"type":"Point","coordinates":[139.455408,35.708921]},"properties":{"id":"F010:STP_000001_017","feed_id":"F010","feed_slug":"kokubunji-bunbus","municipality":"国分寺市","service_name":"ぶんバス","license":"CC BY 4.0","source_stop_id":"STP_000001_017","stop_code":null,"stop_name":"福祉センター入口","stop_desc":null,"zone_id":"ZON_000001_017","location_type":0,"parent_station":null,"wheelchair_boarding":null}},{"type":"Feature","id":"F010:STP_000001_018","geometry":{"type":"Point","coordinates":[139.45634,35.709284]},"properties":{"id":"F010:STP_000001_018","feed_id":"F010","feed_slug":"kokubunji-bunbus","municipality":"国分寺市","service_name":"ぶんバス","license":"CC BY 4.0","source_stop_id":"STP_000001_018","stop_code":null,"stop_name":"戸倉四丁目","stop_desc":null,"zone_id":"ZON_000001_018","location_type":0,"parent_station":null,"wheelchair_boarding":null}},{"type":"Feature","id":"F010:STP_000001_019","geometry":{"type":"Point","coordinates":[139.457785,35.707216]},"properties":{"id":"F010:STP_000001_019","feed_id":"F010","feed_slug":"kokubunji-bunbus","municipality":"国分寺市","service_name":"ぶんバス","license":"CC BY 4.0","source_stop_id":"STP_000001_019","stop_code":null,"stop_name":"戸倉二丁目東","stop_desc":null,"zone_id":"ZON_000001_019","location_type":0,"parent_station":null,"wheelchair_boarding":null}},{"type":"Feature","id":"F010:STP_000001_020","geometry":{"type":"Point","coordinates":[139.458412,35.70681]},"properties":{"id":"F010:STP_000001_020","feed_id":"F010","feed_slug":"kokubunji-bunbus","municipality":"国分寺市","service_name":"ぶんバス","license":"CC BY 4.0","source_stop_id":"STP_000001_020","stop_code":null,"stop_name":"うれしのの里","stop_desc":null,"zone_id":"ZON_000001_020","location_type":0,"parent_station":null,"wheelchair_boarding":null}},{"type":"Feature","id":"F010:STP_000001_021","geometry":{"type":"Point","coordinates":[139.460994,35.70841]},"properties":{"id":"F010:STP_000001_021","feed_id":"F010","feed_slug":"kokubunji-bunbus","municipality":"国分寺市","service_name":"ぶんバス","license":"CC BY 4.0","source_stop_id":"STP_000001_021","stop_code":null,"stop_name":"内藤神社","stop_desc":null,"zone_id":"ZON_000001_021","location_type":0,"parent_station":null,"wheelchair_boarding":null}},{"type":"Feature","id":"F010:STP_000001_022","geometry":{"type":"Point","coordinates":[139.462317,35.710615]},"properties":{"id":"F010:STP_000001_022","feed_id":"F010","feed_slug":"kokubunji-bunbus","municipality":"国分寺市","service_name":"ぶんバス","license":"CC BY 4.0","source_stop_id":"STP_000001_022","stop_code":null,"stop_name":"恋ヶ窪駅西","stop_desc":null,"zone_id":"ZON_000001_022","location_type":0,"parent_station":null,"wheelchair_boarding":null}},{"type":"Feature","id":"F010:STP_000001_023","geometry":{"type":"Point","coordinates":[139.462254,35.708089]},"properties":{"id":"F010:STP_000001_023","feed_id":"F010","feed_slug":"kokubunji-bunbus","municipality":"国分寺市","service_name":"ぶんバス","license":"CC BY 4.0","source_stop_id":"STP_000001_023","stop_code":null,"stop_name":"日吉町四丁目","stop_desc":null,"zone_id":"ZON_000001_023","location_type":0,"parent_station":null,"wheelchair_boarding":null}},{"type":"Feature","id":"F010:STP_000001_024","geometry":{"type":"Point","coordinates":[139.464977,35.706143]},"properties":{"id":"F010:STP_000001_024","feed_id":"F010","feed_slug":"kokubunji-bunbus","municipality":"国分寺市","service_name":"ぶんバス","license":"CC BY 4.0","source_stop_id":"STP_000001_024","stop_code":null,"stop_name":"市民室内プール前","stop_desc":null,"zone_id":"ZON_000001_024","location_type":0,"parent_station":null,"wheelchair_boarding":null}},{"type":"Feature","id":"F010:STP_000001_025","geometry":{"type":"Point","coordinates":[139.466457,35.70358]},"properties":{"id":"F010:STP_000001_025","feed_id":"F010","feed_slug":"kokubunji-bunbus","municipality":"国分寺市","service_name":"ぶんバス","license":"CC BY 4.0","source_stop_id":"STP_000001_025","stop_code":null,"stop_name":"西恋ヶ窪一丁目北","stop_desc":null,"zone_id":"ZON_000001_025","location_type":0,"parent_station":null,"wheelchair_boarding":null}},{"type":"Feature","id":"F010:STP_000001_026","geometry":{"type":"Point","coordinates":[139.466238,35.701688]},"properties":{"id":"F010:STP_000001_026","feed_id":"F010","feed_slug":"kokubunji-bunbus","municipality":"国分寺市","service_name":"ぶんバス","license":"CC BY 4.0","source_stop_id":"STP_000001_026","stop_code":null,"stop_name":"西恋ヶ窪一丁目南","stop_desc":null,"zone_id":"ZON_000001_026","location_type":0,"parent_station":null,"wheelchair_boarding":null}},{"type":"Feature","id":"F010:STP_000001_027","geometry":{"type":"Point","coordinates":[139.466487,35.700428]},"properties":{"id":"F010:STP_000001_027","feed_id":"F010","feed_slug":"kokubunji-bunbus","municipality":"国分寺市","service_name":"ぶんバス","license":"CC BY 4.0","source_stop_id":"STP_000001_027","stop_code":null,"stop_name":"西国分寺駅北","stop_desc":null,"zone_id":"ZON_000001_027","location_type":0,"parent_station":null,"wheelchair_boarding":null}},{"type":"Feature","id":"F010:STP_000001_028","geometry":{"type":"Point","coordinates":[139.467868,35.699368]},"properties":{"id":"F010:STP_000001_028","feed_id":"F010","feed_slug":"kokubunji-bunbus","municipality":"国分寺市","service_name":"ぶんバス","license":"CC BY 4.0","source_stop_id":"STP_000001_028","stop_code":null,"stop_name":"西国分寺駅東","stop_desc":null,"zone_id":"ZON_000001_028","location_type":0,"parent_station":null,"wheelchair_boarding":null}},{"type":"Feature","id":"F010:STP_000002_001","geometry":{"type":"Point","coordinates":[139.480526,35.699154]},"properties":{"id":"F010:STP_000002_001","feed_id":"F010","feed_slug":"kokubunji-bunbus","municipality":"国分寺市","service_name":"ぶんバス","license":"CC BY 4.0","source_stop_id":"STP_000002_001","stop_code":null,"stop_name":"国分寺駅南口","stop_desc":null,"zone_id":"ZON_000002_001","location_type":0,"parent_station":null,"wheelchair_boarding":null}},{"type":"Feature","id":"F010:STP_000002_002","geometry":{"type":"Point","coordinates":[139.48083,35.696066]},"properties":{"id":"F010:STP_000002_002","feed_id":"F010","feed_slug":"kokubunji-bunbus","municipality":"国分寺市","service_name":"ぶんバス","license":"CC BY 4.0","source_stop_id":"STP_000002_002","stop_code":null,"stop_name":"一里塚","stop_desc":null,"zone_id":"ZON_000002_002","location_type":0,"parent_station":null,"wheelchair_boarding":null}},{"type":"Feature","id":"F010:STP_000002_003","geometry":{"type":"Point","coordinates":[139.480919,35.693558]},"properties":{"id":"F010:STP_000002_003","feed_id":"F010","feed_slug":"kokubunji-bunbus","municipality":"国分寺市","service_name":"ぶんバス","license":"CC BY 4.0","source_stop_id":"STP_000002_003","stop_code":null,"stop_name":"東元町","stop_desc":null,"zone_id":"ZON_000002_003","location_type":0,"parent_station":null,"wheelchair_boarding":null}},{"type":"Feature","id":"F010:STP_000002_004","geometry":{"type":"Point","coordinates":[139.483135,35.693874]},"properties":{"id":"F010:STP_000002_004","feed_id":"F010","feed_slug":"kokubunji-bunbus","municipality":"国分寺市","service_name":"ぶんバス","license":"CC BY 4.0","source_stop_id":"STP_000002_004","stop_code":null,"stop_name":"元町駐在所","stop_desc":null,"zone_id":"ZON_000002_004","location_type":0,"parent_station":null,"wheelchair_boarding":null}},{"type":"Feature","id":"F010:STP_000002_005","geometry":{"type":"Point","coordinates":[139.48501,35.694197]},"properties":{"id":"F010:STP_000002_005","feed_id":"F010","feed_slug":"kokubunji-bunbus","municipality":"国分寺市","service_name":"ぶんバス","license":"CC BY 4.0","source_stop_id":"STP_000002_005","stop_code":null,"stop_name":"東元町一丁目","stop_desc":null,"zone_id":"ZON_000002_005","location_type":0,"parent_station":null,"wheelchair_boarding":null}},{"type":"Feature","id":"F010:STP_000002_006","geometry":{"type":"Point","coordinates":[139.488653,35.694383]},"properties":{"id":"F010:STP_000002_006","feed_id":"F010","feed_slug":"kokubunji-bunbus","municipality":"国分寺市","service_name":"ぶんバス","license":"CC BY 4.0","source_stop_id":"STP_000002_006","stop_code":null,"stop_name":"新町三丁目","stop_desc":null,"zone_id":"ZON_000002_006","location_type":0,"parent_station":null,"wheelchair_boarding":null}},{"type":"Feature","id":"F010:STP_000002_007","geometry":{"type":"Point","coordinates":[139.490918,35.696798]},"properties":{"id":"F010:STP_000002_007","feed_id":"F010","feed_slug":"kokubunji-bunbus","municipality":"国分寺市","service_name":"ぶんバス","license":"CC BY 4.0","source_stop_id":"STP_000002_007","stop_code":null,"stop_name":"貫井南町四丁目","stop_desc":null,"zone_id":"ZON_000002_007","location_type":0,"parent_station":null,"wheelchair_boarding":null}},{"type":"Feature","id":"F010:STP_000002_008","geometry":{"type":"Point","coordinates":[139.487872,35.697663]},"properties":{"id":"F010:STP_000002_008","feed_id":"F010","feed_slug":"kokubunji-bunbus","municipality":"国分寺市","service_name":"ぶんバス","license":"CC BY 4.0","source_stop_id":"STP_000002_008","stop_code":null,"stop_name":"長谷戸橋","stop_desc":null,"zone_id":"ZON_000002_008","location_type":0,"parent_station":null,"wheelchair_boarding":null}},{"type":"Feature","id":"F010:STP_000002_009","geometry":{"type":"Point","coordinates":[139.486126,35.699011]},"properties":{"id":"F010:STP_000002_009","feed_id":"F010","feed_slug":"kokubunji-bunbus","municipality":"国分寺市","service_name":"ぶんバス","license":"CC BY 4.0","source_stop_id":"STP_000002_009","stop_code":null,"stop_name":"南町二丁目東","stop_desc":null,"zone_id":"ZON_000002_009","location_type":0,"parent_station":null,"wheelchair_boarding":null}},{"type":"Feature","id":"F010:STP_000002_010","geometry":{"type":"Point","coordinates":[139.483309,35.699542]},"properties":{"id":"F010:STP_000002_010","feed_id":"F010","feed_slug":"kokubunji-bunbus","municipality":"国分寺市","service_name":"ぶんバス","license":"CC BY 4.0","source_stop_id":"STP_000002_010","stop_code":null,"stop_name":"丸山通り","stop_desc":null,"zone_id":"ZON_000002_010","location_type":0,"parent_station":null,"wheelchair_boarding":null}},{"type":"Feature","id":"F010:STP_000003_001","geometry":{"type":"Point","coordinates":[139.480544,35.701197]},"properties":{"id":"F010:STP_000003_001","feed_id":"F010","feed_slug":"kokubunji-bunbus","municipality":"国分寺市","service_name":"ぶんバス","license":"CC BY 4.0","source_stop_id":"STP_000003_001","stop_code":null,"stop_name":"国分寺駅北口","stop_desc":null,"zone_id":"ZON_000003_001","location_type":0,"parent_station":null,"wheelchair_boarding":null}},{"type":"Feature","id":"F010:STP_000003_002","geometry":{"type":"Point","coordinates":[139.481427,35.701954]},"properties":{"id":"F010:STP_000003_002","feed_id":"F010","feed_slug":"kokubunji-bunbus","municipality":"国分寺市","service_name":"ぶんバス","license":"CC BY 4.0","source_stop_id":"STP_000003_002","stop_code":null,"stop_name":"本町二丁目西","stop_desc":null,"zone_id":"ZON_000003_002","location_type":0,"parent_station":null,"wheelchair_boarding":null}},{"type":"Feature","id":"F010:STP_000003_003","geometry":{"type":"Point","coordinates":[139.483283,35.701592]},"properties":{"id":"F010:STP_000003_003","feed_id":"F010","feed_slug":"kokubunji-bunbus","municipality":"国分寺市","service_name":"ぶんバス","license":"CC BY 4.0","source_stop_id":"STP_000003_003","stop_code":null,"stop_name":"本町二丁目東","stop_desc":null,"zone_id":"ZON_000003_003","location_type":0,"parent_station":null,"wheelchair_boarding":null}},{"type":"Feature","id":"F010:STP_000003_004","geometry":{"type":"Point","coordinates":[139.484264,35.702281]},"properties":{"id":"F010:STP_000003_004","feed_id":"F010","feed_slug":"kokubunji-bunbus","municipality":"国分寺市","service_name":"ぶんバス","license":"CC BY 4.0","source_stop_id":"STP_000003_004","stop_code":null,"stop_name":"早稲田実業学校","stop_desc":null,"zone_id":"ZON_000003_004","location_type":0,"parent_station":null,"wheelchair_boarding":null}},{"type":"Feature","id":"F010:STP_000003_005","geometry":{"type":"Point","coordinates":[139.485008,35.703656]},"properties":{"id":"F010:STP_000003_005","feed_id":"F010","feed_slug":"kokubunji-bunbus","municipality":"国分寺市","service_name":"ぶんバス","license":"CC BY 4.0","source_stop_id":"STP_000003_005","stop_code":null,"stop_name":"本多一丁目","stop_desc":null,"zone_id":"ZON_000003_005","location_type":0,"parent_station":null,"wheelchair_boarding":null}},{"type":"Feature","id":"F010:STP_000003_006","geometry":{"type":"Point","coordinates":[139.485186,35.704738]},"properties":{"id":"F010:STP_000003_006","feed_id":"F010","feed_slug":"kokubunji-bunbus","municipality":"国分寺市","service_name":"ぶんバス","license":"CC BY 4.0","source_stop_id":"STP_000003_006","stop_code":null,"stop_name":"本多五丁目","stop_desc":null,"zone_id":"ZON_000003_006","location_type":0,"parent_station":null,"wheelchair_boarding":null}},{"type":"Feature","id":"F010:STP_000003_007","geometry":{"type":"Point","coordinates":[139.482412,35.705015]},"properties":{"id":"F010:STP_000003_007","feed_id":"F010","feed_slug":"kokubunji-bunbus","municipality":"国分寺市","service_name":"ぶんバス","license":"CC BY 4.0","source_stop_id":"STP_000003_007","stop_code":null,"stop_name":"本多公民館","stop_desc":null,"zone_id":"ZON_000003_007","location_type":0,"parent_station":null,"wheelchair_boarding":null}},{"type":"Feature","id":"F010:STP_000003_008","geometry":{"type":"Point","coordinates":[139.482024,35.706106]},"properties":{"id":"F010:STP_000003_008","feed_id":"F010","feed_slug":"kokubunji-bunbus","municipality":"国分寺市","service_name":"ぶんバス","license":"CC BY 4.0","source_stop_id":"STP_000003_008","stop_code":null,"stop_name":"本多二丁目","stop_desc":null,"zone_id":"ZON_000003_008","location_type":0,"parent_station":null,"wheelchair_boarding":null}},{"type":"Feature","id":"F010:STP_000003_009","geometry":{"type":"Point","coordinates":[139.480736,35.707721]},"properties":{"id":"F010:STP_000003_009","feed_id":"F010","feed_slug":"kokubunji-bunbus","municipality":"国分寺市","service_name":"ぶんバス","license":"CC BY 4.0","source_stop_id":"STP_000003_009","stop_code":null,"stop_name":"本多八幡神社西","stop_desc":null,"zone_id":"ZON_000003_009","location_type":0,"parent_station":null,"wheelchair_boarding":null}},{"type":"Feature","id":"F010:STP_000003_010","geometry":{"type":"Point","coordinates":[139.481397,35.709945]},"properties":{"id":"F010:STP_000003_010","feed_id":"F010","feed_slug":"kokubunji-bunbus","municipality":"国分寺市","service_name":"ぶんバス","license":"CC BY 4.0","source_stop_id":"STP_000003_010","stop_code":null,"stop_name":"本多四丁目西","stop_desc":null,"zone_id":"ZON_000003_010","location_type":0,"parent_station":null,"wheelchair_boarding":null}},{"type":"Feature","id":"F010:STP_000003_011","geometry":{"type":"Point","coordinates":[139.481765,35.71116]},"properties":{"id":"F010:STP_000003_011","feed_id":"F010","feed_slug":"kokubunji-bunbus","municipality":"国分寺市","service_name":"ぶんバス","license":"CC BY 4.0","source_stop_id":"STP_000003_011","stop_code":null,"stop_name":"本多三丁目","stop_desc":null,"zone_id":"ZON_000003_011","location_type":0,"parent_station":null,"wheelchair_boarding":null}},{"type":"Feature","id":"F010:STP_000003_012","geometry":{"type":"Point","coordinates":[139.481025,35.712262]},"properties":{"id":"F010:STP_000003_012","feed_id":"F010","feed_slug":"kokubunji-bunbus","municipality":"国分寺市","service_name":"ぶんバス","license":"CC BY 4.0","source_stop_id":"STP_000003_012","stop_code":null,"stop_name":"本多三丁目北","stop_desc":null,"zone_id":"ZON_000003_012","location_type":0,"parent_station":null,"wheelchair_boarding":null}},{"type":"Feature","id":"F010:STP_000003_013","geometry":{"type":"Point","coordinates":[139.480375,35.712092]},"properties":{"id":"F010:STP_000003_013","feed_id":"F010","feed_slug":"kokubunji-bunbus","municipality":"国分寺市","service_name":"ぶんバス","license":"CC BY 4.0","source_stop_id":"STP_000003_013","stop_code":null,"stop_name":"ほんだ保育園東","stop_desc":null,"zone_id":"ZON_000003_013","location_type":0,"parent_station":null,"wheelchair_boarding":null}},{"type":"Feature","id":"F010:STP_000003_014","geometry":{"type":"Point","coordinates":[139.479595,35.709464]},"properties":{"id":"F010:STP_000003_014","feed_id":"F010","feed_slug":"kokubunji-bunbus","municipality":"国分寺市","service_name":"ぶんバス","license":"CC BY 4.0","source_stop_id":"STP_000003_014","stop_code":null,"stop_name":"もくれん公園","stop_desc":null,"zone_id":"ZON_000003_014","location_type":0,"parent_station":null,"wheelchair_boarding":null}},{"type":"Feature","id":"F010:STP_000003_015","geometry":{"type":"Point","coordinates":[139.479408,35.707769]},"properties":{"id":"F010:STP_000003_015","feed_id":"F010","feed_slug":"kokubunji-bunbus","municipality":"国分寺市","service_name":"ぶんバス","license":"CC BY 4.0","source_stop_id":"STP_000003_015","stop_code":null,"stop_name":"連雀通り北","stop_desc":null,"zone_id":"ZON_000003_015","location_type":0,"parent_station":null,"wheelchair_boarding":null}},{"type":"Feature","id":"F010:STP_000003_016","geometry":{"type":"Point","coordinates":[139.479822,35.705126]},"properties":{"id":"F010:STP_000003_016","feed_id":"F010","feed_slug":"kokubunji-bunbus","municipality":"国分寺市","service_name":"ぶんバス","license":"CC BY 4.0","source_stop_id":"STP_000003_016","stop_code":null,"stop_name":"商工会館","stop_desc":null,"zone_id":"ZON_000003_016","location_type":0,"parent_station":null,"wheelchair_boarding":null}},{"type":"Feature","id":"F010:STP_000003_017","geometry":{"type":"Point","coordinates":[139.481578,35.704689]},"properties":{"id":"F010:STP_000003_017","feed_id":"F010","feed_slug":"kokubunji-bunbus","municipality":"国分寺市","service_name":"ぶんバス","license":"CC BY 4.0","source_stop_id":"STP_000003_017","stop_code":null,"stop_name":"本多一丁目西","stop_desc":null,"zone_id":"ZON_000003_017","location_type":0,"parent_station":null,"wheelchair_boarding":null}},{"type":"Feature","id":"F010:STP_000003_018","geometry":{"type":"Point","coordinates":[139.48113,35.70339]},"properties":{"id":"F010:STP_000003_018","feed_id":"F010","feed_slug":"kokubunji-bunbus","municipality":"国分寺市","service_name":"ぶんバス","license":"CC BY 4.0","source_stop_id":"STP_000003_018","stop_code":null,"stop_name":"本町","stop_desc":null,"zone_id":"ZON_000003_018","location_type":0,"parent_station":null,"wheelchair_boarding":null}},{"type":"Feature","id":"F010:STP_000004_001","geometry":{"type":"Point","coordinates":[139.447014,35.699603]},"properties":{"id":"F010:STP_000004_001","feed_id":"F010","feed_slug":"kokubunji-bunbus","municipality":"国分寺市","service_name":"ぶんバス","license":"CC BY 4.0","source_stop_id":"STP_000004_001","stop_code":null,"stop_name":"国立駅北口","stop_desc":null,"zone_id":"ZON_000004_001","location_type":0,"parent_station":null,"wheelchair_boarding":null}},{"type":"Feature","id":"F010:STP_000004_002","geometry":{"type":"Point","coordinates":[139.447281,35.700696]},"properties":{"id":"F010:STP_000004_002","feed_id":"F010","feed_slug":"kokubunji-bunbus","municipality":"国分寺市","service_name":"ぶんバス","license":"CC BY 4.0","source_stop_id":"STP_000004_002","stop_code":null,"stop_name":"駅入口","stop_desc":null,"zone_id":"ZON_000004_002","location_type":0,"parent_station":null,"wheelchair_boarding":null}},{"type":"Feature","id":"F010:STP_000004_003","geometry":{"type":"Point","coordinates":[139.446413,35.701548]},"properties":{"id":"F010:STP_000004_003","feed_id":"F010","feed_slug":"kokubunji-bunbus","municipality":"国分寺市","service_name":"ぶんバス","license":"CC BY 4.0","source_stop_id":"STP_000004_003","stop_code":null,"stop_name":"光町通り","stop_desc":null,"zone_id":"ZON_000004_003","location_type":0,"parent_station":null,"wheelchair_boarding":null}},{"type":"Feature","id":"F010:STP_000004_004","geometry":{"type":"Point","coordinates":[139.44615,35.702652]},"properties":{"id":"F010:STP_000004_004","feed_id":"F010","feed_slug":"kokubunji-bunbus","municipality":"国分寺市","service_name":"ぶんバス","license":"CC BY 4.0","source_stop_id":"STP_000004_004","stop_code":null,"stop_name":"光町交番","stop_desc":null,"zone_id":"ZON_000004_004","location_type":0,"parent_station":null,"wheelchair_boarding":null}},{"type":"Feature","id":"F010:STP_000004_005","geometry":{"type":"Point","coordinates":[139.444663,35.702831]},"properties":{"id":"F010:STP_000004_005","feed_id":"F010","feed_slug":"kokubunji-bunbus","municipality":"国分寺市","service_name":"ぶんバス","license":"CC BY 4.0","source_stop_id":"STP_000004_005","stop_code":null,"stop_name":"ひかりプラザ","stop_desc":null,"zone_id":"ZON_000004_005","location_type":0,"parent_station":null,"wheelchair_boarding":null}},{"type":"Feature","id":"F010:STP_000004_006","geometry":{"type":"Point","coordinates":[139.444142,35.704425]},"properties":{"id":"F010:STP_000004_006","feed_id":"F010","feed_slug":"kokubunji-bunbus","municipality":"国分寺市","service_name":"ぶんバス","license":"CC BY 4.0","source_stop_id":"STP_000004_006","stop_code":null,"stop_name":"光町二丁目","stop_desc":null,"zone_id":"ZON_000004_006","location_type":0,"parent_station":null,"wheelchair_boarding":null}},{"type":"Feature","id":"F010:STP_000004_007","geometry":{"type":"Point","coordinates":[139.442829,35.705947]},"properties":{"id":"F010:STP_000004_007","feed_id":"F010","feed_slug":"kokubunji-bunbus","municipality":"国分寺市","service_name":"ぶんバス","license":"CC BY 4.0","source_stop_id":"STP_000004_007","stop_code":null,"stop_name":"稲荷神社","stop_desc":null,"zone_id":"ZON_000004_007","location_type":0,"parent_station":null,"wheelchair_boarding":null}},{"type":"Feature","id":"F010:STP_000004_008","geometry":{"type":"Point","coordinates":[139.443263,35.707608]},"properties":{"id":"F010:STP_000004_008","feed_id":"F010","feed_slug":"kokubunji-bunbus","municipality":"国分寺市","service_name":"ぶんバス","license":"CC BY 4.0","source_stop_id":"STP_000004_008","stop_code":null,"stop_name":"光公民館","stop_desc":null,"zone_id":"ZON_000004_008","location_type":0,"parent_station":null,"wheelchair_boarding":null}},{"type":"Feature","id":"F010:STP_000004_009","geometry":{"type":"Point","coordinates":[139.440528,35.706581]},"properties":{"id":"F010:STP_000004_009","feed_id":"F010","feed_slug":"kokubunji-bunbus","municipality":"国分寺市","service_name":"ぶんバス","license":"CC BY 4.0","source_stop_id":"STP_000004_009","stop_code":null,"stop_name":"ひかり保育園","stop_desc":null,"zone_id":"ZON_000004_009","location_type":0,"parent_station":null,"wheelchair_boarding":null}},{"type":"Feature","id":"F010:STP_000004_010","geometry":{"type":"Point","coordinates":[139.437981,35.706402]},"properties":{"id":"F010:STP_000004_010","feed_id":"F010","feed_slug":"kokubunji-bunbus","municipality":"国分寺市","service_name":"ぶんバス","license":"CC BY 4.0","source_stop_id":"STP_000004_010","stop_code":null,"stop_name":"西町カエデ公園","stop_desc":null,"zone_id":"ZON_000004_010","location_type":0,"parent_station":null,"wheelchair_boarding":null}},{"type":"Feature","id":"F010:STP_000004_011","geometry":{"type":"Point","coordinates":[139.438314,35.705735]},"properties":{"id":"F010:STP_000004_011","feed_id":"F010","feed_slug":"kokubunji-bunbus","municipality":"国分寺市","service_name":"ぶんバス","license":"CC BY 4.0","source_stop_id":"STP_000004_011","stop_code":null,"stop_name":"西町二丁目","stop_desc":null,"zone_id":"ZON_000004_011","location_type":0,"parent_station":null,"wheelchair_boarding":null}},{"type":"Feature","id":"F010:STP_000004_012","geometry":{"type":"Point","coordinates":[139.438141,35.704718]},"properties":{"id":"F010:STP_000004_012","feed_id":"F010","feed_slug":"kokubunji-bunbus","municipality":"国分寺市","service_name":"ぶんバス","license":"CC BY 4.0","source_stop_id":"STP_000004_012","stop_code":null,"stop_name":"弁天八幡宮","stop_desc":null,"zone_id":"ZON_000004_012","location_type":0,"parent_station":null,"wheelchair_boarding":null}},{"type":"Feature","id":"F010:STP_000004_013","geometry":{"type":"Point","coordinates":[139.436537,35.703984]},"properties":{"id":"F010:STP_000004_013","feed_id":"F010","feed_slug":"kokubunji-bunbus","municipality":"国分寺市","service_name":"ぶんバス","license":"CC BY 4.0","source_stop_id":"STP_000004_013","stop_code":null,"stop_name":"戸倉通り","stop_desc":null,"zone_id":"ZON_000004_013","location_type":0,"parent_station":null,"wheelchair_boarding":null}},{"type":"Feature","id":"F010:STP_000004_014","geometry":{"type":"Point","coordinates":[139.433871,35.703327]},"properties":{"id":"F010:STP_000004_014","feed_id":"F010","feed_slug":"kokubunji-bunbus","municipality":"国分寺市","service_name":"ぶんバス","license":"CC BY 4.0","source_stop_id":"STP_000004_014","stop_code":null,"stop_name":"上谷保","stop_desc":null,"zone_id":"ZON_000004_014","location_type":0,"parent_station":null,"wheelchair_boarding":null}},{"type":"Feature","id":"F010:STP_000004_015","geometry":{"type":"Point","coordinates":[139.433427,35.702799]},"properties":{"id":"F010:STP_000004_015","feed_id":"F010","feed_slug":"kokubunji-bunbus","municipality":"国分寺市","service_name":"ぶんバス","license":"CC BY 4.0","source_stop_id":"STP_000004_015","stop_code":null,"stop_name":"西町一丁目北","stop_desc":null,"zone_id":"ZON_000004_015","location_type":0,"parent_station":null,"wheelchair_boarding":null}},{"type":"Feature","id":"F010:STP_000004_016","geometry":{"type":"Point","coordinates":[139.436284,35.703599]},"properties":{"id":"F010:STP_000004_016","feed_id":"F010","feed_slug":"kokubunji-bunbus","municipality":"国分寺市","service_name":"ぶんバス","license":"CC BY 4.0","source_stop_id":"STP_000004_016","stop_code":null,"stop_name":"西町一丁目","stop_desc":null,"zone_id":"ZON_000004_016","location_type":0,"parent_station":null,"wheelchair_boarding":null}},{"type":"Feature","id":"F010:STP_000004_017","geometry":{"type":"Point","coordinates":[139.438219,35.702003]},"properties":{"id":"F010:STP_000004_017","feed_id":"F010","feed_slug":"kokubunji-bunbus","municipality":"国分寺市","service_name":"ぶんバス","license":"CC BY 4.0","source_stop_id":"STP_000004_017","stop_code":null,"stop_name":"都営住宅","stop_desc":null,"zone_id":"ZON_000004_017","location_type":0,"parent_station":null,"wheelchair_boarding":null}},{"type":"Feature","id":"F010:STP_000004_018","geometry":{"type":"Point","coordinates":[139.439533,35.701286]},"properties":{"id":"F010:STP_000004_018","feed_id":"F010","feed_slug":"kokubunji-bunbus","municipality":"国分寺市","service_name":"ぶんバス","license":"CC BY 4.0","source_stop_id":"STP_000004_018","stop_code":null,"stop_name":"弁天通り","stop_desc":null,"zone_id":"ZON_000004_018","location_type":0,"parent_station":null,"wheelchair_boarding":null}},{"type":"Feature","id":"F010:STP_000004_019","geometry":{"type":"Point","coordinates":[139.440919,35.700578]},"properties":{"id":"F010:STP_000004_019","feed_id":"F010","feed_slug":"kokubunji-bunbus","municipality":"国分寺市","service_name":"ぶんバス","license":"CC BY 4.0","source_stop_id":"STP_000004_019","stop_code":null,"stop_name":"北大通り東","stop_desc":null,"zone_id":"ZON_000004_019","location_type":0,"parent_station":null,"wheelchair_boarding":null}},{"type":"Feature","id":"F010:STP_000005_002","geometry":{"type":"Point","coordinates":[139.466417,35.7]},"properties":{"id":"F010:STP_000005_002","feed_id":"F010","feed_slug":"kokubunji-bunbus","municipality":"国分寺市","service_name":"ぶんバス","license":"CC BY 4.0","source_stop_id":"STP_000005_002","stop_code":null,"stop_name":"西国分寺駅北","stop_desc":null,"zone_id":"ZON_000005_002","location_type":0,"parent_station":null,"wheelchair_boarding":null}},{"type":"Feature","id":"F010:STP_000005_003","geometry":{"type":"Point","coordinates":[139.466389,35.70375]},"properties":{"id":"F010:STP_000005_003","feed_id":"F010","feed_slug":"kokubunji-bunbus","municipality":"国分寺市","service_name":"ぶんバス","license":"CC BY 4.0","source_stop_id":"STP_000005_003","stop_code":null,"stop_name":"西恋ヶ窪一丁目北","stop_desc":null,"zone_id":"ZON_000005_003","location_type":0,"parent_station":null,"wheelchair_boarding":null}},{"type":"Feature","id":"F010:STP_000005_004","geometry":{"type":"Point","coordinates":[139.468306,35.708778]},"properties":{"id":"F010:STP_000005_004","feed_id":"F010","feed_slug":"kokubunji-bunbus","municipality":"国分寺市","service_name":"ぶんバス","license":"CC BY 4.0","source_stop_id":"STP_000005_004","stop_code":null,"stop_name":"東恋ヶ窪五丁目","stop_desc":null,"zone_id":"ZON_000005_004","location_type":0,"parent_station":null,"wheelchair_boarding":null}},{"type":"Feature","id":"F010:STP_000005_005","geometry":{"type":"Point","coordinates":[139.466583,35.713306]},"properties":{"id":"F010:STP_000005_005","feed_id":"F010","feed_slug":"kokubunji-bunbus","municipality":"国分寺市","service_name":"ぶんバス","license":"CC BY 4.0","source_stop_id":"STP_000005_005","stop_code":null,"stop_name":"恋ヶ窪交差点北","stop_desc":null,"zone_id":"ZON_000005_005","location_type":0,"parent_station":null,"wheelchair_boarding":null}},{"type":"Feature","id":"F010:STP_000005_006","geometry":{"type":"Point","coordinates":[139.463117,35.717131]},"properties":{"id":"F010:STP_000005_006","feed_id":"F010","feed_slug":"kokubunji-bunbus","municipality":"国分寺市","service_name":"ぶんバス","license":"CC BY 4.0","source_stop_id":"STP_000005_006","stop_code":null,"stop_name":"二ツ塚","stop_desc":null,"zone_id":"ZON_000005_006","location_type":0,"parent_station":null,"wheelchair_boarding":null}},{"type":"Feature","id":"F010:STP_000005_007","geometry":{"type":"Point","coordinates":[139.460818,35.716998]},"properties":{"id":"F010:STP_000005_007","feed_id":"F010","feed_slug":"kokubunji-bunbus","municipality":"国分寺市","service_name":"ぶんバス","license":"CC BY 4.0","source_stop_id":"STP_000005_007","stop_code":null,"stop_name":"西武線踏切","stop_desc":null,"zone_id":"ZON_000005_007","location_type":0,"parent_station":null,"wheelchair_boarding":null}},{"type":"Feature","id":"F010:STP_000005_008","geometry":{"type":"Point","coordinates":[139.456117,35.717484]},"properties":{"id":"F010:STP_000005_008","feed_id":"F010","feed_slug":"kokubunji-bunbus","municipality":"国分寺市","service_name":"ぶんバス","license":"CC BY 4.0","source_stop_id":"STP_000005_008","stop_code":null,"stop_name":"並木町二丁目","stop_desc":null,"zone_id":"ZON_000005_008","location_type":0,"parent_station":null,"wheelchair_boarding":null}},{"type":"Feature","id":"F010:STP_000005_009","geometry":{"type":"Point","coordinates":[139.455475,35.719159]},"properties":{"id":"F010:STP_000005_009","feed_id":"F010","feed_slug":"kokubunji-bunbus","municipality":"国分寺市","service_name":"ぶんバス","license":"CC BY 4.0","source_stop_id":"STP_000005_009","stop_code":null,"stop_name":"北町二丁目","stop_desc":null,"zone_id":"ZON_000005_009","location_type":0,"parent_station":null,"wheelchair_boarding":null}},{"type":"Feature","id":"F010:STP_000005_010","geometry":{"type":"Point","coordinates":[139.45145,35.719766]},"properties":{"id":"F010:STP_000005_010","feed_id":"F010","feed_slug":"kokubunji-bunbus","municipality":"国分寺市","service_name":"ぶんバス","license":"CC BY 4.0","source_stop_id":"STP_000005_010","stop_code":null,"stop_name":"北町公園","stop_desc":null,"zone_id":"ZON_000005_010","location_type":0,"parent_station":null,"wheelchair_boarding":null}},{"type":"Feature","id":"F010:STP_000005_011","geometry":{"type":"Point","coordinates":[139.449169,35.720142]},"properties":{"id":"F010:STP_000005_011","feed_id":"F010","feed_slug":"kokubunji-bunbus","municipality":"国分寺市","service_name":"ぶんバス","license":"CC BY 4.0","source_stop_id":"STP_000005_011","stop_code":null,"stop_name":"北町三丁目北","stop_desc":null,"zone_id":"ZON_000005_011","location_type":0,"parent_station":null,"wheelchair_boarding":null}},{"type":"Feature","id":"F010:STP_000005_012","geometry":{"type":"Point","coordinates":[139.447046,35.721926]},"properties":{"id":"F010:STP_000005_012","feed_id":"F010","feed_slug":"kokubunji-bunbus","municipality":"国分寺市","service_name":"ぶんバス","license":"CC BY 4.0","source_stop_id":"STP_000005_012","stop_code":null,"stop_name":"北町パンダ公園","stop_desc":null,"zone_id":"ZON_000005_012","location_type":0,"parent_station":null,"wheelchair_boarding":null}},{"type":"Feature","id":"F010:STP_000005_013","geometry":{"type":"Point","coordinates":[139.450335,35.718388]},"properties":{"id":"F010:STP_000005_013","feed_id":"F010","feed_slug":"kokubunji-bunbus","municipality":"国分寺市","service_name":"ぶんバス","license":"CC BY 4.0","source_stop_id":"STP_000005_013","stop_code":null,"stop_name":"北町地域センター","stop_desc":null,"zone_id":"ZON_000005_013","location_type":0,"parent_station":null,"wheelchair_boarding":null}},{"type":"Feature","id":"F010:STP_000005_014","geometry":{"type":"Point","coordinates":[139.453172,35.716352]},"properties":{"id":"F010:STP_000005_014","feed_id":"F010","feed_slug":"kokubunji-bunbus","municipality":"国分寺市","service_name":"ぶんバス","license":"CC BY 4.0","source_stop_id":"STP_000005_014","stop_code":null,"stop_name":"並木公民館","stop_desc":null,"zone_id":"ZON_000005_014","location_type":0,"parent_station":null,"wheelchair_boarding":null}},{"type":"Feature","id":"F010:STP_000005_015","geometry":{"type":"Point","coordinates":[139.456363,35.716756]},"properties":{"id":"F010:STP_000005_015","feed_id":"F010","feed_slug":"kokubunji-bunbus","municipality":"国分寺市","service_name":"ぶんバス","license":"CC BY 4.0","source_stop_id":"STP_000005_015","stop_code":null,"stop_name":"並木町二丁目","stop_desc":null,"zone_id":"ZON_000005_015","location_type":0,"parent_station":null,"wheelchair_boarding":null}},{"type":"Feature","id":"F010:STP_000005_016","geometry":{"type":"Point","coordinates":[139.460855,35.717041]},"properties":{"id":"F010:STP_000005_016","feed_id":"F010","feed_slug":"kokubunji-bunbus","municipality":"国分寺市","service_name":"ぶんバス","license":"CC BY 4.0","source_stop_id":"STP_000005_016","stop_code":null,"stop_name":"西武線踏切","stop_desc":null,"zone_id":"ZON_000005_016","location_type":0,"parent_station":null,"wheelchair_boarding":null}},{"type":"Feature","id":"F010:STP_000005_017","geometry":{"type":"Point","coordinates":[139.465736,35.716114]},"properties":{"id":"F010:STP_000005_017","feed_id":"F010","feed_slug":"kokubunji-bunbus","municipality":"国分寺市","service_name":"ぶんバス","license":"CC BY 4.0","source_stop_id":"STP_000005_017","stop_code":null,"stop_name":"二ツ塚","stop_desc":null,"zone_id":"ZON_000005_017","location_type":0,"parent_station":null,"wheelchair_boarding":null}},{"type":"Feature","id":"F010:STP_000005_018","geometry":{"type":"Point","coordinates":[139.468083,35.711722]},"properties":{"id":"F010:STP_000005_018","feed_id":"F010","feed_slug":"kokubunji-bunbus","municipality":"国分寺市","service_name":"ぶんバス","license":"CC BY 4.0","source_stop_id":"STP_000005_018","stop_code":null,"stop_name":"恋ヶ窪交差点南","stop_desc":null,"zone_id":"ZON_000005_018","location_type":0,"parent_station":null,"wheelchair_boarding":null}},{"type":"Feature","id":"F010:STP_000005_019","geometry":{"type":"Point","coordinates":[139.468444,35.708861]},"properties":{"id":"F010:STP_000005_019","feed_id":"F010","feed_slug":"kokubunji-bunbus","municipality":"国分寺市","service_name":"ぶんバス","license":"CC BY 4.0","source_stop_id":"STP_000005_019","stop_code":null,"stop_name":"東恋ヶ窪五丁目","stop_desc":null,"zone_id":"ZON_000005_019","location_type":0,"parent_station":null,"wheelchair_boarding":null}},{"type":"Feature","id":"F010:STP_000005_023","geometry":{"type":"Point","coordinates":[139.468352,35.699681]},"properties":{"id":"F010:STP_000005_023","feed_id":"F010","feed_slug":"kokubunji-bunbus","municipality":"国分寺市","service_name":"ぶんバス","license":"CC BY 4.0","source_stop_id":"STP_000005_023","stop_code":null,"stop_name":"西国分寺駅東","stop_desc":null,"zone_id":"ZON_000005_023","location_type":0,"parent_station":null,"wheelchair_boarding":null}},{"type":"Feature","id":"F010:STP_000006_001","geometry":{"type":"Point","coordinates":[139.472424,35.690035]},"properties":{"id":"F010:STP_000006_001","feed_id":"F010","feed_slug":"kokubunji-bunbus","municipality":"国分寺市","service_name":"ぶんバス","license":"CC BY 4.0","source_stop_id":"STP_000006_001","stop_code":null,"stop_name":"史跡武蔵国分寺跡(南門跡前)","stop_desc":null,"zone_id":"ZON_000006_001","location_type":0,"parent_station":null,"wheelchair_boarding":null}},{"type":"Feature","id":"F010:STP_000006_002","geometry":{"type":"Point","coordinates":[139.468829,35.690054]},"properties":{"id":"F010:STP_000006_002","feed_id":"F010","feed_slug":"kokubunji-bunbus","municipality":"国分寺市","service_name":"ぶんバス","license":"CC BY 4.0","source_stop_id":"STP_000006_002","stop_code":null,"stop_name":"黒鐘公園入口(国分尼寺跡入口)","stop_desc":null,"zone_id":"ZON_000006_002","location_type":0,"parent_station":null,"wheelchair_boarding":null}},{"type":"Feature","id":"F010:STP_000006_003","geometry":{"type":"Point","coordinates":[139.467551,35.693624]},"properties":{"id":"F010:STP_000006_003","feed_id":"F010","feed_slug":"kokubunji-bunbus","municipality":"国分寺市","service_name":"ぶんバス","license":"CC BY 4.0","source_stop_id":"STP_000006_003","stop_code":null,"stop_name":"西元町二丁目","stop_desc":null,"zone_id":"ZON_000006_003","location_type":0,"parent_station":null,"wheelchair_boarding":null}},{"type":"Feature","id":"F010:STP_000006_004","geometry":{"type":"Point","coordinates":[139.469167,35.696244]},"properties":{"id":"F010:STP_000006_004","feed_id":"F010","feed_slug":"kokubunji-bunbus","municipality":"国分寺市","service_name":"ぶんバス","license":"CC BY 4.0","source_stop_id":"STP_000006_004","stop_code":null,"stop_name":"国分寺市役所","stop_desc":null,"zone_id":"ZON_000006_004","location_type":0,"parent_station":null,"wheelchair_boarding":null}},{"type":"Feature","id":"F010:STP_000006_006","geometry":{"type":"Point","coordinates":[139.470834,35.699823]},"properties":{"id":"F010:STP_000006_006","feed_id":"F010","feed_slug":"kokubunji-bunbus","municipality":"国分寺市","service_name":"ぶんバス","license":"CC BY 4.0","source_stop_id":"STP_000006_006","stop_code":null,"stop_name":"郵政宿舎前","stop_desc":null,"zone_id":"ZON_000006_006","location_type":0,"parent_station":null,"wheelchair_boarding":null}},{"type":"Feature","id":"F010:STP_000006_007","geometry":{"type":"Point","coordinates":[139.473262,35.698567]},"properties":{"id":"F010:STP_000006_007","feed_id":"F010","feed_slug":"kokubunji-bunbus","municipality":"国分寺市","service_name":"ぶんバス","license":"CC BY 4.0","source_stop_id":"STP_000006_007","stop_code":null,"stop_name":"武蔵国分寺公園東","stop_desc":null,"zone_id":"ZON_000006_007","location_type":0,"parent_station":null,"wheelchair_boarding":null}},{"type":"Feature","id":"F010:STP_000006_008","geometry":{"type":"Point","coordinates":[139.478231,35.699684]},"properties":{"id":"F010:STP_000006_008","feed_id":"F010","feed_slug":"kokubunji-bunbus","municipality":"国分寺市","service_name":"ぶんバス","license":"CC BY 4.0","source_stop_id":"STP_000006_008","stop_code":null,"stop_name":"国分寺駅西(本町・南町地域センター","stop_desc":null,"zone_id":"ZON_000006_008","location_type":0,"parent_station":null,"wheelchair_boarding":null}},{"type":"Feature","id":"F010:STP_000006_009","geometry":{"type":"Point","coordinates":[139.477045,35.703018]},"properties":{"id":"F010:STP_000006_009","feed_id":"F010","feed_slug":"kokubunji-bunbus","municipality":"国分寺市","service_name":"ぶんバス","license":"CC BY 4.0","source_stop_id":"STP_000006_009","stop_code":null,"stop_name":"本町四丁目","stop_desc":null,"zone_id":"ZON_000006_009","location_type":0,"parent_station":null,"wheelchair_boarding":null}},{"type":"Feature","id":"F010:STP_000006_010","geometry":{"type":"Point","coordinates":[139.473273,35.705321]},"properties":{"id":"F010:STP_000006_010","feed_id":"F010","feed_slug":"kokubunji-bunbus","municipality":"国分寺市","service_name":"ぶんバス","license":"CC BY 4.0","source_stop_id":"STP_000006_010","stop_code":null,"stop_name":"東恋ヶ窪三丁目","stop_desc":null,"zone_id":"ZON_000006_010","location_type":0,"parent_station":null,"wheelchair_boarding":null}},{"type":"Feature","id":"F010:STP_000006_011","geometry":{"type":"Point","coordinates":[139.477237,35.702711]},"properties":{"id":"F010:STP_000006_011","feed_id":"F010","feed_slug":"kokubunji-bunbus","municipality":"国分寺市","service_name":"ぶんバス","license":"CC BY 4.0","source_stop_id":"STP_000006_011","stop_code":null,"stop_name":"本町四丁目","stop_desc":null,"zone_id":"ZON_000006_011","location_type":0,"parent_station":null,"wheelchair_boarding":null}},{"type":"Feature","id":"F010:STP_000006_013","geometry":{"type":"Point","coordinates":[139.473228,35.698204]},"properties":{"id":"F010:STP_000006_013","feed_id":"F010","feed_slug":"kokubunji-bunbus","municipality":"国分寺市","service_name":"ぶんバス","license":"CC BY 4.0","source_stop_id":"STP_000006_013","stop_code":null,"stop_name":"武蔵国分寺公園東","stop_desc":null,"zone_id":"ZON_000006_013","location_type":0,"parent_station":null,"wheelchair_boarding":null}},{"type":"Feature","id":"F010:STP_000006_017","geometry":{"type":"Point","coordinates":[139.467298,35.694687]},"properties":{"id":"F010:STP_000006_017","feed_id":"F010","feed_slug":"kokubunji-bunbus","municipality":"国分寺市","service_name":"ぶんバス","license":"CC BY 4.0","source_stop_id":"STP_000006_017","stop_code":null,"stop_name":"西元町二丁目","stop_desc":null,"zone_id":"ZON_000006_017","location_type":0,"parent_station":null,"wheelchair_boarding":null}},{"type":"Feature","id":"F010:STP_000006_018","geometry":{"type":"Point","coordinates":[139.468729,35.690687]},"properties":{"id":"F010:STP_000006_018","feed_id":"F010","feed_slug":"kokubunji-bunbus","municipality":"国分寺市","service_name":"ぶんバス","license":"CC BY 4.0","source_stop_id":"STP_000006_018","stop_code":null,"stop_name":"黒鐘公園入口(国分尼寺跡入口)","stop_desc":null,"zone_id":"ZON_000006_018","location_type":0,"parent_station":null,"wheelchair_boarding":null}}]}
