{"type":"FeatureCollection","name":"higashiyamato-chokobus_routes","features":[{"type":"Feature","id":"F026:1:101","geometry":{"type":"LineString","coordinates":[[139.444369,35.746564],[139.444327,35.748097],[139.444282,35.749568],[139.444248,35.751308],[139.4442817,35.7527498],[139.4442243,35.7530902],[139.4440259,35.7537736],[139.44379,35.754505],[139.4436164,35.7551592],[139.4434643,35.7555087],[139.4426953,35.7550834],[139.442047,35.7551281],[139.4418179,35.7551427],[139.4418007,35.7554186],[139.4418576,35.7557351],[139.4408006,35.7561331],[139.4400899,35.7566403],[139.4401657,35.7568548],[139.4397829,35.7571606],[139.4390521,35.7577478],[139.4378727,35.7582591],[139.437455,35.758335],[139.437253,35.7583964],[139.4369705,35.7584055],[139.4366469,35.7584324],[139.4361928,35.7586039],[139.435762,35.758864],[139.4355219,35.7589912],[139.4348526,35.7589313],[139.4338949,35.7587548],[139.4334039,35.7587992],[139.4330416,35.7587783],[139.432771,35.7587574],[139.4320711,35.7586103],[139.4316583,35.7585568],[139.4313446,35.7584387],[139.430988,35.758142],[139.4303104,35.7577616],[139.4301425,35.7576206],[139.4300352,35.757415],[139.429901,35.757044],[139.4297238,35.7566764],[139.4296164,35.7565406],[139.4293936,35.7563678],[139.4290948,35.7562297],[139.4283266,35.7560373],[139.4278704,35.7559335],[139.4276341,35.7557557],[139.4274028,35.7554654],[139.4273803,35.7551417],[139.4275015,35.7545944],[139.4274781,35.7543694],[139.4273636,35.7541879],[139.4270487,35.7538555],[139.4267649,35.7532842],[139.4265976,35.752701],[139.4264013,35.7527213],[139.4257089,35.7527023],[139.4248175,35.7527281],[139.4236208,35.753098],[139.4232234,35.7531762],[139.4230768,35.7528011],[139.4227249,35.7518601],[139.4226402,35.7514005],[139.4226622,35.7508551],[139.4228002,35.7503145],[139.4229192,35.7496305],[139.4224075,35.7497783],[139.4220443,35.7498305],[139.421488,35.749974],[139.4207306,35.7502499],[139.4202093,35.7504996],[139.4195931,35.7487787],[139.419283,35.7478931],[139.4193532,35.7477463],[139.4192089,35.7475038],[139.419286,35.7464727],[139.4159212,35.7470488],[139.4159359,35.746519],[139.4162437,35.7465023],[139.4164013,35.7463637]]},"properties":{"id":"F026:1:101","feed_id":"F026","feed_slug":"higashiyamato-chokobus","municipality":"東大和市","service_name":"ちょこバス","license":"CC0 1.0","source_route_id":"1","route_short_name":null,"route_long_name":"ちょこバス循環ルート内回り","route_desc":null,"route_type":3,"route_url":null,"route_color":"00B0F0","route_text_color":"FFFFFF","directions":["0"],"geometry_source":"shapes.txt"}},{"type":"Feature","id":"F026:1:102","geometry":{"type":"LineString","coordinates":[[139.4163846,35.7463643],[139.4162749,35.7460976],[139.41594,35.7460834],[139.415946,35.744148],[139.4159684,35.7434037],[139.4160981,35.7427204],[139.416733,35.742721],[139.418893,35.742698],[139.421805,35.74263],[139.423519,35.742639],[139.4243544,35.7425933],[139.424117,35.743671],[139.4240452,35.7440179],[139.4261604,35.7443394],[139.4255967,35.7455418],[139.4259082,35.745565],[139.427191,35.7456632],[139.4273616,35.7444364],[139.4280739,35.7445113],[139.4291618,35.744743],[139.429372,35.744381],[139.430223,35.742914],[139.431213,35.741254],[139.432243,35.73942],[139.4326732,35.7386308],[139.4334167,35.7389634],[139.434069,35.739174],[139.4345747,35.7392396],[139.434485,35.740777],[139.4345287,35.742528],[139.43601,35.742581],[139.436812,35.7425748],[139.4368523,35.7443102],[139.437641,35.744324],[139.4378336,35.744314],[139.437919,35.745706],[139.4380551,35.7469388],[139.4391612,35.7468891],[139.4394782,35.7467466],[139.440616,35.746491],[139.4421819,35.7461241],[139.443957,35.746014],[139.4444259,35.7459363],[139.444369,35.746564],[139.444327,35.748097],[139.444282,35.749568],[139.444248,35.751308],[139.4442817,35.7527498],[139.4442243,35.7530902],[139.4440259,35.7537736],[139.44379,35.754505],[139.4436164,35.7551592],[139.4434643,35.7555087],[139.4426953,35.7550834],[139.442047,35.7551281],[139.4418179,35.7551427],[139.4418007,35.7554186],[139.4418576,35.7557351],[139.4408006,35.7561331],[139.4400899,35.7566403],[139.4401657,35.7568548],[139.4397829,35.7571606],[139.4390521,35.7577478],[139.4378727,35.7582591],[139.437455,35.758335],[139.437253,35.7583964],[139.4369705,35.7584055],[139.4366469,35.7584324],[139.4361928,35.7586039],[139.435762,35.758864],[139.4355219,35.7589912],[139.4348526,35.7589313],[139.4338949,35.7587548],[139.4334039,35.7587992],[139.4330416,35.7587783],[139.432771,35.7587574],[139.4320711,35.7586103],[139.4316583,35.7585568],[139.4313446,35.7584387],[139.430988,35.758142],[139.4303104,35.7577616],[139.4301425,35.7576206],[139.4300352,35.757415],[139.429901,35.757044],[139.4297238,35.7566764],[139.4296164,35.7565406],[139.4293936,35.7563678],[139.4290948,35.7562297],[139.4283266,35.7560373],[139.4278704,35.7559335],[139.4276341,35.7557557],[139.4274028,35.7554654],[139.4273803,35.7551417],[139.4275015,35.7545944],[139.4274781,35.7543694],[139.4273636,35.7541879],[139.4270487,35.7538555],[139.4267649,35.7532842],[139.4265976,35.752701],[139.4264013,35.7527213],[139.4257089,35.7527023],[139.4248175,35.7527281],[139.4236208,35.753098],[139.4232234,35.7531762],[139.4230768,35.7528011],[139.4227249,35.7518601],[139.4226402,35.7514005],[139.4226622,35.7508551],[139.4228002,35.7503145],[139.4229192,35.7496305],[139.4224075,35.7497783],[139.4220443,35.7498305],[139.421488,35.749974],[139.4207306,35.7502499],[139.4202093,35.7504996],[139.4195931,35.7487787],[139.419283,35.7478931],[139.4193532,35.7477463],[139.4192089,35.7475038],[139.419286,35.7464727],[139.4159212,35.7470488],[139.4159359,35.746519],[139.4162437,35.7465023],[139.4164013,35.7463637]]},"properties":{"id":"F026:1:102","feed_id":"F026","feed_slug":"higashiyamato-chokobus","municipality":"東大和市","service_name":"ちょこバス","license":"CC0 1.0","source_route_id":"1","route_short_name":null,"route_long_name":"ちょこバス循環ルート内回り","route_desc":null,"route_type":3,"route_url":null,"route_color":"00B0F0","route_text_color":"FFFFFF","directions":["0"],"geometry_source":"shapes.txt"}},{"type":"Feature","id":"F026:2:201","geometry":{"type":"LineString","coordinates":[[139.4163873,35.7463692],[139.4162749,35.7460976],[139.4158134,35.7460955],[139.4158029,35.7471149],[139.4192365,35.7465415],[139.4191538,35.7475115],[139.4193048,35.7477474],[139.4192305,35.7478963],[139.4196773,35.7492325],[139.4201989,35.7505539],[139.420752,35.7502764],[139.4214001,35.7500603],[139.4220455,35.7498552],[139.4224252,35.7498035],[139.4228692,35.7496799],[139.4227166,35.7503297],[139.4226089,35.7508979],[139.4225846,35.7514563],[139.4226743,35.7518966],[139.4231859,35.7532313],[139.423837,35.753077],[139.4248443,35.7527559],[139.4261896,35.7527596],[139.4265771,35.7527547],[139.4267547,35.7533391],[139.4268546,35.7535666],[139.4270403,35.7538838],[139.427345,35.7542014],[139.4274518,35.7543732],[139.4274781,35.7546103],[139.4273536,35.7551433],[139.4273794,35.7554804],[139.4276318,35.7557784],[139.4278789,35.7559577],[139.4281246,35.7560126],[139.4290896,35.7562452],[139.4293897,35.7563832],[139.4295666,35.7565252],[139.4296939,35.756703],[139.4298779,35.7570667],[139.4300176,35.7574238],[139.4301357,35.7576475],[139.4303155,35.7577929],[139.430899,35.7581374],[139.4310145,35.7582338],[139.4313418,35.7584695],[139.4316663,35.7585808],[139.432074,35.7586321],[139.4328103,35.7587851],[139.433281,35.7588325],[139.4338924,35.7587763],[139.4348443,35.7589508],[139.4355348,35.759011],[139.4358311,35.7588914],[139.4360549,35.7587556],[139.4362361,35.7586175],[139.436652,35.7584479],[139.4372866,35.7584296],[139.4379092,35.7582694],[139.4391043,35.7577497],[139.4397496,35.7572386],[139.4402016,35.7568513],[139.4401191,35.7566414],[139.4408047,35.7561609],[139.441367,35.755946],[139.4418839,35.7557398],[139.441818,35.7554243],[139.441854,35.7551785],[139.4422237,35.7551625],[139.4427006,35.7551214],[139.4434941,35.7555591],[139.4437264,35.7550263],[139.444306,35.753085],[139.444411,35.751157],[139.444432,35.749973],[139.444458,35.748327],[139.444517,35.746669],[139.4445084,35.7458758],[139.4437032,35.7459838],[139.4421767,35.7460898],[139.440913,35.746335],[139.4394486,35.7467099],[139.4392059,35.7468189],[139.4380888,35.7468843],[139.4380272,35.7460682],[139.4378685,35.7442569],[139.4375623,35.7442611],[139.4368931,35.7442793],[139.4368401,35.7425251],[139.43624,35.7425168],[139.434584,35.7424709],[139.434634,35.74101],[139.4346176,35.739203],[139.4341079,35.7391398],[139.4337859,35.7390397],[139.433449,35.7389253],[139.4326399,35.7385736],[139.432363,35.739011],[139.431028,35.741361],[139.429984,35.743149],[139.429352,35.744234],[139.4291078,35.7446955],[139.4280965,35.7444908],[139.4273398,35.7444124],[139.4271679,35.7456293],[139.4256656,35.7455117],[139.4262031,35.7443226],[139.4241249,35.7440002],[139.424273,35.743373],[139.4244318,35.7425393],[139.4235257,35.7425349],[139.4217997,35.7425578],[139.4187456,35.7426018],[139.4159467,35.7426568],[139.415846,35.743121],[139.415757,35.744231],[139.4157921,35.7465208],[139.4162437,35.7465023],[139.4164013,35.7463637]]},"properties":{"id":"F026:2:201","feed_id":"F026","feed_slug":"higashiyamato-chokobus","municipality":"東大和市","service_name":"ちょこバス","license":"CC0 1.0","source_route_id":"2","route_short_name":null,"route_long_name":"ちょこバス循環ルート外回り","route_desc":null,"route_type":3,"route_url":null,"route_color":"CC0099","route_text_color":"FFFFFF","directions":["0"],"geometry_source":"shapes.txt"}},{"type":"Feature","id":"F026:2:202","geometry":{"type":"LineString","coordinates":[[139.4163873,35.7463692],[139.4162749,35.7460976],[139.4158134,35.7460955],[139.4158029,35.7471149],[139.4192365,35.7465415],[139.4191538,35.7475115],[139.4193048,35.7477474],[139.4192305,35.7478963],[139.4196773,35.7492325],[139.4201989,35.7505539],[139.420752,35.7502764],[139.4214001,35.7500603],[139.4220455,35.7498552],[139.4224252,35.7498035],[139.4228692,35.7496799],[139.4227166,35.7503297],[139.4226089,35.7508979],[139.4225846,35.7514563],[139.4226743,35.7518966],[139.4231859,35.7532313],[139.423837,35.753077],[139.4248443,35.7527559],[139.4261896,35.7527596],[139.4265771,35.7527547],[139.4267547,35.7533391],[139.4268546,35.7535666],[139.4270403,35.7538838],[139.427345,35.7542014],[139.4274518,35.7543732],[139.4274781,35.7546103],[139.4273536,35.7551433],[139.4273794,35.7554804],[139.4276318,35.7557784],[139.4278789,35.7559577],[139.4281246,35.7560126],[139.4290896,35.7562452],[139.4293897,35.7563832],[139.4295666,35.7565252],[139.4296939,35.756703],[139.4298779,35.7570667],[139.4300176,35.7574238],[139.4301357,35.7576475],[139.4303155,35.7577929],[139.430899,35.7581374],[139.4310145,35.7582338],[139.4313418,35.7584695],[139.4316663,35.7585808],[139.432074,35.7586321],[139.4328103,35.7587851],[139.433281,35.7588325],[139.4338924,35.7587763],[139.4348443,35.7589508],[139.4355348,35.759011],[139.4358311,35.7588914],[139.4360549,35.7587556],[139.4362361,35.7586175],[139.436652,35.7584479],[139.4372866,35.7584296],[139.4379092,35.7582694],[139.4391043,35.7577497],[139.4397496,35.7572386],[139.4402016,35.7568513],[139.4401191,35.7566414],[139.4408047,35.7561609],[139.441367,35.755946],[139.4418839,35.7557398],[139.441818,35.7554243],[139.441854,35.7551785],[139.4422237,35.7551625],[139.4427006,35.7551214],[139.4434941,35.7555591],[139.4437264,35.7550263],[139.444306,35.753085],[139.444411,35.751157],[139.444432,35.749973],[139.444458,35.748327],[139.444517,35.746669]]},"properties":{"id":"F026:2:202","feed_id":"F026","feed_slug":"higashiyamato-chokobus","municipality":"東大和市","service_name":"ちょこバス","license":"CC0 1.0","source_route_id":"2","route_short_name":null,"route_long_name":"ちょこバス循環ルート外回り","route_desc":null,"route_type":3,"route_url":null,"route_color":"CC0099","route_text_color":"FFFFFF","directions":["0"],"geometry_source":"shapes.txt"}},{"type":"Feature","id":"F026:3:301","geometry":{"type":"LineString","coordinates":[[139.434359,35.73361],[139.4341579,35.7340757],[139.4350471,35.7342726],[139.4346301,35.7351706],[139.4346115,35.7363566],[139.4345859,35.7385828],[139.4345747,35.7392396],[139.434485,35.740777],[139.4345354,35.7424718],[139.431909,35.742438],[139.4303886,35.7424561],[139.429984,35.743149],[139.429352,35.744234],[139.4291078,35.7446955],[139.4280965,35.7444908],[139.4273398,35.7444124],[139.4271679,35.7456293],[139.4258562,35.7455259],[139.425848,35.745479]]},"properties":{"id":"F026:3:301","feed_id":"F026","feed_slug":"higashiyamato-chokobus","municipality":"東大和市","service_name":"ちょこバス","license":"CC0 1.0","source_route_id":"3","route_short_name":null,"route_long_name":"ちょこバス往復ルート","route_desc":null,"route_type":3,"route_url":null,"route_color":"009999","route_text_color":"FFFFFF","directions":["0"],"geometry_source":"shapes.txt"}},{"type":"Feature","id":"F026:3:302","geometry":{"type":"LineString","coordinates":[[139.425848,35.745479],[139.4258426,35.7455253],[139.4256656,35.7455117],[139.4262031,35.7443226],[139.4241249,35.7440002],[139.424273,35.743373],[139.4244318,35.7425393],[139.424675,35.741556],[139.425399,35.738063],[139.4253428,35.7374476],[139.4251753,35.7369352],[139.4249681,35.7363568],[139.423967,35.736597],[139.4212986,35.7373411],[139.4207637,35.7357624],[139.4206686,35.7351764],[139.4206314,35.7347085],[139.4198915,35.7347065],[139.4191295,35.7347093],[139.4190757,35.7321691],[139.4183728,35.7322394],[139.41826,35.732375],[139.4183486,35.7325347],[139.4190488,35.7325464],[139.4190919,35.734747],[139.4199184,35.7347502],[139.4206097,35.7347458],[139.4206196,35.7351421],[139.4207347,35.7357989],[139.4212789,35.7374006],[139.423408,35.736868],[139.4249402,35.736421],[139.425304,35.7374429],[139.4253142,35.7380975],[139.425185,35.738456],[139.424589,35.741304],[139.4243544,35.7425933],[139.424117,35.743671],[139.4240452,35.7440179],[139.4261604,35.7443394],[139.4255967,35.7455418],[139.4259082,35.745565],[139.427191,35.7456632],[139.4273616,35.7444364],[139.4280739,35.7445113],[139.4291618,35.744743],[139.429372,35.744381],[139.430223,35.742914],[139.4304624,35.7425148],[139.4317854,35.7425096],[139.4345857,35.7425163],[139.434634,35.74101],[139.4346176,35.739203],[139.434624,35.738641],[139.4346751,35.7360855],[139.4346927,35.7351793],[139.435311,35.7338462],[139.4345131,35.7335235],[139.434359,35.73361],[139.4341579,35.7340757],[139.4350471,35.7342726],[139.4346301,35.7351706],[139.4346115,35.7363566],[139.4345859,35.7385828],[139.4345747,35.7392396],[139.434485,35.740777],[139.4345354,35.7424718],[139.431909,35.742438],[139.4303886,35.7424561],[139.429984,35.743149],[139.429352,35.744234],[139.4291078,35.7446955],[139.4280965,35.7444908],[139.4273398,35.7444124],[139.4271679,35.7456293],[139.4258562,35.7455259],[139.425848,35.745479]]},"properties":{"id":"F026:3:302","feed_id":"F026","feed_slug":"higashiyamato-chokobus","municipality":"東大和市","service_name":"ちょこバス","license":"CC0 1.0","source_route_id":"3","route_short_name":null,"route_long_name":"ちょこバス往復ルート","route_desc":null,"route_type":3,"route_url":null,"route_color":"009999","route_text_color":"FFFFFF","directions":["0"],"geometry_source":"shapes.txt"}},{"type":"Feature","id":"F026:3:303","geometry":{"type":"LineString","coordinates":[[139.425848,35.745479],[139.4258426,35.7455253],[139.4256656,35.7455117],[139.4262031,35.7443226],[139.4241249,35.7440002],[139.424273,35.743373],[139.4244318,35.7425393],[139.424675,35.741556],[139.425399,35.738063],[139.4253428,35.7374476],[139.4251753,35.7369352],[139.4249681,35.7363568],[139.423967,35.736597],[139.4212986,35.7373411],[139.4207637,35.7357624],[139.4206686,35.7351764],[139.4206314,35.7347085],[139.4198915,35.7347065],[139.4191295,35.7347093],[139.4190757,35.7321691],[139.4183728,35.7322394],[139.41826,35.732375],[139.4183486,35.7325347],[139.4190488,35.7325464],[139.4190919,35.734747],[139.4199184,35.7347502],[139.4206097,35.7347458],[139.4206196,35.7351421],[139.4207347,35.7357989],[139.4212789,35.7374006],[139.423408,35.736868],[139.4249402,35.736421],[139.425304,35.7374429],[139.4253142,35.7380975],[139.425185,35.738456],[139.424589,35.741304],[139.4243544,35.7425933],[139.424117,35.743671],[139.4240452,35.7440179],[139.4261604,35.7443394],[139.4255967,35.7455418],[139.4259082,35.745565],[139.427191,35.7456632],[139.4273616,35.7444364],[139.4280739,35.7445113],[139.4291618,35.744743],[139.429372,35.744381],[139.430223,35.742914],[139.4304624,35.7425148],[139.4317854,35.7425096],[139.4345857,35.7425163],[139.434634,35.74101],[139.4346176,35.739203],[139.434624,35.738641],[139.4346751,35.7360855],[139.4346927,35.7351793],[139.435311,35.7338462],[139.4345131,35.7335235],[139.434359,35.73361]]},"properties":{"id":"F026:3:303","feed_id":"F026","feed_slug":"higashiyamato-chokobus","municipality":"東大和市","service_name":"ちょこバス","license":"CC0 1.0","source_route_id":"3","route_short_name":null,"route_long_name":"ちょこバス往復ルート","route_desc":null,"route_type":3,"route_url":null,"route_color":"009999","route_text_color":"FFFFFF","directions":["0"],"geometry_source":"shapes.txt"}}]}
