{"type":"FeatureCollection","name":"higashiyamato-chokobus_stops","features":[{"type":"Feature","id":"F026:10_03","geometry":{"type":"Point","coordinates":[139.424674711646,35.7415562773796]},"properties":{"id":"F026:10_03","feed_id":"F026","feed_slug":"higashiyamato-chokobus","municipality":"東大和市","service_name":"ちょこバス","license":"CC0 1.0","source_stop_id":"10_03","stop_code":null,"stop_name":"いちょう通り","stop_desc":null,"zone_id":"10_03","location_type":0,"parent_station":null,"wheelchair_boarding":null}},{"type":"Feature","id":"F026:10_04","geometry":{"type":"Point","coordinates":[139.424588924446,35.7413037019574]},"properties":{"id":"F026:10_04","feed_id":"F026","feed_slug":"higashiyamato-chokobus","municipality":"東大和市","service_name":"ちょこバス","license":"CC0 1.0","source_stop_id":"10_04","stop_code":null,"stop_name":"いちょう通り","stop_desc":null,"zone_id":"10_04","location_type":0,"parent_station":null,"wheelchair_boarding":null}},{"type":"Feature","id":"F026:11_03","geometry":{"type":"Point","coordinates":[139.434675456276,35.7386411136928]},"properties":{"id":"F026:11_03","feed_id":"F026","feed_slug":"higashiyamato-chokobus","municipality":"東大和市","service_name":"ちょこバス","license":"CC0 1.0","source_stop_id":"11_03","stop_code":null,"stop_name":"ハミングホール","stop_desc":null,"zone_id":"11_03","location_type":0,"parent_station":null,"wheelchair_boarding":null}},{"type":"Feature","id":"F026:11_04","geometry":{"type":"Point","coordinates":[139.434550733563,35.7385605601514]},"properties":{"id":"F026:11_04","feed_id":"F026","feed_slug":"higashiyamato-chokobus","municipality":"東大和市","service_name":"ちょこバス","license":"CC0 1.0","source_stop_id":"11_04","stop_code":null,"stop_name":"ハミングホール","stop_desc":null,"zone_id":"11_04","location_type":0,"parent_station":null,"wheelchair_boarding":null}},{"type":"Feature","id":"F026:12_01","geometry":{"type":"Point","coordinates":[139.434068840248,35.7391744632798]},"properties":{"id":"F026:12_01","feed_id":"F026","feed_slug":"higashiyamato-chokobus","municipality":"東大和市","service_name":"ちょこバス","license":"CC0 1.0","source_stop_id":"12_01","stop_code":null,"stop_name":"ハミングホール北","stop_desc":null,"zone_id":"12_01","location_type":0,"parent_station":null,"wheelchair_boarding":null}},{"type":"Feature","id":"F026:12_02","geometry":{"type":"Point","coordinates":[139.43380206323,35.7390065186471]},"properties":{"id":"F026:12_02","feed_id":"F026","feed_slug":"higashiyamato-chokobus","municipality":"東大和市","service_name":"ちょこバス","license":"CC0 1.0","source_stop_id":"12_02","stop_code":null,"stop_name":"ハミングホール北","stop_desc":null,"zone_id":"12_02","location_type":0,"parent_station":null,"wheelchair_boarding":null}},{"type":"Feature","id":"F026:13_01","geometry":{"type":"Point","coordinates":[139.4397775,35.7571209]},"properties":{"id":"F026:13_01","feed_id":"F026","feed_slug":"higashiyamato-chokobus","municipality":"東大和市","service_name":"ちょこバス","license":"CC0 1.0","source_stop_id":"13_01","stop_code":null,"stop_name":"やまと苑","stop_desc":null,"zone_id":"13_01","location_type":0,"parent_station":null,"wheelchair_boarding":null}},{"type":"Feature","id":"F026:13_02","geometry":{"type":"Point","coordinates":[139.439763378111,35.7572562348767]},"properties":{"id":"F026:13_02","feed_id":"F026","feed_slug":"higashiyamato-chokobus","municipality":"東大和市","service_name":"ちょこバス","license":"CC0 1.0","source_stop_id":"13_02","stop_code":null,"stop_name":"やまと苑","stop_desc":null,"zone_id":"13_02","location_type":0,"parent_station":null,"wheelchair_boarding":null}},{"type":"Feature","id":"F026:14_01","geometry":{"type":"Point","coordinates":[139.435762314377,35.758864486644]},"properties":{"id":"F026:14_01","feed_id":"F026","feed_slug":"higashiyamato-chokobus","municipality":"東大和市","service_name":"ちょこバス","license":"CC0 1.0","source_stop_id":"14_01","stop_code":null,"stop_name":"狭山一丁目","stop_desc":null,"zone_id":"14_01","location_type":0,"parent_station":null,"wheelchair_boarding":null}},{"type":"Feature","id":"F026:14_02","geometry":{"type":"Point","coordinates":[139.436066570426,35.7587726983931]},"properties":{"id":"F026:14_02","feed_id":"F026","feed_slug":"higashiyamato-chokobus","municipality":"東大和市","service_name":"ちょこバス","license":"CC0 1.0","source_stop_id":"14_02","stop_code":null,"stop_name":"狭山一丁目","stop_desc":null,"zone_id":"14_02","location_type":0,"parent_station":null,"wheelchair_boarding":null}},{"type":"Feature","id":"F026:15_01","geometry":{"type":"Point","coordinates":[139.423108602568,35.7527883813392]},"properties":{"id":"F026:15_01","feed_id":"F026","feed_slug":"higashiyamato-chokobus","municipality":"東大和市","service_name":"ちょこバス","license":"CC0 1.0","source_stop_id":"15_01","stop_code":null,"stop_name":"郷土博物館入口(八幡神社・狭山緑地下)","stop_desc":null,"zone_id":"15_01","location_type":0,"parent_station":null,"wheelchair_boarding":null}},{"type":"Feature","id":"F026:15_02","geometry":{"type":"Point","coordinates":[139.423837270743,35.7530767793418]},"properties":{"id":"F026:15_02","feed_id":"F026","feed_slug":"higashiyamato-chokobus","municipality":"東大和市","service_name":"ちょこバス","license":"CC0 1.0","source_stop_id":"15_02","stop_code":null,"stop_name":"郷土博物館入口(八幡神社・狭山緑地下)","stop_desc":null,"zone_id":"15_02","location_type":0,"parent_station":null,"wheelchair_boarding":null}},{"type":"Feature","id":"F026:16_03","geometry":{"type":"Point","coordinates":[139.41826035157,35.7323747633492]},"properties":{"id":"F026:16_03","feed_id":"F026","feed_slug":"higashiyamato-chokobus","municipality":"東大和市","service_name":"ちょこバス","license":"CC0 1.0","source_stop_id":"16_03","stop_code":null,"stop_name":"玉川上水駅","stop_desc":null,"zone_id":"16_03","location_type":0,"parent_station":null,"wheelchair_boarding":null}},{"type":"Feature","id":"F026:17_01","geometry":{"type":"Point","coordinates":[139.433047392631,35.7587502496698]},"properties":{"id":"F026:17_01","feed_id":"F026","feed_slug":"higashiyamato-chokobus","municipality":"東大和市","service_name":"ちょこバス","license":"CC0 1.0","source_stop_id":"17_01","stop_code":null,"stop_name":"湖畔","stop_desc":null,"zone_id":"17_01","location_type":0,"parent_station":null,"wheelchair_boarding":null}},{"type":"Feature","id":"F026:17_02","geometry":{"type":"Point","coordinates":[139.433273445829,35.7588511473902]},"properties":{"id":"F026:17_02","feed_id":"F026","feed_slug":"higashiyamato-chokobus","municipality":"東大和市","service_name":"ちょこバス","license":"CC0 1.0","source_stop_id":"17_02","stop_code":null,"stop_name":"湖畔","stop_desc":null,"zone_id":"17_02","location_type":0,"parent_station":null,"wheelchair_boarding":null}},{"type":"Feature","id":"F026:18_01","geometry":{"type":"Point","coordinates":[139.430987737929,35.7581419412792]},"properties":{"id":"F026:18_01","feed_id":"F026","feed_slug":"higashiyamato-chokobus","municipality":"東大和市","service_name":"ちょこバス","license":"CC0 1.0","source_stop_id":"18_01","stop_code":null,"stop_name":"湖畔集会所","stop_desc":null,"zone_id":"18_01","location_type":0,"parent_station":null,"wheelchair_boarding":null}},{"type":"Feature","id":"F026:18_02","geometry":{"type":"Point","coordinates":[139.430989264502,35.7582488107522]},"properties":{"id":"F026:18_02","feed_id":"F026","feed_slug":"higashiyamato-chokobus","municipality":"東大和市","service_name":"ちょこバス","license":"CC0 1.0","source_stop_id":"18_02","stop_code":null,"stop_name":"湖畔集会所","stop_desc":null,"zone_id":"18_02","location_type":0,"parent_station":null,"wheelchair_boarding":null}},{"type":"Feature","id":"F026:19_01","geometry":{"type":"Point","coordinates":[139.444248496681,35.7513077892982]},"properties":{"id":"F026:19_01","feed_id":"F026","feed_slug":"higashiyamato-chokobus","municipality":"東大和市","service_name":"ちょこバス","license":"CC0 1.0","source_stop_id":"19_01","stop_code":null,"stop_name":"庚申街道","stop_desc":null,"zone_id":"19_01","location_type":0,"parent_station":null,"wheelchair_boarding":null}},{"type":"Feature","id":"F026:19_02","geometry":{"type":"Point","coordinates":[139.444410825493,35.751157130263]},"properties":{"id":"F026:19_02","feed_id":"F026","feed_slug":"higashiyamato-chokobus","municipality":"東大和市","service_name":"ちょこバス","license":"CC0 1.0","source_stop_id":"19_02","stop_code":null,"stop_name":"庚申街道","stop_desc":null,"zone_id":"19_02","location_type":0,"parent_station":null,"wheelchair_boarding":null}},{"type":"Feature","id":"F026:20_01","geometry":{"type":"Point","coordinates":[139.440616325723,35.7464906115743]},"properties":{"id":"F026:20_01","feed_id":"F026","feed_slug":"higashiyamato-chokobus","municipality":"東大和市","service_name":"ちょこバス","license":"CC0 1.0","source_stop_id":"20_01","stop_code":null,"stop_name":"江戸街道","stop_desc":null,"zone_id":"20_01","location_type":0,"parent_station":null,"wheelchair_boarding":null}},{"type":"Feature","id":"F026:20_02","geometry":{"type":"Point","coordinates":[139.440912806893,35.7463348632905]},"properties":{"id":"F026:20_02","feed_id":"F026","feed_slug":"higashiyamato-chokobus","municipality":"東大和市","service_name":"ちょこバス","license":"CC0 1.0","source_stop_id":"20_02","stop_code":null,"stop_name":"江戸街道","stop_desc":null,"zone_id":"20_02","location_type":0,"parent_station":null,"wheelchair_boarding":null}},{"type":"Feature","id":"F026:21_01","geometry":{"type":"Point","coordinates":[139.419628115527,35.7487696593423]},"properties":{"id":"F026:21_01","feed_id":"F026","feed_slug":"higashiyamato-chokobus","municipality":"東大和市","service_name":"ちょこバス","license":"CC0 1.0","source_stop_id":"21_01","stop_code":null,"stop_name":"芝中団地中央","stop_desc":null,"zone_id":"21_01","location_type":0,"parent_station":null,"wheelchair_boarding":null}},{"type":"Feature","id":"F026:21_02","geometry":{"type":"Point","coordinates":[139.4196324,35.7491835]},"properties":{"id":"F026:21_02","feed_id":"F026","feed_slug":"higashiyamato-chokobus","municipality":"東大和市","service_name":"ちょこバス","license":"CC0 1.0","source_stop_id":"21_02","stop_code":null,"stop_name":"芝中団地中央","stop_desc":null,"zone_id":"21_02","location_type":0,"parent_station":null,"wheelchair_boarding":null}},{"type":"Feature","id":"F026:22_01","geometry":{"type":"Point","coordinates":[139.421488447154,35.7499744092365]},"properties":{"id":"F026:22_01","feed_id":"F026","feed_slug":"higashiyamato-chokobus","municipality":"東大和市","service_name":"ちょこバス","license":"CC0 1.0","source_stop_id":"22_01","stop_code":null,"stop_name":"芝中団地北","stop_desc":null,"zone_id":"22_01","location_type":0,"parent_station":null,"wheelchair_boarding":null}},{"type":"Feature","id":"F026:22_02","geometry":{"type":"Point","coordinates":[139.4214125,35.7500783]},"properties":{"id":"F026:22_02","feed_id":"F026","feed_slug":"higashiyamato-chokobus","municipality":"東大和市","service_name":"ちょこバス","license":"CC0 1.0","source_stop_id":"22_02","stop_code":null,"stop_name":"芝中団地北","stop_desc":null,"zone_id":"22_02","location_type":0,"parent_station":null,"wheelchair_boarding":null}},{"type":"Feature","id":"F026:23_01","geometry":{"type":"Point","coordinates":[139.437919428602,35.7457063710365]},"properties":{"id":"F026:23_01","feed_id":"F026","feed_slug":"higashiyamato-chokobus","municipality":"東大和市","service_name":"ちょこバス","license":"CC0 1.0","source_stop_id":"23_01","stop_code":null,"stop_name":"消防署","stop_desc":null,"zone_id":"23_01","location_type":0,"parent_station":null,"wheelchair_boarding":null}},{"type":"Feature","id":"F026:23_02","geometry":{"type":"Point","coordinates":[139.438053783692,35.7460656403399]},"properties":{"id":"F026:23_02","feed_id":"F026","feed_slug":"higashiyamato-chokobus","municipality":"東大和市","service_name":"ちょこバス","license":"CC0 1.0","source_stop_id":"23_02","stop_code":null,"stop_name":"消防署","stop_desc":null,"zone_id":"23_02","location_type":0,"parent_station":null,"wheelchair_boarding":null}},{"type":"Feature","id":"F026:24_01","geometry":{"type":"Point","coordinates":[139.444326801995,35.7480969170987]},"properties":{"id":"F026:24_01","feed_id":"F026","feed_slug":"higashiyamato-chokobus","municipality":"東大和市","service_name":"ちょこバス","license":"CC0 1.0","source_stop_id":"24_01","stop_code":null,"stop_name":"上砂台","stop_desc":null,"zone_id":"24_01","location_type":0,"parent_station":null,"wheelchair_boarding":null}},{"type":"Feature","id":"F026:24_02","geometry":{"type":"Point","coordinates":[139.44445823023,35.7483265463126]},"properties":{"id":"F026:24_02","feed_id":"F026","feed_slug":"higashiyamato-chokobus","municipality":"東大和市","service_name":"ちょこバス","license":"CC0 1.0","source_stop_id":"24_02","stop_code":null,"stop_name":"上砂台","stop_desc":null,"zone_id":"24_02","location_type":0,"parent_station":null,"wheelchair_boarding":null}},{"type":"Feature","id":"F026:25_01","geometry":{"type":"Point","coordinates":[139.4163846,35.7463643]},"properties":{"id":"F026:25_01","feed_id":"F026","feed_slug":"higashiyamato-chokobus","municipality":"東大和市","service_name":"ちょこバス","license":"CC0 1.0","source_stop_id":"25_01","stop_code":null,"stop_name":"上北台駅","stop_desc":null,"zone_id":"25_01","location_type":0,"parent_station":null,"wheelchair_boarding":null}},{"type":"Feature","id":"F026:26_01","geometry":{"type":"Point","coordinates":[139.416733198964,35.7427209625997]},"properties":{"id":"F026:26_01","feed_id":"F026","feed_slug":"higashiyamato-chokobus","municipality":"東大和市","service_name":"ちょこバス","license":"CC0 1.0","source_stop_id":"26_01","stop_code":null,"stop_name":"上北台団地東","stop_desc":null,"zone_id":"26_01","location_type":0,"parent_station":null,"wheelchair_boarding":null}},{"type":"Feature","id":"F026:26_02","geometry":{"type":"Point","coordinates":[139.415846394728,35.7431207712355]},"properties":{"id":"F026:26_02","feed_id":"F026","feed_slug":"higashiyamato-chokobus","municipality":"東大和市","service_name":"ちょこバス","license":"CC0 1.0","source_stop_id":"26_02","stop_code":null,"stop_name":"上北台団地東","stop_desc":null,"zone_id":"26_02","location_type":0,"parent_station":null,"wheelchair_boarding":null}},{"type":"Feature","id":"F026:27_01","geometry":{"type":"Point","coordinates":[139.4408006,35.7561331]},"properties":{"id":"F026:27_01","feed_id":"F026","feed_slug":"higashiyamato-chokobus","municipality":"東大和市","service_name":"ちょこバス","license":"CC0 1.0","source_stop_id":"27_01","stop_code":null,"stop_name":"清水一丁目","stop_desc":null,"zone_id":"27_01","location_type":0,"parent_station":null,"wheelchair_boarding":null}},{"type":"Feature","id":"F026:27_02","geometry":{"type":"Point","coordinates":[139.4413666342,35.755945557248]},"properties":{"id":"F026:27_02","feed_id":"F026","feed_slug":"higashiyamato-chokobus","municipality":"東大和市","service_name":"ちょこバス","license":"CC0 1.0","source_stop_id":"27_02","stop_code":null,"stop_name":"清水一丁目","stop_desc":null,"zone_id":"27_02","location_type":0,"parent_station":null,"wheelchair_boarding":null}},{"type":"Feature","id":"F026:28_01","geometry":{"type":"Point","coordinates":[139.442054730732,35.755102474223]},"properties":{"id":"F026:28_01","feed_id":"F026","feed_slug":"higashiyamato-chokobus","municipality":"東大和市","service_name":"ちょこバス","license":"CC0 1.0","source_stop_id":"28_01","stop_code":null,"stop_name":"清水観音堂（郷土美術園）","stop_desc":null,"zone_id":"28_01","location_type":0,"parent_station":null,"wheelchair_boarding":null}},{"type":"Feature","id":"F026:28_02","geometry":{"type":"Point","coordinates":[139.442212845168,35.755180645602]},"properties":{"id":"F026:28_02","feed_id":"F026","feed_slug":"higashiyamato-chokobus","municipality":"東大和市","service_name":"ちょこバス","license":"CC0 1.0","source_stop_id":"28_02","stop_code":null,"stop_name":"清水観音堂（郷土美術園）","stop_desc":null,"zone_id":"28_02","location_type":0,"parent_station":null,"wheelchair_boarding":null}},{"type":"Feature","id":"F026:29_01","geometry":{"type":"Point","coordinates":[139.444176345217,35.753051280707]},"properties":{"id":"F026:29_01","feed_id":"F026","feed_slug":"higashiyamato-chokobus","municipality":"東大和市","service_name":"ちょこバス","license":"CC0 1.0","source_stop_id":"29_01","stop_code":null,"stop_name":"清水集会所","stop_desc":null,"zone_id":"29_01","location_type":0,"parent_station":null,"wheelchair_boarding":null}},{"type":"Feature","id":"F026:29_02","geometry":{"type":"Point","coordinates":[139.444306432348,35.7530850199769]},"properties":{"id":"F026:29_02","feed_id":"F026","feed_slug":"higashiyamato-chokobus","municipality":"東大和市","service_name":"ちょこバス","license":"CC0 1.0","source_stop_id":"29_02","stop_code":null,"stop_name":"清水集会所","stop_desc":null,"zone_id":"29_02","location_type":0,"parent_station":null,"wheelchair_boarding":null}},{"type":"Feature","id":"F026:30_01","geometry":{"type":"Point","coordinates":[139.44428154036,35.7495675747029]},"properties":{"id":"F026:30_01","feed_id":"F026","feed_slug":"higashiyamato-chokobus","municipality":"東大和市","service_name":"ちょこバス","license":"CC0 1.0","source_stop_id":"30_01","stop_code":null,"stop_name":"清水大橋","stop_desc":null,"zone_id":"30_01","location_type":0,"parent_station":null,"wheelchair_boarding":null}},{"type":"Feature","id":"F026:30_02","geometry":{"type":"Point","coordinates":[139.444432027125,35.7499730260836]},"properties":{"id":"F026:30_02","feed_id":"F026","feed_slug":"higashiyamato-chokobus","municipality":"東大和市","service_name":"ちょこバス","license":"CC0 1.0","source_stop_id":"30_02","stop_code":null,"stop_name":"清水大橋","stop_desc":null,"zone_id":"30_02","location_type":0,"parent_station":null,"wheelchair_boarding":null}},{"type":"Feature","id":"F026:31_01","geometry":{"type":"Point","coordinates":[139.444369255003,35.7465642326987]},"properties":{"id":"F026:31_01","feed_id":"F026","feed_slug":"higashiyamato-chokobus","municipality":"東大和市","service_name":"ちょこバス","license":"CC0 1.0","source_stop_id":"31_01","stop_code":null,"stop_name":"清水六丁目","stop_desc":null,"zone_id":"31_01","location_type":0,"parent_station":null,"wheelchair_boarding":null}},{"type":"Feature","id":"F026:31_02","geometry":{"type":"Point","coordinates":[139.444516500594,35.7466686117828]},"properties":{"id":"F026:31_02","feed_id":"F026","feed_slug":"higashiyamato-chokobus","municipality":"東大和市","service_name":"ちょこバス","license":"CC0 1.0","source_stop_id":"31_02","stop_code":null,"stop_name":"清水六丁目","stop_desc":null,"zone_id":"31_02","location_type":0,"parent_station":null,"wheelchair_boarding":null}},{"type":"Feature","id":"F026:32_03","geometry":{"type":"Point","coordinates":[139.41968,35.73469]},"properties":{"id":"F026:32_03","feed_id":"F026","feed_slug":"higashiyamato-chokobus","municipality":"東大和市","service_name":"ちょこバス","license":"CC0 1.0","source_stop_id":"32_03","stop_code":null,"stop_name":"総合福祉センター「は～とふる」","stop_desc":null,"zone_id":"32_03","location_type":0,"parent_station":null,"wheelchair_boarding":null}},{"type":"Feature","id":"F026:32_04","geometry":{"type":"Point","coordinates":[139.41993,35.73478]},"properties":{"id":"F026:32_04","feed_id":"F026","feed_slug":"higashiyamato-chokobus","municipality":"東大和市","service_name":"ちょこバス","license":"CC0 1.0","source_stop_id":"32_04","stop_code":null,"stop_name":"総合福祉センター「は～とふる」","stop_desc":null,"zone_id":"32_04","location_type":0,"parent_station":null,"wheelchair_boarding":null}},{"type":"Feature","id":"F026:33_01","geometry":{"type":"Point","coordinates":[139.437455256793,35.7583346958887]},"properties":{"id":"F026:33_01","feed_id":"F026","feed_slug":"higashiyamato-chokobus","municipality":"東大和市","service_name":"ちょこバス","license":"CC0 1.0","source_stop_id":"33_01","stop_code":null,"stop_name":"多摩湖堤防下（狭山保育園入口）","stop_desc":null,"zone_id":"33_01","location_type":0,"parent_station":null,"wheelchair_boarding":null}},{"type":"Feature","id":"F026:33_02","geometry":{"type":"Point","coordinates":[139.437355369706,35.7584340551114]},"properties":{"id":"F026:33_02","feed_id":"F026","feed_slug":"higashiyamato-chokobus","municipality":"東大和市","service_name":"ちょこバス","license":"CC0 1.0","source_stop_id":"33_02","stop_code":null,"stop_name":"多摩湖堤防下（狭山保育園入口）","stop_desc":null,"zone_id":"33_02","location_type":0,"parent_station":null,"wheelchair_boarding":null}},{"type":"Feature","id":"F026:34_01","geometry":{"type":"Point","coordinates":[139.430223298772,35.7429139769593]},"properties":{"id":"F026:34_01","feed_id":"F026","feed_slug":"higashiyamato-chokobus","municipality":"東大和市","service_name":"ちょこバス","license":"CC0 1.0","source_stop_id":"34_01","stop_code":null,"stop_name":"中央二丁目","stop_desc":null,"zone_id":"34_01","location_type":0,"parent_station":null,"wheelchair_boarding":null}},{"type":"Feature","id":"F026:34_02","geometry":{"type":"Point","coordinates":[139.429984023901,35.7431490660285]},"properties":{"id":"F026:34_02","feed_id":"F026","feed_slug":"higashiyamato-chokobus","municipality":"東大和市","service_name":"ちょこバス","license":"CC0 1.0","source_stop_id":"34_02","stop_code":null,"stop_name":"中央二丁目","stop_desc":null,"zone_id":"34_02","location_type":0,"parent_station":null,"wheelchair_boarding":null}},{"type":"Feature","id":"F026:35_01","geometry":{"type":"Point","coordinates":[139.415946450971,35.7441475095119]},"properties":{"id":"F026:35_01","feed_id":"F026","feed_slug":"higashiyamato-chokobus","municipality":"東大和市","service_name":"ちょこバス","license":"CC0 1.0","source_stop_id":"35_01","stop_code":null,"stop_name":"中北台","stop_desc":null,"zone_id":"35_01","location_type":0,"parent_station":null,"wheelchair_boarding":null}},{"type":"Feature","id":"F026:35_02","geometry":{"type":"Point","coordinates":[139.415757424092,35.7442308503293]},"properties":{"id":"F026:35_02","feed_id":"F026","feed_slug":"higashiyamato-chokobus","municipality":"東大和市","service_name":"ちょこバス","license":"CC0 1.0","source_stop_id":"35_02","stop_code":null,"stop_name":"中北台","stop_desc":null,"zone_id":"35_02","location_type":0,"parent_station":null,"wheelchair_boarding":null}},{"type":"Feature","id":"F026:36_01","geometry":{"type":"Point","coordinates":[139.437641192603,35.7443244451397]},"properties":{"id":"F026:36_01","feed_id":"F026","feed_slug":"higashiyamato-chokobus","municipality":"東大和市","service_name":"ちょこバス","license":"CC0 1.0","source_stop_id":"36_01","stop_code":null,"stop_name":"仲原三丁目","stop_desc":null,"zone_id":"36_01","location_type":0,"parent_station":null,"wheelchair_boarding":null}},{"type":"Feature","id":"F026:36_02","geometry":{"type":"Point","coordinates":[139.437564964708,35.7442348150062]},"properties":{"id":"F026:36_02","feed_id":"F026","feed_slug":"higashiyamato-chokobus","municipality":"東大和市","service_name":"ちょこバス","license":"CC0 1.0","source_stop_id":"36_02","stop_code":null,"stop_name":"仲原三丁目","stop_desc":null,"zone_id":"36_02","location_type":0,"parent_station":null,"wheelchair_boarding":null}},{"type":"Feature","id":"F026:37_01","geometry":{"type":"Point","coordinates":[139.436009823354,35.7425808216085]},"properties":{"id":"F026:37_01","feed_id":"F026","feed_slug":"higashiyamato-chokobus","municipality":"東大和市","service_name":"ちょこバス","license":"CC0 1.0","source_stop_id":"37_01","stop_code":null,"stop_name":"仲原四丁目","stop_desc":null,"zone_id":"37_01","location_type":0,"parent_station":null,"wheelchair_boarding":null}},{"type":"Feature","id":"F026:37_02","geometry":{"type":"Point","coordinates":[139.436239796666,35.7424949273432]},"properties":{"id":"F026:37_02","feed_id":"F026","feed_slug":"higashiyamato-chokobus","municipality":"東大和市","service_name":"ちょこバス","license":"CC0 1.0","source_stop_id":"37_02","stop_code":null,"stop_name":"仲原四丁目","stop_desc":null,"zone_id":"37_02","location_type":0,"parent_station":null,"wheelchair_boarding":null}},{"type":"Feature","id":"F026:38_01","geometry":{"type":"Point","coordinates":[139.4345,35.74091]},"properties":{"id":"F026:38_01","feed_id":"F026","feed_slug":"higashiyamato-chokobus","municipality":"東大和市","service_name":"ちょこバス","license":"CC0 1.0","source_stop_id":"38_01","stop_code":null,"stop_name":"都営向原アパート","stop_desc":null,"zone_id":"38_01","location_type":0,"parent_station":null,"wheelchair_boarding":null}},{"type":"Feature","id":"F026:38_02","geometry":{"type":"Point","coordinates":[139.43462,35.74102]},"properties":{"id":"F026:38_02","feed_id":"F026","feed_slug":"higashiyamato-chokobus","municipality":"東大和市","service_name":"ちょこバス","license":"CC0 1.0","source_stop_id":"38_02","stop_code":null,"stop_name":"都営向原アパート","stop_desc":null,"zone_id":"38_02","location_type":0,"parent_station":null,"wheelchair_boarding":null}},{"type":"Feature","id":"F026:39_01","geometry":{"type":"Point","coordinates":[139.424117350167,35.7436713951119]},"properties":{"id":"F026:39_01","feed_id":"F026","feed_slug":"higashiyamato-chokobus","municipality":"東大和市","service_name":"ちょこバス","license":"CC0 1.0","source_stop_id":"39_01","stop_code":null,"stop_name":"都立東大和高校南","stop_desc":null,"zone_id":"39_01","location_type":0,"parent_station":null,"wheelchair_boarding":null}},{"type":"Feature","id":"F026:39_02","geometry":{"type":"Point","coordinates":[139.424273171534,35.7433734113703]},"properties":{"id":"F026:39_02","feed_id":"F026","feed_slug":"higashiyamato-chokobus","municipality":"東大和市","service_name":"ちょこバス","license":"CC0 1.0","source_stop_id":"39_02","stop_code":null,"stop_name":"都立東大和高校南","stop_desc":null,"zone_id":"39_02","location_type":0,"parent_station":null,"wheelchair_boarding":null}},{"type":"Feature","id":"F026:40_03","geometry":{"type":"Point","coordinates":[139.425399031579,35.7380634742148]},"properties":{"id":"F026:40_03","feed_id":"F026","feed_slug":"higashiyamato-chokobus","municipality":"東大和市","service_name":"ちょこバス","license":"CC0 1.0","source_stop_id":"40_03","stop_code":null,"stop_name":"東大和グリーンタウン","stop_desc":null,"zone_id":"40_03","location_type":0,"parent_station":null,"wheelchair_boarding":null}},{"type":"Feature","id":"F026:40_04","geometry":{"type":"Point","coordinates":[139.425185367928,35.7384558971428]},"properties":{"id":"F026:40_04","feed_id":"F026","feed_slug":"higashiyamato-chokobus","municipality":"東大和市","service_name":"ちょこバス","license":"CC0 1.0","source_stop_id":"40_04","stop_code":null,"stop_name":"東大和グリーンタウン","stop_desc":null,"zone_id":"40_04","location_type":0,"parent_station":null,"wheelchair_boarding":null}},{"type":"Feature","id":"F026:41_01","geometry":{"type":"Point","coordinates":[139.4296142,35.7565022]},"properties":{"id":"F026:41_01","feed_id":"F026","feed_slug":"higashiyamato-chokobus","municipality":"東大和市","service_name":"ちょこバス","license":"CC0 1.0","source_stop_id":"41_01","stop_code":null,"stop_name":"東大和公園入口","stop_desc":null,"zone_id":"41_01","location_type":0,"parent_station":null,"wheelchair_boarding":null}},{"type":"Feature","id":"F026:41_02","geometry":{"type":"Point","coordinates":[139.429655320684,35.756714723049]},"properties":{"id":"F026:41_02","feed_id":"F026","feed_slug":"higashiyamato-chokobus","municipality":"東大和市","service_name":"ちょこバス","license":"CC0 1.0","source_stop_id":"41_02","stop_code":null,"stop_name":"東大和公園入口","stop_desc":null,"zone_id":"41_02","location_type":0,"parent_station":null,"wheelchair_boarding":null}},{"type":"Feature","id":"F026:42_01","geometry":{"type":"Point","coordinates":[139.418893489404,35.7426975890816]},"properties":{"id":"F026:42_01","feed_id":"F026","feed_slug":"higashiyamato-chokobus","municipality":"東大和市","service_name":"ちょこバス","license":"CC0 1.0","source_stop_id":"42_01","stop_code":null,"stop_name":"東大和四中南","stop_desc":null,"zone_id":"42_01","location_type":0,"parent_station":null,"wheelchair_boarding":null}},{"type":"Feature","id":"F026:42_02","geometry":{"type":"Point","coordinates":[139.418751332333,35.7425430211706]},"properties":{"id":"F026:42_02","feed_id":"F026","feed_slug":"higashiyamato-chokobus","municipality":"東大和市","service_name":"ちょこバス","license":"CC0 1.0","source_stop_id":"42_02","stop_code":null,"stop_name":"東大和四中南","stop_desc":null,"zone_id":"42_02","location_type":0,"parent_station":null,"wheelchair_boarding":null}},{"type":"Feature","id":"F026:43_03","geometry":{"type":"Point","coordinates":[139.420733086991,35.7353681390813]},"properties":{"id":"F026:43_03","feed_id":"F026","feed_slug":"higashiyamato-chokobus","municipality":"東大和市","service_name":"ちょこバス","license":"CC0 1.0","source_stop_id":"43_03","stop_code":null,"stop_name":"東大和S＆D体育館（戦災建造物「変電所」）","stop_desc":null,"zone_id":"43_03","location_type":0,"parent_station":null,"wheelchair_boarding":null}},{"type":"Feature","id":"F026:43_04","geometry":{"type":"Point","coordinates":[139.420566391463,35.7351287751686]},"properties":{"id":"F026:43_04","feed_id":"F026","feed_slug":"higashiyamato-chokobus","municipality":"東大和市","service_name":"ちょこバス","license":"CC0 1.0","source_stop_id":"43_04","stop_code":null,"stop_name":"東大和S＆D体育館（戦災建造物「変電所」）","stop_desc":null,"zone_id":"43_04","location_type":0,"parent_station":null,"wheelchair_boarding":null}},{"type":"Feature","id":"F026:44_03","geometry":{"type":"Point","coordinates":[139.434358845572,35.7336096153405]},"properties":{"id":"F026:44_03","feed_id":"F026","feed_slug":"higashiyamato-chokobus","municipality":"東大和市","service_name":"ちょこバス","license":"CC0 1.0","source_stop_id":"44_03","stop_code":null,"stop_name":"東大和市駅","stop_desc":null,"zone_id":"44_03","location_type":0,"parent_station":null,"wheelchair_boarding":null}},{"type":"Feature","id":"F026:45_01","geometry":{"type":"Point","coordinates":[139.4259019,35.7455964]},"properties":{"id":"F026:45_01","feed_id":"F026","feed_slug":"higashiyamato-chokobus","municipality":"東大和市","service_name":"ちょこバス","license":"CC0 1.0","source_stop_id":"45_01","stop_code":null,"stop_name":"東大和市役所","stop_desc":null,"zone_id":"45_01","location_type":0,"parent_station":null,"wheelchair_boarding":null}},{"type":"Feature","id":"F026:45_02","geometry":{"type":"Point","coordinates":[139.425847783188,35.7454791779365]},"properties":{"id":"F026:45_02","feed_id":"F026","feed_slug":"higashiyamato-chokobus","municipality":"東大和市","service_name":"ちょこバス","license":"CC0 1.0","source_stop_id":"45_02","stop_code":null,"stop_name":"東大和市役所","stop_desc":null,"zone_id":"45_02","location_type":0,"parent_station":null,"wheelchair_boarding":null}},{"type":"Feature","id":"F026:46_01","geometry":{"type":"Point","coordinates":[139.42937169349,35.7443810107507]},"properties":{"id":"F026:46_01","feed_id":"F026","feed_slug":"higashiyamato-chokobus","municipality":"東大和市","service_name":"ちょこバス","license":"CC0 1.0","source_stop_id":"46_01","stop_code":null,"stop_name":"東大和市役所入口","stop_desc":null,"zone_id":"46_01","location_type":0,"parent_station":null,"wheelchair_boarding":null}},{"type":"Feature","id":"F026:46_02","geometry":{"type":"Point","coordinates":[139.42935213202,35.7442343087096]},"properties":{"id":"F026:46_02","feed_id":"F026","feed_slug":"higashiyamato-chokobus","municipality":"東大和市","service_name":"ちょこバス","license":"CC0 1.0","source_stop_id":"46_02","stop_code":null,"stop_name":"東大和市役所入口","stop_desc":null,"zone_id":"46_02","location_type":0,"parent_station":null,"wheelchair_boarding":null}},{"type":"Feature","id":"F026:47_01","geometry":{"type":"Point","coordinates":[139.421804668047,35.742629689175]},"properties":{"id":"F026:47_01","feed_id":"F026","feed_slug":"higashiyamato-chokobus","municipality":"東大和市","service_name":"ちょこバス","license":"CC0 1.0","source_stop_id":"47_01","stop_code":null,"stop_name":"東大和八小北","stop_desc":null,"zone_id":"47_01","location_type":0,"parent_station":null,"wheelchair_boarding":null}},{"type":"Feature","id":"F026:47_02","geometry":{"type":"Point","coordinates":[139.421796801011,35.7425226287877]},"properties":{"id":"F026:47_02","feed_id":"F026","feed_slug":"higashiyamato-chokobus","municipality":"東大和市","service_name":"ちょこバス","license":"CC0 1.0","source_stop_id":"47_02","stop_code":null,"stop_name":"東大和八小北","stop_desc":null,"zone_id":"47_02","location_type":0,"parent_station":null,"wheelchair_boarding":null}},{"type":"Feature","id":"F026:48_01","geometry":{"type":"Point","coordinates":[139.431213176411,35.7412540625738]},"properties":{"id":"F026:48_01","feed_id":"F026","feed_slug":"higashiyamato-chokobus","municipality":"東大和市","service_name":"ちょこバス","license":"CC0 1.0","source_stop_id":"48_01","stop_code":null,"stop_name":"東大和病院","stop_desc":null,"zone_id":"48_01","location_type":0,"parent_station":null,"wheelchair_boarding":null}},{"type":"Feature","id":"F026:48_02","geometry":{"type":"Point","coordinates":[139.43102778172,35.7413610836911]},"properties":{"id":"F026:48_02","feed_id":"F026","feed_slug":"higashiyamato-chokobus","municipality":"東大和市","service_name":"ちょこバス","license":"CC0 1.0","source_stop_id":"48_02","stop_code":null,"stop_name":"東大和病院","stop_desc":null,"zone_id":"48_02","location_type":0,"parent_station":null,"wheelchair_boarding":null}},{"type":"Feature","id":"F026:49_03","geometry":{"type":"Point","coordinates":[139.431720916278,35.7425511109179]},"properties":{"id":"F026:49_03","feed_id":"F026","feed_slug":"higashiyamato-chokobus","municipality":"東大和市","service_name":"ちょこバス","license":"CC0 1.0","source_stop_id":"49_03","stop_code":null,"stop_name":"東大和病院北","stop_desc":null,"zone_id":"49_03","location_type":0,"parent_station":null,"wheelchair_boarding":null}},{"type":"Feature","id":"F026:49_04","geometry":{"type":"Point","coordinates":[139.431908879983,35.7424379195512]},"properties":{"id":"F026:49_04","feed_id":"F026","feed_slug":"higashiyamato-chokobus","municipality":"東大和市","service_name":"ちょこバス","license":"CC0 1.0","source_stop_id":"49_04","stop_code":null,"stop_name":"東大和病院北","stop_desc":null,"zone_id":"49_04","location_type":0,"parent_station":null,"wheelchair_boarding":null}},{"type":"Feature","id":"F026:50_01","geometry":{"type":"Point","coordinates":[139.443957346742,35.7460135182125]},"properties":{"id":"F026:50_01","feed_id":"F026","feed_slug":"higashiyamato-chokobus","municipality":"東大和市","service_name":"ちょこバス","license":"CC0 1.0","source_stop_id":"50_01","stop_code":null,"stop_name":"東大和六小北","stop_desc":null,"zone_id":"50_01","location_type":0,"parent_station":null,"wheelchair_boarding":null}},{"type":"Feature","id":"F026:50_02","geometry":{"type":"Point","coordinates":[139.443663334293,35.7459491950224]},"properties":{"id":"F026:50_02","feed_id":"F026","feed_slug":"higashiyamato-chokobus","municipality":"東大和市","service_name":"ちょこバス","license":"CC0 1.0","source_stop_id":"50_02","stop_code":null,"stop_name":"東大和六小北","stop_desc":null,"zone_id":"50_02","location_type":0,"parent_station":null,"wheelchair_boarding":null}},{"type":"Feature","id":"F026:51_01","geometry":{"type":"Point","coordinates":[139.4257256,35.7526795]},"properties":{"id":"F026:51_01","feed_id":"F026","feed_slug":"higashiyamato-chokobus","municipality":"東大和市","service_name":"ちょこバス","license":"CC0 1.0","source_stop_id":"51_01","stop_code":null,"stop_name":"奈良橋市民センター","stop_desc":null,"zone_id":"51_01","location_type":0,"parent_station":null,"wheelchair_boarding":null}},{"type":"Feature","id":"F026:51_02","geometry":{"type":"Point","coordinates":[139.4261882,35.7527694]},"properties":{"id":"F026:51_02","feed_id":"F026","feed_slug":"higashiyamato-chokobus","municipality":"東大和市","service_name":"ちょこバス","license":"CC0 1.0","source_stop_id":"51_02","stop_code":null,"stop_name":"奈良橋市民センター","stop_desc":null,"zone_id":"51_02","location_type":0,"parent_station":null,"wheelchair_boarding":null}},{"type":"Feature","id":"F026:52_01","geometry":{"type":"Point","coordinates":[139.42678923026,35.7532822826111]},"properties":{"id":"F026:52_01","feed_id":"F026","feed_slug":"higashiyamato-chokobus","municipality":"東大和市","service_name":"ちょこバス","license":"CC0 1.0","source_stop_id":"52_01","stop_code":null,"stop_name":"奈良橋川","stop_desc":null,"zone_id":"52_01","location_type":0,"parent_station":null,"wheelchair_boarding":null}},{"type":"Feature","id":"F026:52_02","geometry":{"type":"Point","coordinates":[139.426809426008,35.7535839784536]},"properties":{"id":"F026:52_02","feed_id":"F026","feed_slug":"higashiyamato-chokobus","municipality":"東大和市","service_name":"ちょこバス","license":"CC0 1.0","source_stop_id":"52_02","stop_code":null,"stop_name":"奈良橋川","stop_desc":null,"zone_id":"52_02","location_type":0,"parent_station":null,"wheelchair_boarding":null}},{"type":"Feature","id":"F026:53_03","geometry":{"type":"Point","coordinates":[139.423966946645,35.7365967179722]},"properties":{"id":"F026:53_03","feed_id":"F026","feed_slug":"higashiyamato-chokobus","municipality":"東大和市","service_name":"ちょこバス","license":"CC0 1.0","source_stop_id":"53_03","stop_code":null,"stop_name":"南街","stop_desc":null,"zone_id":"53_03","location_type":0,"parent_station":null,"wheelchair_boarding":null}},{"type":"Feature","id":"F026:53_04","geometry":{"type":"Point","coordinates":[139.423408273807,35.7368681771334]},"properties":{"id":"F026:53_04","feed_id":"F026","feed_slug":"higashiyamato-chokobus","municipality":"東大和市","service_name":"ちょこバス","license":"CC0 1.0","source_stop_id":"53_04","stop_code":null,"stop_name":"南街","stop_desc":null,"zone_id":"53_04","location_type":0,"parent_station":null,"wheelchair_boarding":null}},{"type":"Feature","id":"F026:54_03","geometry":{"type":"Point","coordinates":[139.434710270182,35.7360791374897]},"properties":{"id":"F026:54_03","feed_id":"F026","feed_slug":"higashiyamato-chokobus","municipality":"東大和市","service_name":"ちょこバス","license":"CC0 1.0","source_stop_id":"54_03","stop_code":null,"stop_name":"南街四丁目","stop_desc":null,"zone_id":"54_03","location_type":0,"parent_station":null,"wheelchair_boarding":null}},{"type":"Feature","id":"F026:54_04","geometry":{"type":"Point","coordinates":[139.434589919868,35.7363610090293]},"properties":{"id":"F026:54_04","feed_id":"F026","feed_slug":"higashiyamato-chokobus","municipality":"東大和市","service_name":"ちょこバス","license":"CC0 1.0","source_stop_id":"54_04","stop_code":null,"stop_name":"南街四丁目","stop_desc":null,"zone_id":"54_04","location_type":0,"parent_station":null,"wheelchair_boarding":null}},{"type":"Feature","id":"F026:55_01","geometry":{"type":"Point","coordinates":[139.432242544952,35.739420425433]},"properties":{"id":"F026:55_01","feed_id":"F026","feed_slug":"higashiyamato-chokobus","municipality":"東大和市","service_name":"ちょこバス","license":"CC0 1.0","source_stop_id":"55_01","stop_code":null,"stop_name":"南街入口","stop_desc":null,"zone_id":"55_01","location_type":0,"parent_station":null,"wheelchair_boarding":null}},{"type":"Feature","id":"F026:55_02","geometry":{"type":"Point","coordinates":[139.43236268507,35.7390110287374]},"properties":{"id":"F026:55_02","feed_id":"F026","feed_slug":"higashiyamato-chokobus","municipality":"東大和市","service_name":"ちょこバス","license":"CC0 1.0","source_stop_id":"55_02","stop_code":null,"stop_name":"南街入口","stop_desc":null,"zone_id":"55_02","location_type":0,"parent_station":null,"wheelchair_boarding":null}},{"type":"Feature","id":"F026:56_01","geometry":{"type":"Point","coordinates":[139.4283347,35.7560231]},"properties":{"id":"F026:56_01","feed_id":"F026","feed_slug":"higashiyamato-chokobus","municipality":"東大和市","service_name":"ちょこバス","license":"CC0 1.0","source_stop_id":"56_01","stop_code":null,"stop_name":"二ツ池公園","stop_desc":null,"zone_id":"56_01","location_type":0,"parent_station":null,"wheelchair_boarding":null}},{"type":"Feature","id":"F026:56_02","geometry":{"type":"Point","coordinates":[139.4281149,35.7560371]},"properties":{"id":"F026:56_02","feed_id":"F026","feed_slug":"higashiyamato-chokobus","municipality":"東大和市","service_name":"ちょこバス","license":"CC0 1.0","source_stop_id":"56_02","stop_code":null,"stop_name":"二ツ池公園","stop_desc":null,"zone_id":"56_02","location_type":0,"parent_station":null,"wheelchair_boarding":null}},{"type":"Feature","id":"F026:57_01","geometry":{"type":"Point","coordinates":[139.422828826448,35.7503142915479]},"properties":{"id":"F026:57_01","feed_id":"F026","feed_slug":"higashiyamato-chokobus","municipality":"東大和市","service_name":"ちょこバス","license":"CC0 1.0","source_stop_id":"57_01","stop_code":null,"stop_name":"八幡通り","stop_desc":null,"zone_id":"57_01","location_type":0,"parent_station":null,"wheelchair_boarding":null}},{"type":"Feature","id":"F026:57_02","geometry":{"type":"Point","coordinates":[139.422678622751,35.7503208219549]},"properties":{"id":"F026:57_02","feed_id":"F026","feed_slug":"higashiyamato-chokobus","municipality":"東大和市","service_name":"ちょこバス","license":"CC0 1.0","source_stop_id":"57_02","stop_code":null,"stop_name":"八幡通り","stop_desc":null,"zone_id":"57_02","location_type":0,"parent_station":null,"wheelchair_boarding":null}},{"type":"Feature","id":"F026:58_01","geometry":{"type":"Point","coordinates":[139.443790354876,35.7545050826105]},"properties":{"id":"F026:58_01","feed_id":"F026","feed_slug":"higashiyamato-chokobus","municipality":"東大和市","service_name":"ちょこバス","license":"CC0 1.0","source_stop_id":"58_01","stop_code":null,"stop_name":"武蔵大和駅入口","stop_desc":null,"zone_id":"58_01","location_type":0,"parent_station":null,"wheelchair_boarding":null}},{"type":"Feature","id":"F026:58_02","geometry":{"type":"Point","coordinates":[139.443771639609,35.7549979664427]},"properties":{"id":"F026:58_02","feed_id":"F026","feed_slug":"higashiyamato-chokobus","municipality":"東大和市","service_name":"ちょこバス","license":"CC0 1.0","source_stop_id":"58_02","stop_code":null,"stop_name":"武蔵大和駅入口","stop_desc":null,"zone_id":"58_02","location_type":0,"parent_station":null,"wheelchair_boarding":null}},{"type":"Feature","id":"F026:59_01","geometry":{"type":"Point","coordinates":[139.423519184664,35.7426392364815]},"properties":{"id":"F026:59_01","feed_id":"F026","feed_slug":"higashiyamato-chokobus","municipality":"東大和市","service_name":"ちょこバス","license":"CC0 1.0","source_stop_id":"59_01","stop_code":null,"stop_name":"立野東公園南","stop_desc":null,"zone_id":"59_01","location_type":0,"parent_station":null,"wheelchair_boarding":null}},{"type":"Feature","id":"F026:59_02","geometry":{"type":"Point","coordinates":[139.42352284309,35.742511483592]},"properties":{"id":"F026:59_02","feed_id":"F026","feed_slug":"higashiyamato-chokobus","municipality":"東大和市","service_name":"ちょこバス","license":"CC0 1.0","source_stop_id":"59_02","stop_code":null,"stop_name":"立野東公園南","stop_desc":null,"zone_id":"59_02","location_type":0,"parent_station":null,"wheelchair_boarding":null}}]}
